{
  "type": "FeatureCollection",
  "name": "Benwadi_Gat231_Drone_RTK_Resurvey_Verified",
  "crs": {
    "type": "name",
    "properties": {
      "name": "urn:ogc:def:crs:OGC:1.3:CRS84"
    }
  },
  "features": [
    {
      "type": "Feature",
      "properties": {
        "parcel_id": "MH-AHM-KAR-BEN-231",
        "survey_no": "231",
        "gat_no": "231",
        "khata_no": "141, 149, 184, 3004",
        "owner_name": "पंढरीनाथ शंकर देशमूख, पार्वती शंकर देशमूख, बूवासाहेब शंकर देशमूख व इतर",
        "joint_owners": [
          "पार्वती शंकर देशमूख (Khata: 149)",
          "बूवासाहेब शंकर देशमूख (Khata: 184)",
          "श्वेता कल्याण देशमुख",
          "सारिका प्रशांत शिंदे",
          "हनुमंत दिगांबर देशमुख"
        ],
        "father_name": "शंकर रामजी देशमुख",
        "village": "Benwadi",
        "village_mr": "बेनवडी",
        "taluka": "Karjat",
        "taluka_mr": "कर्जत",
        "district": "Ahmednagar",
        "district_mr": "अहमदनगर",
        "state": "Maharashtra",
        "land_type": "जिरायत व बागायत शेती (Jirayat & Bagayat - Mixed Agricultural)",
        "land_class_code": "AGRI-JIR-01",
        "status": "verified",
        "confidence_score": 98.6,
        "old_survey_area_acres": 18.28,
        "old_survey_area_sqm": 73967.7,
        "new_survey_area_acres": 18.29,
        "new_survey_area_sqm": 74013.5,
        "area_diff_pct": 0.06,
        "mean_shift_m": 0.42,
        "iou_overlap_pct": 98.9,
        "survey_date": "2024-11-08",
        "drone_model": "DJI Matrice 350 RTK + Zenmuse P1 (35mm)",
        "rtk_accuracy_cm": 1.2,
        "gcp_count": 8,
        "ror_extract_no": "MH-712-AHM-2024-884210",
        "assessment_rupees": "48.50",
        "soil_type": "काळी कसदार जमीन (Black Cotton Soil)",
        "crops": [
          {
            "name": "ज्वारी (Maldandi Jowar)",
            "area_acres": 8.0,
            "season": "रब्बी (Rabi)"
          },
          {
            "name": "कांदा (Onion)",
            "area_acres": 6.0,
            "season": "रब्बी (Rabi)"
          },
          {
            "name": "सोयाबीन (Soybean)",
            "area_acres": 4.28,
            "season": "खरीप (Kharif)"
          }
        ],
        "ferfar_entries": [
          {
            "ferfar_no": "2140",
            "date": "2021-06-18",
            "type": "वारस नोंद (Inheritance Record)",
            "status": "मंजूर (Approved)"
          },
          {
            "ferfar_no": "2890",
            "date": "2023-11-05",
            "type": "डिजिटल ड्रोन प्रमाणीकरण (Digital Drone Cadastral Certification)",
            "status": "प्रमाणित (Certified)"
          }
        ],
        "review_reason": "Centimeter-accurate RTK resurvey: Uploaded GeoJSON boundary coincides with MahaBhuNaksha K-Prat Ground Record within 0.42m tolerance. Title cleared."
      },
      "geometry": {
        "type": "Polygon",
        "coordinates": [
          [
            [
              74.9629868,
              18.4890026
            ],
            [
              74.9644941,
              18.4883145
            ],
            [
              74.9638252,
              18.4874613
            ],
            [
              74.9634034,
              18.4869037
            ],
            [
              74.9633077,
              18.4868153
            ],
            [
              74.9624401,
              18.4869774
            ],
            [
              74.9625792,
              18.4877665
            ],
            [
              74.9604828,
              18.4878907
            ],
            [
              74.9602691,
              18.4879119
            ],
            [
              74.9601512,
              18.4887294
            ],
            [
              74.9600691,
              18.489559
            ],
            [
              74.9616447,
              18.4892381
            ],
            [
              74.9629414,
              18.4889892
            ],
            [
              74.9629869,
              18.4890018
            ]
          ]
        ]
      }
    }
  ]
}