{
  "type": "FeatureCollection",
  "name": "Benwadi_Gat247_Drone_RTK_Resurvey_NeedsReview",
  "crs": {
    "type": "name",
    "properties": {
      "name": "urn:ogc:def:crs:OGC:1.3:CRS84"
    }
  },
  "features": [
    {
      "type": "Feature",
      "properties": {
        "parcel_id": "MH-AHM-KAR-BEN-247",
        "survey_no": "247",
        "gat_no": "247",
        "khata_no": "45, 49, 273, 274, 2324, 2942",
        "owner_name": "खंडु रामभाऊ भिताडे, लक्ष्मण अंकुश भिताडे, रमाबाई लक्ष्मण भिताडे",
        "joint_owners": [
          "लक्ष्मण अंकुश भिताडे (Khata: 49)",
          "रमाबाई लक्ष्मण भिताडे (Khata: 274)",
          "विठ्ठल खंडु भिताडे (Khata: 273)",
          "तुळसा रामभाऊ भिताडे (Khata: 2324)"
        ],
        "father_name": "रामभाऊ बाबाजी भिताडे",
        "village": "Benwadi",
        "village_mr": "बेनवडी",
        "taluka": "Karjat",
        "taluka_mr": "कर्जत",
        "district": "Ahmednagar",
        "district_mr": "अहमदनगर",
        "state": "Maharashtra",
        "land_type": "जिरायत शेती (Jirayat - Rainfed Agricultural)",
        "land_class_code": "AGRI-JIR-02",
        "status": "needs_review",
        "confidence_score": 84.2,
        "old_survey_area_acres": 20.64,
        "old_survey_area_sqm": 83525.8,
        "new_survey_area_acres": 20.91,
        "new_survey_area_sqm": 84617.3,
        "area_diff_pct": 1.3,
        "mean_shift_m": 1.82,
        "iou_overlap_pct": 91.4,
        "survey_date": "2024-11-09",
        "drone_model": "DJI Mavic 3 Enterprise RTK",
        "rtk_accuracy_cm": 1.8,
        "gcp_count": 6,
        "ror_extract_no": "MH-712-AHM-2024-884247",
        "assessment_rupees": "62.30",
        "soil_type": "मध्यम काळी जमीन (Medium Black Cotton Soil)",
        "crops": [
          {
            "name": "ज्वारी (Jowar)",
            "area_acres": 10.0,
            "season": "रब्बी (Rabi)"
          },
          {
            "name": "बाजरी (Bajra)",
            "area_acres": 6.0,
            "season": "खरीप (Kharif)"
          },
          {
            "name": "तूर (Pigeonpea)",
            "area_acres": 4.64,
            "season": "खरीप (Kharif)"
          }
        ],
        "ferfar_entries": [
          {
            "ferfar_no": "1823",
            "date": "2018-09-12",
            "type": "वारस नोंद (Inheritance)",
            "status": "मंजूर (Approved)"
          },
          {
            "ferfar_no": "2654",
            "date": "2023-07-20",
            "type": "बांध दुरुस्ती नोंद (Bund Repair Entry)",
            "status": "प्रलंबित (Pending)"
          }
        ],
        "review_reason": "Drone RTK resurvey detects 1.82m outward shift on NE boundary (bordering Gat 248 canal strip). Recommended for Joint Measurement (संयुक्त मोजणी) with Taluka Inspector of Land Records (TILR)."
      },
      "geometry": {
        "type": "Polygon",
        "coordinates": [
          [
            [
              74.9635377,
              18.4915621
            ],
            [
              74.9634495,
              18.4911486
            ],
            [
              74.9631579,
              18.4897591
            ],
            [
              74.9629947,
              18.489013
            ],
            [
              74.9629484,
              18.4889967
            ],
            [
              74.9616547,
              18.4892454
            ],
            [
              74.9600765,
              18.4895645
            ],
            [
              74.9606419,
              18.4903153
            ],
            [
              74.9608907,
              18.4906563
            ],
            [
              74.9606414,
              18.4907547
            ],
            [
              74.9613151,
              18.4922818
            ],
            [
              74.9621186,
              18.4920117
            ],
            [
              74.9634121,
              18.4915892
            ],
            [
              74.9635381,
              18.4915591
            ]
          ]
        ]
      }
    }
  ]
}