{
  "type": "FeatureCollection",
  "name": "Small_Deficit_Resurvey_2_Acres",
  "crs": {
    "type": "name",
    "properties": {
      "name": "urn:ogc:def:crs:OGC:1.3:CRS84"
    }
  },
  "features": [
    {
      "type": "Feature",
      "properties": {
        "parcel_id": "MH-IND-KAL-078-DEFICIT",
        "survey_no": "78/1",
        "gat_no": "78/1",
        "khata_no": "245",
        "owner_name": "तानाजी रावसाहेब मोरे (Tanaji Raosaheb More)",
        "joint_owners": [
          "सुमित्रा तानाजी मोरे (Sumitra T. More)",
          "अमोल तानाजी मोरे (Amol T. More)"
        ],
        "father_name": "रावसाहेब भिकू मोरे",
        "village": "Kalamb",
        "village_mr": "कळंब",
        "taluka": "Indapur",
        "taluka_mr": "इंदापूर",
        "district": "Pune",
        "district_mr": "पुणे",
        "state": "Maharashtra",
        "land_type": "बागायत शेती (Bagayat - Irrigated)",
        "land_class_code": "AGRI-BAG-01",
        "status": "dispute",
        "confidence_score": 45.8,
        "old_survey_area_acres": 3.39,
        "old_survey_area_sqm": 13734.1,
        "new_survey_area_acres": 2.12,
        "new_survey_area_sqm": 8564.6,
        "area_diff_pct": 37.6,
        "mean_shift_m": 35.1,
        "iou_overlap_pct": 62.4,
        "survey_date": "2024-05-19",
        "drone_model": "DJI Mavic 3 Enterprise RTK",
        "rtk_accuracy_cm": 1.4,
        "gcp_count": 6,
        "ror_extract_no": "MH-712-2024-551029",
        "assessment_rupees": "14.20",
        "soil_type": "काळी कसदार जमीन (Black Cotton Soil)",
        "review_reason": "CRITICAL AREA DISCREPANCY: Uploaded drone resurvey measures only 2.12 Acres vs 3.39 Acres 7/12 reference area (-37.6% / -5,170 m²). Severe boundary loss attributed to PMGSY public highway widening and unauthorized road construction."
      },
      "geometry": {
        "type": "Polygon",
        "coordinates": [
          [
            [74.962550, 18.488150],
            [74.961200, 18.488300],
            [74.961450, 18.489350],
            [74.962850, 18.489150],
            [74.962550, 18.488150]
          ]
        ]
      }
    }
  ]
}
