{
  "type": "FeatureCollection",
  "name": "Sample_4_Benwadi_231_MahaBhuNaksha_Resurvey",
  "crs": {
    "type": "name",
    "properties": {
      "name": "urn:ogc:def:crs:OGC:1.3:CRS84"
    }
  },
  "features": [
    {
      "type": "Feature",
      "properties": {
        "parcel_id": "MH-AHM-KAR-231",
        "survey_no": "231",
        "gat_no": "231",
        "khata_no": "141, 149, 184, 3004",
        "owner_name": "पंढरीनाथ शंकर देशमूख व इतर (Pandharinath S. Deshmukh & Others)",
        "joint_owners": [
          "पार्वती शंकर देशमूख",
          "बूवासाहेब शंकर देशमूख",
          "श्वेता कल्याण देशमुख",
          "सारिका प्रशांत शिंदे",
          "हनुमंत दिगांबर देशमुख"
        ],
        "father_name": "शंकर देशमुख",
        "village": "Benwadi",
        "village_mr": "बेनवडी",
        "taluka": "Karjat",
        "taluka_mr": "कर्जत",
        "district": "Ahmednagar",
        "district_mr": "अहमदनगर",
        "state": "Maharashtra",
        "land_type": "जिरायत व बागायत शेती (Jirayat & Bagayat - Mixed Agricultural)",
        "land_class_code": "AGRI-JIR-01",
        "status": "verified",
        "confidence_score": 98.6,
        "old_survey_area_acres": 18.28,
        "old_survey_area_sqm": 73967.7,
        "new_survey_area_acres": 18.29,
        "new_survey_area_sqm": 74012.3,
        "area_diff_pct": 0.06,
        "mean_shift_m": 0.42,
        "iou_overlap_pct": 98.9,
        "survey_date": "2024-04-14",
        "drone_model": "DJI Matrice 350 RTK + Zenmuse P1 (35mm)",
        "rtk_accuracy_cm": 1.2,
        "gcp_count": 8,
        "ror_extract_no": "MH-712-AHM-2024-884210",
        "assessment_rupees": "48.50",
        "soil_type": "काळी कसदार जमीन (Black Cotton Soil)",
        "crops": [
          { "name": "ज्वारी (Maldandi Jowar)", "area_acres": 8.0, "season": "रब्बी (Rabi)" },
          { "name": "कांदा (Onion)", "area_acres": 6.0, "season": "रब्बी (Rabi)" },
          { "name": "सोयाबीन (Soybean)", "area_acres": 4.28, "season": "खरीप (Kharif)" }
        ],
        "ferfar_entries": [
          { "ferfar_no": "2140", "date": "2021-06-18", "type": "वारस नोंद (Inheritance Record)", "status": "मंजूर (Approved)" },
          { "ferfar_no": "2890", "date": "2023-11-05", "type": "डिजिटल ड्रोन प्रमाणीकरण (Digital Drone Cadastral Certification)", "status": "प्रमाणित (Certified)" }
        ],
        "review_reason": "Centimeter-accurate resurvey: Uploaded GeoJSON boundary coincides with MahaBhuNaksha K-Prat Ground Record within 0.42m tolerance."
      },
      "geometry": {
        "type": "Polygon",
        "coordinates": [
          [
            [74.962985, 18.489002],
            [74.964493, 18.488310],
            [74.963820, 18.487460],
            [74.963402, 18.486903],
            [74.963303, 18.486811],
            [74.962438, 18.486978],
            [74.962578, 18.487766],
            [74.960478, 18.487890],
            [74.960267, 18.487912],
            [74.960146, 18.488728],
            [74.960067, 18.489558],
            [74.961640, 18.489238],
            [74.962940, 18.488988],
            [74.962985, 18.489002]
          ]
        ]
      }
    }
  ]
}
