{
  "type": "FeatureCollection",
  "name": "Benwadi_Gat_34_Drone_Resurvey",
  "crs": {
    "type": "name",
    "properties": {
      "name": "urn:ogc:def:crs:OGC:1.3:CRS84"
    }
  },
  "features": [
    {
      "type": "Feature",
      "properties": {
        "parcel_id": "MH-AHM-KAR-BEN-34",
        "survey_no": "34",
        "gat_no": "34",
        "village": "Benwadi (बेनवडी)",
        "taluka": "Karjat (कर्जत)",
        "district": "Ahmednagar (अहमदनगर)",
        "state": "Maharashtra",
        "gis_code": "RVM2613272600130334420000",
        "owner_name": "महाराष्ट्र राज्याचे मा.राज्यपाल यांचे वतीने जलसंपदा विभाग महाराष्ट्र शासनाचे प्राधिकृत प्रतिनिधी – कार्यकारी अभियंता, कुकडी वितरण विभाग कोळवडी, ता.कर्जत यांचे कबुलीजबाबासाठी कुलमखत्यार म्हणून- कनिष्ठ लिपिक कुकडी वितरण बांधकाम विभाग कोळवडी ता कर्जत –, दादा गोविंद धुमाळ",
        "all_owners": [
          "महाराष्ट्र राज्याचे मा.राज्यपाल यांचे वतीने जलसंपदा विभाग महाराष्ट्र शासनाचे प्राधिकृत प्रतिनिधी – कार्यकारी अभियंता, कुकडी वितरण विभाग कोळवडी, ता.कर्जत यांचे कबुलीजबाबासाठी कुलमखत्यार म्हणून- कनिष्ठ लिपिक कुकडी वितरण बांधकाम विभाग कोळवडी ता कर्जत –",
          "दादा गोविंद धुमाळ",
          "नाना विष्णू धुमाळ",
          "गोकुळ विष्णू धुमाळ",
          "प्रशांत हरिश्चंद्र धुमाळ अपाक हरिश्चंद्र दशरथ धुमाळ"
        ],
        "khata_no": "3163, 3274, 3275, 3276, 3495",
        "area_sqm": 25143.35,
        "area_acres": 6.21,
        "area_guntha": 248.53,
        "land_type": "जिरायत शेती (Jirayat - Rainfed Agricultural)",
        "source": "MahaBhuNaksha Official Live Cadastre",
        "status": "needs_review",
        "confidence_score": 85.1,
        "old_survey_area_acres": 6.21,
        "old_survey_area_sqm": 25143.35,
        "new_survey_area_acres": 6.36,
        "new_survey_area_sqm": 25746.8,
        "area_diff_pct": 2.4,
        "mean_shift_m": 1.9,
        "iou_overlap_pct": 93.6,
        "review_reason": "Drone RTK photogrammetry detects a 2.4% area discrepancy (603 m²) with a mean bund shift of 1.9m along the farm boundary. Verification recommended.",
        "bhunaksha_geometry": {
          "type": "Polygon",
          "coordinates": [
            [
              [
                74.9890245,
                18.4848291
              ],
              [
                74.9890753,
                18.4842613
              ],
              [
                74.9894464,
                18.4842884
              ],
              [
                74.9897725,
                18.4833973
              ],
              [
                74.9894196,
                18.4830772
              ],
              [
                74.9892514,
                18.4829374
              ],
              [
                74.9890862,
                18.4828901
              ],
              [
                74.9888481,
                18.482452
              ],
              [
                74.9881551,
                18.4823622
              ],
              [
                74.9880301,
                18.4828645
              ],
              [
                74.9884025,
                18.4830925
              ],
              [
                74.9884505,
                18.4834071
              ],
              [
                74.9885206,
                18.483762
              ],
              [
                74.9886783,
                18.4839785
              ],
              [
                74.9885686,
                18.4845372
              ],
              [
                74.9887232,
                18.4846176
              ],
              [
                74.9885988,
                18.4848751
              ],
              [
                74.9890245,
                18.4848291
              ]
            ]
          ]
        }
      },
      "geometry": {
        "type": "Polygon",
        "coordinates": [
          [
            [
              74.9890098,
              18.484849
            ],
            [
              74.9890612,
              18.4842745
            ],
            [
              74.9894368,
              18.4843019
            ],
            [
              74.9897667,
              18.4834001
            ],
            [
              74.9894096,
              18.4830762
            ],
            [
              74.9892394,
              18.4829348
            ],
            [
              74.9890723,
              18.4828869
            ],
            [
              74.9888313,
              18.4824436
            ],
            [
              74.98813,
              18.4823527
            ],
            [
              74.9880036,
              18.482861
            ],
            [
              74.9883804,
              18.4830917
            ],
            [
              74.988429,
              18.4834101
            ],
            [
              74.9884999,
              18.4837692
            ],
            [
              74.9886595,
              18.4839883
            ],
            [
              74.9885485,
              18.4845536
            ],
            [
              74.9887049,
              18.484635
            ],
            [
              74.988579,
              18.4848956
            ],
            [
              74.9890098,
              18.484849
            ]
          ]
        ]
      }
    }
  ]
}