{
  "type": "FeatureCollection",
  "name": "Benwadi_Gat_258_Cadastre",
  "crs": {
    "type": "name",
    "properties": {
      "name": "urn:ogc:def:crs:OGC:1.3:CRS84"
    }
  },
  "features": [
    {
      "type": "Feature",
      "properties": {
        "parcel_id": "MH-AHM-KAR-BEN-258",
        "survey_no": "258",
        "gat_no": "258",
        "village": "Benwadi (बेनवडी)",
        "taluka": "Karjat (कर्जत)",
        "district": "Ahmednagar (अहमदनगर)",
        "state": "Maharashtra",
        "gis_code": "RVM2613272600130334420000",
        "owner_name": "दत्तू रामदास गायकवाड, सुरेश उत्तम सौताडे",
        "all_owners": [
          "दत्तू रामदास गायकवाड",
          "सुरेश उत्तम सौताडे",
          "प्रभा किशोर चुत्तर"
        ],
        "khata_no": "578, 1048, 2308",
        "area_sqm": 20616.02,
        "area_acres": 5.09,
        "area_guntha": 203.78,
        "land_type": "जिरायत शेती (Jirayat - Rainfed Agricultural)",
        "source": "MahaBhuNaksha Official Live Cadastre",
        "status": "verified",
        "confidence_score": 98.8,
        "old_survey_area_acres": 5.09,
        "old_survey_area_sqm": 20616.02,
        "new_survey_area_acres": 5.09,
        "new_survey_area_sqm": 20616.02
      },
      "geometry": {
        "type": "Polygon",
        "coordinates": [
          [
            [
              74.9693894,
              18.4974428
            ],
            [
              74.9688392,
              18.4963769
            ],
            [
              74.968057,
              18.4966072
            ],
            [
              74.9674955,
              18.4969599
            ],
            [
              74.9677873,
              18.4978953
            ],
            [
              74.9693894,
              18.4974428
            ]
          ]
        ]
      }
    }
  ]
}