{
  "type": "FeatureCollection",
  "name": "Benwadi_Gat_301_Cadastre",
  "crs": {
    "type": "name",
    "properties": {
      "name": "urn:ogc:def:crs:OGC:1.3:CRS84"
    }
  },
  "features": [
    {
      "type": "Feature",
      "properties": {
        "parcel_id": "MH-AHM-KAR-BEN-301",
        "survey_no": "301",
        "gat_no": "301",
        "village": "Benwadi (बेनवडी)",
        "taluka": "Karjat (कर्जत)",
        "district": "Ahmednagar (अहमदनगर)",
        "state": "Maharashtra",
        "gis_code": "RVM2613272600130334420000",
        "owner_name": "सुभाष दत्तू धुमाळ",
        "all_owners": [
          "सुभाष दत्तू धुमाळ"
        ],
        "khata_no": "3308",
        "area_sqm": 4178.48,
        "area_acres": 1.03,
        "area_guntha": 41.3,
        "land_type": "जिरायत शेती (Jirayat - Rainfed Agricultural)",
        "source": "MahaBhuNaksha Official Live Cadastre",
        "status": "verified",
        "confidence_score": 98.8,
        "old_survey_area_acres": 1.03,
        "old_survey_area_sqm": 4178.48,
        "new_survey_area_acres": 1.03,
        "new_survey_area_sqm": 4178.48
      },
      "geometry": {
        "type": "Polygon",
        "coordinates": [
          [
            [
              74.9662914,
              18.5030666
            ],
            [
              74.9662563,
              18.5029434
            ],
            [
              74.9661336,
              18.5024862
            ],
            [
              74.9655776,
              18.5026188
            ],
            [
              74.9656556,
              18.5031901
            ],
            [
              74.9662914,
              18.5030666
            ]
          ]
        ]
      }
    }
  ]
}