{
  "type": "FeatureCollection",
  "name": "Benwadi_Gat_398_Cadastre",
  "crs": {
    "type": "name",
    "properties": {
      "name": "urn:ogc:def:crs:OGC:1.3:CRS84"
    }
  },
  "features": [
    {
      "type": "Feature",
      "properties": {
        "parcel_id": "MH-AHM-KAR-BEN-398",
        "survey_no": "398",
        "gat_no": "398",
        "village": "Benwadi (बेनवडी)",
        "taluka": "Karjat (कर्जत)",
        "district": "Ahmednagar (अहमदनगर)",
        "state": "Maharashtra",
        "gis_code": "RVM2613272600130334420000",
        "owner_name": "अरूण दादासाहेब गायकवाड, नवनाथ गोविंद गायकवाड",
        "all_owners": [
          "अरूण दादासाहेब गायकवाड",
          "नवनाथ गोविंद गायकवाड",
          "वर्षा नवनाथ गायकवाड",
          "अरूण दादासाहेब गायकवाड",
          "सुजाता गणेश गायकवाड",
          "पोपट श्रीपती खानवटे",
          "भाऊसाहेब गोपाळ काळे",
          "पोपट श्रीपती खानवटे",
          "भाऊसाहेब गोपाळ काळे"
        ],
        "khata_no": "807, 118, 372, 807, 2422, 876, 90, 876, 90",
        "area_sqm": 38297.38,
        "area_acres": 9.46,
        "area_guntha": 378.54,
        "land_type": "जिरायत शेती (Jirayat - Rainfed Agricultural)",
        "source": "MahaBhuNaksha Official Live Cadastre",
        "status": "verified",
        "confidence_score": 98.8,
        "old_survey_area_acres": 9.46,
        "old_survey_area_sqm": 38297.38,
        "new_survey_area_acres": 9.46,
        "new_survey_area_sqm": 38297.38
      },
      "geometry": {
        "type": "Polygon",
        "coordinates": [
          [
            [
              74.993342,
              18.5079339
            ],
            [
              74.9934247,
              18.507916
            ],
            [
              74.9937359,
              18.507843
            ],
            [
              74.9944645,
              18.5076719
            ],
            [
              74.9952715,
              18.5074824
            ],
            [
              74.995558,
              18.5074152
            ],
            [
              74.9952919,
              18.5061073
            ],
            [
              74.9928936,
              18.506663
            ],
            [
              74.99318,
              18.5079688
            ],
            [
              74.993342,
              18.5079339
            ]
          ]
        ]
      }
    }
  ]
}