{
  "type": "FeatureCollection",
  "name": "Benwadi_Gat_1_Drone_Resurvey",
  "crs": {
    "type": "name",
    "properties": {
      "name": "urn:ogc:def:crs:OGC:1.3:CRS84"
    }
  },
  "features": [
    {
      "type": "Feature",
      "properties": {
        "parcel_id": "MH-AHM-KAR-BEN-1",
        "survey_no": "1",
        "gat_no": "1",
        "village": "Benwadi (बेनवडी)",
        "taluka": "Karjat (कर्जत)",
        "district": "Ahmednagar (अहमदनगर)",
        "state": "Maharashtra",
        "gis_code": "RVM2613272600130334420000",
        "owner_name": "संदिप बाळासाहेब धुमाळ, पंखाबाई उध्दव गदादे",
        "all_owners": [
          "संदिप बाळासाहेब धुमाळ",
          "पंखाबाई उध्दव गदादे",
          "महादेव बाळासाहेब गदादे",
          "काकासाहेब गोविंद दवने",
          "दादासाहेब पंढरीनाथ क्षिरसागर"
        ],
        "khata_no": "2506, 251, 2854, 31, 783",
        "area_sqm": 14188.97,
        "area_acres": 3.51,
        "area_guntha": 140.25,
        "land_type": "जिरायत शेती (Jirayat - Rainfed Agricultural)",
        "source": "MahaBhuNaksha Official Live Cadastre",
        "status": "needs_review",
        "confidence_score": 84.8,
        "old_survey_area_acres": 3.51,
        "old_survey_area_sqm": 14188.97,
        "new_survey_area_acres": 3.6,
        "new_survey_area_sqm": 14572.1,
        "area_diff_pct": 2.7,
        "mean_shift_m": 1.6,
        "iou_overlap_pct": 93.3,
        "review_reason": "Drone RTK photogrammetry detects a 2.7% area discrepancy (383 m²) with a mean bund shift of 1.6m along the farm boundary. Verification recommended.",
        "bhunaksha_geometry": {
          "type": "Polygon",
          "coordinates": [
            [
              [
                74.978566,
                18.4924658
              ],
              [
                74.97845,
                18.492023
              ],
              [
                74.9784239,
                18.4919234
              ],
              [
                74.9784193,
                18.4919061
              ],
              [
                74.976626,
                18.4924289
              ],
              [
                74.975551,
                18.4927526
              ],
              [
                74.9755045,
                18.4931455
              ],
              [
                74.9757835,
                18.4930995
              ],
              [
                74.9768458,
                18.4926951
              ],
              [
                74.9770693,
                18.4926135
              ],
              [
                74.9771962,
                18.4926014
              ],
              [
                74.9775197,
                18.4925706
              ],
              [
                74.9775962,
                18.4925633
              ],
              [
                74.978566,
                18.4924658
              ]
            ]
          ]
        }
      },
      "geometry": {
        "type": "Polygon",
        "coordinates": [
          [
            [
              74.9785772,
              18.4924523
            ],
            [
              74.9784597,
              18.4920036
            ],
            [
              74.9784332,
              18.4919027
            ],
            [
              74.9784286,
              18.4918851
            ],
            [
              74.9766112,
              18.4924149
            ],
            [
              74.9755218,
              18.492743
            ],
            [
              74.9754747,
              18.4931411
            ],
            [
              74.9757574,
              18.4930945
            ],
            [
              74.976834,
              18.4926847
            ],
            [
              74.9770605,
              18.492602
            ],
            [
              74.9771891,
              18.4925898
            ],
            [
              74.9775169,
              18.4925585
            ],
            [
              74.9775944,
              18.4925511
            ],
            [
              74.9785772,
              18.4924523
            ]
          ]
        ]
      }
    }
  ]
}