{
  "type": "FeatureCollection",
  "name": "Benwadi_Gat_338_Cadastre",
  "crs": {
    "type": "name",
    "properties": {
      "name": "urn:ogc:def:crs:OGC:1.3:CRS84"
    }
  },
  "features": [
    {
      "type": "Feature",
      "properties": {
        "parcel_id": "MH-AHM-KAR-BEN-338",
        "survey_no": "338",
        "gat_no": "338",
        "village": "Benwadi (बेनवडी)",
        "taluka": "Karjat (कर्जत)",
        "district": "Ahmednagar (अहमदनगर)",
        "state": "Maharashtra",
        "gis_code": "RVM2613272600130334420000",
        "owner_name": "सुशांत संतोष भिताडे",
        "all_owners": [
          "सुशांत संतोष भिताडे"
        ],
        "khata_no": "3382",
        "area_sqm": 3702.99,
        "area_acres": 0.92,
        "area_guntha": 36.6,
        "land_type": "जिरायत शेती (Jirayat - Rainfed Agricultural)",
        "source": "MahaBhuNaksha Official Live Cadastre",
        "status": "verified",
        "confidence_score": 98.8,
        "old_survey_area_acres": 0.92,
        "old_survey_area_sqm": 3702.99,
        "new_survey_area_acres": 0.92,
        "new_survey_area_sqm": 3702.99
      },
      "geometry": {
        "type": "Polygon",
        "coordinates": [
          [
            [
              74.9741354,
              18.5011387
            ],
            [
              74.9738694,
              18.5006386
            ],
            [
              74.9733226,
              18.5008061
            ],
            [
              74.9736276,
              18.5013199
            ],
            [
              74.9741354,
              18.5011387
            ]
          ]
        ]
      }
    }
  ]
}