{
  "type": "FeatureCollection",
  "name": "Benwadi_Gat_125_Drone_Resurvey",
  "crs": {
    "type": "name",
    "properties": {
      "name": "urn:ogc:def:crs:OGC:1.3:CRS84"
    }
  },
  "features": [
    {
      "type": "Feature",
      "properties": {
        "parcel_id": "MH-AHM-KAR-BEN-125",
        "survey_no": "125",
        "gat_no": "125",
        "village": "Benwadi (बेनवडी)",
        "taluka": "Karjat (कर्जत)",
        "district": "Ahmednagar (अहमदनगर)",
        "state": "Maharashtra",
        "gis_code": "RVM2613272600130334420000",
        "owner_name": "भागवत दगडू गदादे, महाराष्ट्र राज्याचे मा.राज्यपाल यांचे वतीने जलसंपदा विभाग महाराष्ट्र शासनाचे प्राधिकृत प्रतिनिधी – कार्यकारी अभियंता, कुकडी वितरण विभाग कोळवडी, ता.कर्जत यांचे कबुलीजबाबासाठी कुलमखत्यार म्हणून- कनिष्ठ लिपिक कुकडी वितरण बांधकाम विभाग कोळवडी ता कर्जत –",
        "all_owners": [
          "भागवत दगडू गदादे",
          "महाराष्ट्र राज्याचे मा.राज्यपाल यांचे वतीने जलसंपदा विभाग महाराष्ट्र शासनाचे प्राधिकृत प्रतिनिधी – कार्यकारी अभियंता, कुकडी वितरण विभाग कोळवडी, ता.कर्जत यांचे कबुलीजबाबासाठी कुलमखत्यार म्हणून- कनिष्ठ लिपिक कुकडी वितरण बांधकाम विभाग कोळवडी ता कर्जत –",
          "हरि दगडु गदादे",
          "लखन राजु गदादे, लताबाई राजु गदादे, सखुबाई शिवाजी देवकर, सविता मच्छिन्द्र शिंदे, आशा लालासाहेब होले, उषा नवनाथ शिंदे, गणेश राजु गदादे, देवई प्रल्हाद शिंदे, मनिषा रामहरी होले, हनुमंत अनंता गदादे",
          "राजाराम एकनाथ गदादे, अलकाबाई दशरथ शिंदे, रंजना सिताराम राऊत",
          "कल्यान दगडु गदादे",
          "महादेव किसन गदादे, जिजाबाई बाळासाहेब होले, लक्ष्मीबाई बापूराव वाघ",
          "पंढरीनाथ दगडु गदादे",
          "माणिक दगडु गदादे",
          "पांडुरंग मोहन गदादे, खंडू मोहन गदादे",
          "भागवत दगडु गदादे",
          "कल्याण दगडू गदादे",
          "महाराष्ट्र राज्याचे मा.राज्यपाल यांचे वतीने जलसंपदा विभाग महाराष्ट्र शासनाचे प्राधिकृत प्रतिनिधी – कार्यकारी अभियंता, कुकडी वितरण विभाग कोळवडी, ता.कर्जत यांचे कबुलीजबाबासाठी कुलमखत्यार म्हणून- कनिष्ठ लिपिक कुकडी वितरण बांधकाम विभाग कोळवडी ता कर्जत –",
          "लक्ष्मीबाई किसन गदादे, जिजाबाई बाळासाहेब होले, महादेव किसन गदादे"
        ],
        "khata_no": "195, 3193, 1019, 2689, 2690, 2691, 2692, 2693, 2695, 2696, 2697, 26, 3173, 355",
        "area_sqm": 40909.09,
        "area_acres": 10.11,
        "area_guntha": 404.36,
        "land_type": "जिरायत शेती (Jirayat - Rainfed Agricultural)",
        "source": "MahaBhuNaksha Official Live Cadastre",
        "status": "needs_review",
        "confidence_score": 85.2,
        "old_survey_area_acres": 10.11,
        "old_survey_area_sqm": 40909.09,
        "new_survey_area_acres": 10.34,
        "new_survey_area_sqm": 41850.0,
        "area_diff_pct": 2.3,
        "mean_shift_m": 1.6,
        "iou_overlap_pct": 93.7,
        "review_reason": "Drone RTK photogrammetry detects a 2.3% area discrepancy (941 m²) with a mean bund shift of 1.6m along the farm boundary. Verification recommended.",
        "bhunaksha_geometry": {
          "type": "Polygon",
          "coordinates": [
            [
              [
                74.9754259,
                18.4873313
              ],
              [
                74.9757123,
                18.4872312
              ],
              [
                74.9756737,
                18.4869074
              ],
              [
                74.9756602,
                18.4867131
              ],
              [
                74.9769617,
                18.4862433
              ],
              [
                74.9792153,
                18.4854411
              ],
              [
                74.980406,
                18.4849963
              ],
              [
                74.9801126,
                18.4846916
              ],
              [
                74.9787538,
                18.4851683
              ],
              [
                74.9767326,
                18.4858683
              ],
              [
                74.9756444,
                18.4862395
              ],
              [
                74.9750987,
                18.4852803
              ],
              [
                74.9746246,
                18.4854613
              ],
              [
                74.9748313,
                18.4864193
              ],
              [
                74.9750512,
                18.4874295
              ],
              [
                74.9750963,
                18.4874465
              ],
              [
                74.9754259,
                18.4873313
              ]
            ]
          ]
        }
      },
      "geometry": {
        "type": "Polygon",
        "coordinates": [
          [
            [
              74.9753993,
              18.4873508
            ],
            [
              74.9756889,
              18.4872495
            ],
            [
              74.9756499,
              18.486922
            ],
            [
              74.9756362,
              18.4867255
            ],
            [
              74.9769526,
              18.4862503
            ],
            [
              74.979232,
              18.485439
            ],
            [
              74.9804363,
              18.4849891
            ],
            [
              74.9801396,
              18.4846809
            ],
            [
              74.9787652,
              18.4851631
            ],
            [
              74.9767209,
              18.4858711
            ],
            [
              74.9756203,
              18.4862465
            ],
            [
              74.9750683,
              18.4852763
            ],
            [
              74.9745888,
              18.4854594
            ],
            [
              74.9747979,
              18.4864284
            ],
            [
              74.9750203,
              18.4874501
            ],
            [
              74.9750659,
              18.4874673
            ],
            [
              74.9753993,
              18.4873508
            ]
          ]
        ]
      }
    }
  ]
}