{
  "type": "FeatureCollection",
  "name": "Benwadi_Gat_366_Cadastre",
  "crs": {
    "type": "name",
    "properties": {
      "name": "urn:ogc:def:crs:OGC:1.3:CRS84"
    }
  },
  "features": [
    {
      "type": "Feature",
      "properties": {
        "parcel_id": "MH-AHM-KAR-BEN-366",
        "survey_no": "366",
        "gat_no": "366",
        "village": "Benwadi (बेनवडी)",
        "taluka": "Karjat (कर्जत)",
        "district": "Ahmednagar (अहमदनगर)",
        "state": "Maharashtra",
        "gis_code": "RVM2613272600130334420000",
        "owner_name": "गीता सिध्येश्वर गदादे, विश्वजित सिध्येश्वर गदादे, सत्यजित सिध्येश्वर गदादे, सुरेखा अंकुश फरांडे, रंजना गोरख गदादे, बाळू गेना गदादे",
        "all_owners": [
          "गीता सिध्येश्वर गदादे, विश्वजित सिध्येश्वर गदादे, सत्यजित सिध्येश्वर गदादे, सुरेखा अंकुश फरांडे, रंजना गोरख गदादे",
          "बाळू गेना गदादे"
        ],
        "khata_no": "541, 542",
        "area_sqm": 8709.04,
        "area_acres": 2.15,
        "area_guntha": 86.08,
        "land_type": "जिरायत शेती (Jirayat - Rainfed Agricultural)",
        "source": "MahaBhuNaksha Official Live Cadastre",
        "status": "verified",
        "confidence_score": 98.8,
        "old_survey_area_acres": 2.15,
        "old_survey_area_sqm": 8709.04,
        "new_survey_area_acres": 2.15,
        "new_survey_area_sqm": 8709.04
      },
      "geometry": {
        "type": "Polygon",
        "coordinates": [
          [
            [
              74.9782469,
              18.5010251
            ],
            [
              74.9782059,
              18.4999237
            ],
            [
              74.9782265,
              18.4998027
            ],
            [
              74.9780744,
              18.499103
            ],
            [
              74.9776333,
              18.4991749
            ],
            [
              74.97811,
              18.5013082
            ],
            [
              74.9782633,
              18.501431
            ],
            [
              74.9782469,
              18.5010251
            ]
          ]
        ]
      }
    }
  ]
}