{
  "type": "FeatureCollection",
  "name": "Benwadi_Gat_3_Cadastre",
  "crs": {
    "type": "name",
    "properties": {
      "name": "urn:ogc:def:crs:OGC:1.3:CRS84"
    }
  },
  "features": [
    {
      "type": "Feature",
      "properties": {
        "parcel_id": "MH-AHM-KAR-BEN-3",
        "survey_no": "3",
        "gat_no": "3",
        "village": "Benwadi (बेनवडी)",
        "taluka": "Karjat (कर्जत)",
        "district": "Ahmednagar (अहमदनगर)",
        "state": "Maharashtra",
        "gis_code": "RVM2613272600130334420000",
        "owner_name": "नारायण तुकाराम धूमाळ, दादा विठ्ठल  धुमाळ",
        "all_owners": [
          "नारायण तुकाराम धूमाळ",
          "दादा विठ्ठल  धुमाळ",
          "बाळू विठ्ठल धुमाळ",
          "आनंद नवनाथ धुमाळ",
          "ज्ञानदेव मोहन धुमाळ",
          "सहदेव निवृत्ती धुमाळ",
          "संदिप बाळासाहेब  धुमाळ",
          "संतोष हरिभाऊ धुमाळ, नारायण हरिभाऊ धुमाळ, विमल हरिभाऊ धुमाळ, मनीषा सतीश नवले",
          "साईनाथ विठठल धुमाळ",
          "नवनाथ विठठल धूमाळ",
          "नवनाथ वसंत धुमाळ"
        ],
        "khata_no": "2430, 2633, 2795, 3300, 3301, 3395, 3445, 368, 864, 866, 955",
        "area_sqm": 19927.9,
        "area_acres": 4.92,
        "area_guntha": 196.97,
        "land_type": "जिरायत शेती (Jirayat - Rainfed Agricultural)",
        "source": "MahaBhuNaksha Official Live Cadastre",
        "status": "verified",
        "confidence_score": 98.8,
        "old_survey_area_acres": 4.92,
        "old_survey_area_sqm": 19927.9,
        "new_survey_area_acres": 4.92,
        "new_survey_area_sqm": 19927.9
      },
      "geometry": {
        "type": "Polygon",
        "coordinates": [
          [
            [
              74.9812888,
              18.4919394
            ],
            [
              74.9807443,
              18.4919107
            ],
            [
              74.9807174,
              18.4915936
            ],
            [
              74.9806841,
              18.4912166
            ],
            [
              74.9803472,
              18.4914148
            ],
            [
              74.9799844,
              18.4916379
            ],
            [
              74.9786111,
              18.4924017
            ],
            [
              74.978566,
              18.4924658
            ],
            [
              74.9786434,
              18.4924486
            ],
            [
              74.9798797,
              18.4925214
            ],
            [
              74.9800702,
              18.4926012
            ],
            [
              74.9801703,
              18.4926056
            ],
            [
              74.9803446,
              18.4926643
            ],
            [
              74.9808106,
              18.4924871
            ],
            [
              74.9812888,
              18.4919394
            ]
          ]
        ]
      }
    }
  ]
}