{
  "type": "FeatureCollection",
  "name": "Benwadi_Gat_341_Cadastre",
  "crs": {
    "type": "name",
    "properties": {
      "name": "urn:ogc:def:crs:OGC:1.3:CRS84"
    }
  },
  "features": [
    {
      "type": "Feature",
      "properties": {
        "parcel_id": "MH-AHM-KAR-BEN-341",
        "survey_no": "341",
        "gat_no": "341",
        "village": "Benwadi (बेनवडी)",
        "taluka": "Karjat (कर्जत)",
        "district": "Ahmednagar (अहमदनगर)",
        "state": "Maharashtra",
        "gis_code": "RVM2613272600130334420000",
        "owner_name": "प्रेमराज शिवाजी गदादे, यशोदा भिवा गदादे",
        "all_owners": [
          "प्रेमराज शिवाजी गदादे",
          "यशोदा भिवा गदादे",
          "यशोदा भिवाजी गदादे, शिवाजी भिवाजी गदादे",
          "शिवाजी भिवा गदादे",
          "स्वामी पांडूरंग जायभाय",
          "पोपट रंगनाथ गदादे",
          "अजिंक्य किशोर गदादे",
          "आर्चना बाळु गदादे",
          "जयश्री सुनिल गदादे",
          "प्रेमराज शिवाजी गदादे",
          "जयश्री सुनिल गदादे",
          "रामदास महादू नेटके, देविदास  प्रल्हाद  शिंदे, छाया अमोल गर्जे",
          "बबन भानूदास गूंजाळ",
          "देविदास  प्रल्हाद  शिंदे, रामदास महादू नेटके, छाया अमोल गर्जे",
          "ग्रामपंचायत बेनवडी -",
          "ग्रामपंचायत बेनवडी -"
        ],
        "khata_no": "2463, 817, 885, 2314, 3373, 253, 2889, 1049, 3087, 2463, 3087, 3435, 973, 3435, 3436, 3436",
        "area_sqm": 87226.32,
        "area_acres": 21.55,
        "area_guntha": 862.18,
        "land_type": "जिरायत शेती (Jirayat - Rainfed Agricultural)",
        "source": "MahaBhuNaksha Official Live Cadastre",
        "status": "verified",
        "confidence_score": 98.8,
        "old_survey_area_acres": 21.55,
        "old_survey_area_sqm": 87226.32,
        "new_survey_area_acres": 21.55,
        "new_survey_area_sqm": 87226.32
      },
      "geometry": {
        "type": "Polygon",
        "coordinates": [
          [
            [
              74.9755347,
              18.5044245
            ],
            [
              74.9752898,
              18.50411
            ],
            [
              74.9744658,
              18.5030083
            ],
            [
              74.9736374,
              18.5018991
            ],
            [
              74.9736203,
              18.5018564
            ],
            [
              74.9727059,
              18.5020058
            ],
            [
              74.972503,
              18.5020497
            ],
            [
              74.9723134,
              18.5045286
            ],
            [
              74.9723045,
              18.5046745
            ],
            [
              74.972304,
              18.5047534
            ],
            [
              74.9726467,
              18.5056648
            ],
            [
              74.9739669,
              18.5050986
            ],
            [
              74.9755347,
              18.5044245
            ]
          ]
        ]
      }
    }
  ]
}