{
  "type": "FeatureCollection",
  "name": "Benwadi_Gat_26_Cadastre",
  "crs": {
    "type": "name",
    "properties": {
      "name": "urn:ogc:def:crs:OGC:1.3:CRS84"
    }
  },
  "features": [
    {
      "type": "Feature",
      "properties": {
        "parcel_id": "MH-AHM-KAR-BEN-26",
        "survey_no": "26",
        "gat_no": "26",
        "village": "Benwadi (बेनवडी)",
        "taluka": "Karjat (कर्जत)",
        "district": "Ahmednagar (अहमदनगर)",
        "state": "Maharashtra",
        "gis_code": "RVM2613272600130334420000",
        "owner_name": "महाराष्ट्र राज्याचे मा.राज्यपाल यांचे वतीने जलसंपदा विभाग महाराष्ट्र शासनाचे प्राधिकृत प्रतिनिधी – कार्यकारी अभियंता, कुकडी वितरण विभाग कोळवडी, ता.कर्जत यांचे कबुलीजबाबासाठी कुलमखत्यार म्हणून- कनिष्ठ लिपिक कुकडी वितरण बांधकाम विभाग कोळवडी ता कर्जत –, हनूमंत माणिक गायकवाड",
        "all_owners": [
          "महाराष्ट्र राज्याचे मा.राज्यपाल यांचे वतीने जलसंपदा विभाग महाराष्ट्र शासनाचे प्राधिकृत प्रतिनिधी – कार्यकारी अभियंता, कुकडी वितरण विभाग कोळवडी, ता.कर्जत यांचे कबुलीजबाबासाठी कुलमखत्यार म्हणून- कनिष्ठ लिपिक कुकडी वितरण बांधकाम विभाग कोळवडी ता कर्जत –",
          "हनूमंत माणिक गायकवाड"
        ],
        "khata_no": "3140, 365",
        "area_sqm": 22292.73,
        "area_acres": 5.51,
        "area_guntha": 220.35,
        "land_type": "जिरायत शेती (Jirayat - Rainfed Agricultural)",
        "source": "MahaBhuNaksha Official Live Cadastre",
        "status": "verified",
        "confidence_score": 98.8,
        "old_survey_area_acres": 5.51,
        "old_survey_area_sqm": 22292.73,
        "new_survey_area_acres": 5.51,
        "new_survey_area_sqm": 22292.73
      },
      "geometry": {
        "type": "Polygon",
        "coordinates": [
          [
            [
              74.991767,
              18.4879804
            ],
            [
              74.991352,
              18.4862635
            ],
            [
              74.991301,
              18.4860131
            ],
            [
              74.9908866,
              18.4862429
            ],
            [
              74.9906042,
              18.4864831
            ],
            [
              74.9908514,
              18.4877576
            ],
            [
              74.9910238,
              18.4887282
            ],
            [
              74.9912425,
              18.488684
            ],
            [
              74.9917939,
              18.4881656
            ],
            [
              74.991767,
              18.4879804
            ]
          ]
        ]
      }
    }
  ]
}