{
  "type": "FeatureCollection",
  "name": "Benwadi_Gat_235_Cadastre",
  "crs": {
    "type": "name",
    "properties": {
      "name": "urn:ogc:def:crs:OGC:1.3:CRS84"
    }
  },
  "features": [
    {
      "type": "Feature",
      "properties": {
        "parcel_id": "MH-AHM-KAR-BEN-235",
        "survey_no": "235",
        "gat_no": "235",
        "village": "Benwadi (बेनवडी)",
        "taluka": "Karjat (कर्जत)",
        "district": "Ahmednagar (अहमदनगर)",
        "state": "Maharashtra",
        "gis_code": "RVM2613272600130334420000",
        "owner_name": "मधुकर  सावळा  भिताडे, मधुकर  सावळा  भिताडे",
        "all_owners": [
          "मधुकर  सावळा  भिताडे",
          "मधुकर  सावळा  भिताडे",
          "किसन सावळा भिताडे"
        ],
        "khata_no": "2617, 2617, 38",
        "area_sqm": 27010.35,
        "area_acres": 6.67,
        "area_guntha": 266.98,
        "land_type": "जिरायत शेती (Jirayat - Rainfed Agricultural)",
        "source": "MahaBhuNaksha Official Live Cadastre",
        "status": "verified",
        "confidence_score": 98.8,
        "old_survey_area_acres": 6.67,
        "old_survey_area_sqm": 27010.35,
        "new_survey_area_acres": 6.67,
        "new_survey_area_sqm": 27010.35
      },
      "geometry": {
        "type": "Polygon",
        "coordinates": [
          [
            [
              74.9590756,
              18.4899312
            ],
            [
              74.9590363,
              18.4897713
            ],
            [
              74.9588473,
              18.4890076
            ],
            [
              74.9587344,
              18.4882784
            ],
            [
              74.9585904,
              18.4873394
            ],
            [
              74.9575264,
              18.4877201
            ],
            [
              74.9572221,
              18.4878192
            ],
            [
              74.9575006,
              18.4889781
            ],
            [
              74.9584438,
              18.488805
            ],
            [
              74.9585281,
              18.4890529
            ],
            [
              74.9585457,
              18.4890995
            ],
            [
              74.9584581,
              18.4896889
            ],
            [
              74.958545,
              18.4899748
            ],
            [
              74.9590756,
              18.4899312
            ]
          ]
        ]
      }
    }
  ]
}