{
  "type": "FeatureCollection",
  "name": "Benwadi_Gat_120_Cadastre",
  "crs": {
    "type": "name",
    "properties": {
      "name": "urn:ogc:def:crs:OGC:1.3:CRS84"
    }
  },
  "features": [
    {
      "type": "Feature",
      "properties": {
        "parcel_id": "MH-AHM-KAR-BEN-120",
        "survey_no": "120",
        "gat_no": "120",
        "village": "Benwadi (बेनवडी)",
        "taluka": "Karjat (कर्जत)",
        "district": "Ahmednagar (अहमदनगर)",
        "state": "Maharashtra",
        "gis_code": "RVM2613272600130334420000",
        "owner_name": "भिवाजी आत्माराम गदादे, शिवाजी आत्माराम गदादे",
        "all_owners": [
          "भिवाजी आत्माराम गदादे",
          "शिवाजी आत्माराम गदादे",
          "विश्वनाथ संपत गदादे",
          "लालासाहेब रंगनाथ गदादे   अ पा क मंगल"
        ],
        "khata_no": "1012, 2304, 3007, 2885",
        "area_sqm": 20526.42,
        "area_acres": 5.07,
        "area_guntha": 202.89,
        "land_type": "जिरायत शेती (Jirayat - Rainfed Agricultural)",
        "source": "MahaBhuNaksha Official Live Cadastre",
        "status": "verified",
        "confidence_score": 98.8,
        "old_survey_area_acres": 5.07,
        "old_survey_area_sqm": 20526.42,
        "new_survey_area_acres": 5.07,
        "new_survey_area_sqm": 20526.42
      },
      "geometry": {
        "type": "Polygon",
        "coordinates": [
          [
            [
              74.972189,
              18.4857308
            ],
            [
              74.9708652,
              18.4858735
            ],
            [
              74.9708288,
              18.4870124
            ],
            [
              74.9722448,
              18.4871577
            ],
            [
              74.972189,
              18.4857308
            ]
          ]
        ]
      }
    }
  ]
}