{
  "type": "FeatureCollection",
  "name": "Benwadi_Gat_539_Cadastre",
  "crs": {
    "type": "name",
    "properties": {
      "name": "urn:ogc:def:crs:OGC:1.3:CRS84"
    }
  },
  "features": [
    {
      "type": "Feature",
      "properties": {
        "parcel_id": "MH-AHM-KAR-BEN-539",
        "survey_no": "539",
        "gat_no": "539",
        "village": "Benwadi (बेनवडी)",
        "taluka": "Karjat (कर्जत)",
        "district": "Ahmednagar (अहमदनगर)",
        "state": "Maharashtra",
        "gis_code": "RVM2613272600130334420000",
        "owner_name": "विठ्ठल बबन गदादे",
        "all_owners": [
          "विठ्ठल बबन गदादे"
        ],
        "khata_no": "3471",
        "area_sqm": 9359.0,
        "area_acres": 2.31,
        "area_guntha": 92.51,
        "land_type": "जिरायत शेती (Jirayat - Rainfed Agricultural)",
        "source": "MahaBhuNaksha Official Live Cadastre",
        "status": "verified",
        "confidence_score": 98.8,
        "old_survey_area_acres": 2.31,
        "old_survey_area_sqm": 9359.0,
        "new_survey_area_acres": 2.31,
        "new_survey_area_sqm": 9359.0
      },
      "geometry": {
        "type": "Polygon",
        "coordinates": [
          [
            [
              74.978342,
              18.4954519
            ],
            [
              74.9778041,
              18.4941264
            ],
            [
              74.9776495,
              18.4931752
            ],
            [
              74.9771469,
              18.4931389
            ],
            [
              74.9775616,
              18.494163
            ],
            [
              74.9775427,
              18.4942612
            ],
            [
              74.9779044,
              18.4951868
            ],
            [
              74.9780177,
              18.4955188
            ],
            [
              74.978342,
              18.4954519
            ]
          ]
        ]
      }
    }
  ]
}