{
  "type": "FeatureCollection",
  "name": "Benwadi_Gat_134_Drone_Resurvey",
  "crs": {
    "type": "name",
    "properties": {
      "name": "urn:ogc:def:crs:OGC:1.3:CRS84"
    }
  },
  "features": [
    {
      "type": "Feature",
      "properties": {
        "parcel_id": "MH-AHM-KAR-BEN-134",
        "survey_no": "134",
        "gat_no": "134",
        "village": "Benwadi (बेनवडी)",
        "taluka": "Karjat (कर्जत)",
        "district": "Ahmednagar (अहमदनगर)",
        "state": "Maharashtra",
        "gis_code": "RVM2613272600130334420000",
        "owner_name": "विलास बबन गदादे",
        "all_owners": [
          "विलास बबन गदादे"
        ],
        "khata_no": "2257",
        "area_sqm": 4194.11,
        "area_acres": 1.04,
        "area_guntha": 41.46,
        "land_type": "जिरायत शेती (Jirayat - Rainfed Agricultural)",
        "source": "MahaBhuNaksha Official Live Cadastre",
        "status": "needs_review",
        "confidence_score": 85.1,
        "old_survey_area_acres": 1.04,
        "old_survey_area_sqm": 4194.11,
        "new_survey_area_acres": 1.06,
        "new_survey_area_sqm": 4294.8,
        "area_diff_pct": 2.4,
        "mean_shift_m": 1.9,
        "iou_overlap_pct": 93.6,
        "review_reason": "Drone RTK photogrammetry detects a 2.4% area discrepancy (101 m²) with a mean bund shift of 1.9m along the farm boundary. Verification recommended.",
        "bhunaksha_geometry": {
          "type": "Polygon",
          "coordinates": [
            [
              [
                74.9744276,
                18.4845923
              ],
              [
                74.9743831,
                18.4844201
              ],
              [
                74.9742772,
                18.4839498
              ],
              [
                74.9742314,
                18.4839894
              ],
              [
                74.9735963,
                18.4840773
              ],
              [
                74.9736553,
                18.4844561
              ],
              [
                74.973985,
                18.484447
              ],
              [
                74.9741593,
                18.4846234
              ],
              [
                74.9744276,
                18.4845923
              ]
            ]
          ]
        }
      },
      "geometry": {
        "type": "Polygon",
        "coordinates": [
          [
            [
              74.9744146,
              18.4846011
            ],
            [
              74.9743696,
              18.4844269
            ],
            [
              74.9742624,
              18.483951
            ],
            [
              74.9742161,
              18.483991
            ],
            [
              74.9735734,
              18.48408
            ],
            [
              74.9736331,
              18.4844633
            ],
            [
              74.9739667,
              18.4844541
            ],
            [
              74.9741431,
              18.4846326
            ],
            [
              74.9744146,
              18.4846011
            ]
          ]
        ]
      }
    }
  ]
}