{
  "type": "FeatureCollection",
  "name": "Benwadi_Gat_114_Drone_Resurvey",
  "crs": {
    "type": "name",
    "properties": {
      "name": "urn:ogc:def:crs:OGC:1.3:CRS84"
    }
  },
  "features": [
    {
      "type": "Feature",
      "properties": {
        "parcel_id": "MH-AHM-KAR-BEN-114",
        "survey_no": "114",
        "gat_no": "114",
        "village": "Benwadi (बेनवडी)",
        "taluka": "Karjat (कर्जत)",
        "district": "Ahmednagar (अहमदनगर)",
        "state": "Maharashtra",
        "gis_code": "RVM2613272600130334420000",
        "owner_name": "अजिनाथ बापू खुडे, अनिल विजय खुडे, अलका भीमराव चांदणे, अलका संभाजी उल्हारे, अविनाश कल्याण खुडे, आप्पा बाबू खुडे, आशा शिवलिंग कांबळे, इंदुबाई छगन खुडे, उद्धव यशवंत सकट, उषा मोहन खुडे, ओंकार नवनाथ खुडे, कचरू गणपत खुडे, कलावती बापूराव -, कविता नवनाथ पवार, कविता संतोष जगताप, कांतीलाल छगन खुडे, केशरबाई तान्हाजी वाल्हेकर, गयाबाई दत्तू पवार, गोरख साहेबराव खुडे, छाया नामदेव शिंदे, तुषार निलेश खुडे, त्रिंबक विश्वनाथ खुडे, दत्तू धर्मा खुडे, दत्तू साहेबराव खुडे, दादा महादेव खुडे, दादासाहेब उद्धव सकट, दिव्या विजय खुडे, देवराव चंदर खुडे, धोंडीबा विठ्ठल खुडे, नंदाबाई दादाराम खुडे, नर्मदा शिवाजी खुडे, नाना दादा खुडे, निता मच्छिंद्र लोखंडे, निर्मला शिवाजी खुडे, निलावती बापूराव -, पूनम उद्धव खुडे, प्रमिला दुर्योधन पवार, प्रमोद रमेश मोरे, बबन भगवान खुडे, बबन विश्वनाथ खुडे, बापू दादाराम खुडे, बाळासाहेब उद्धव सकट, भाऊसाहेब जयवंता खुडे, मंगल निलेश खुडे, मच्छिंद्र साहेबराव खुडे, मंदाबाई माणिक घोडे, मधुकर दादा खुडे, मनीषा शशिकांत कांबळे, महेश नवनाथ खुडे, माणिक जयवंता खुडे, मारुती शंकर पवार, मालन हनुमंत टावरे, मिराबाई पंडित वेळेकर, मीराबाई दादा खुडे, यमुना साहेबराव दिवटे, रमा दिलीप लांडगे, राजूबाई कल्याण खुडे, राजूबाई भानुदास खुडे, राजेंद्र शिवाजी खुडे, रामा भानुदास खुडे, रावसाहेब जयवंता खुडे, राहुल रमेश मोरे, रेखा जालिंदर डाडर, रोहित निलेश खुडे अ पा क आई मंगल, लता नवनाथ खुडे, लाला दादा खुडे, लोचना श्रीरंग भिसे, विनायक जयवंता खुडे, वैजंताबाई साहेबराव भिसे, शंकर यादव पवार, शकुंतला सुखदेव खुडे, शशिकला साहेबराव खुडे, शालन जवान भिसे, शिवाजी भानुदास खुडे, संगीता बाळू शिंदे, संजय शंकर पवार, संतोष छगन खुडे, सपना विजय खुडे, सविता संदीपान मोरे, साखरबाई बबन खवळे, सिताराम बाबू खुडे, सोजाबाई संतराम भिसे, सोपान महादेव खुडे, सोमनाथ विजय खुडे, हरी भानुदास खुडे, हांबीर केरू खुडे, हिराबाई दादू शिंदे, रेश्मा विजय पाथरे",
        "all_owners": [
          "अजिनाथ बापू खुडे, अनिल विजय खुडे, अलका भीमराव चांदणे, अलका संभाजी उल्हारे, अविनाश कल्याण खुडे, आप्पा बाबू खुडे, आशा शिवलिंग कांबळे, इंदुबाई छगन खुडे, उद्धव यशवंत सकट, उषा मोहन खुडे, ओंकार नवनाथ खुडे, कचरू गणपत खुडे, कलावती बापूराव -, कविता नवनाथ पवार, कविता संतोष जगताप, कांतीलाल छगन खुडे, केशरबाई तान्हाजी वाल्हेकर, गयाबाई दत्तू पवार, गोरख साहेबराव खुडे, छाया नामदेव शिंदे, तुषार निलेश खुडे, त्रिंबक विश्वनाथ खुडे, दत्तू धर्मा खुडे, दत्तू साहेबराव खुडे, दादा महादेव खुडे, दादासाहेब उद्धव सकट, दिव्या विजय खुडे, देवराव चंदर खुडे, धोंडीबा विठ्ठल खुडे, नंदाबाई दादाराम खुडे, नर्मदा शिवाजी खुडे, नाना दादा खुडे, निता मच्छिंद्र लोखंडे, निर्मला शिवाजी खुडे, निलावती बापूराव -, पूनम उद्धव खुडे, प्रमिला दुर्योधन पवार, प्रमोद रमेश मोरे, बबन भगवान खुडे, बबन विश्वनाथ खुडे, बापू दादाराम खुडे, बाळासाहेब उद्धव सकट, भाऊसाहेब जयवंता खुडे, मंगल निलेश खुडे, मच्छिंद्र साहेबराव खुडे, मंदाबाई माणिक घोडे, मधुकर दादा खुडे, मनीषा शशिकांत कांबळे, महेश नवनाथ खुडे, माणिक जयवंता खुडे, मारुती शंकर पवार, मालन हनुमंत टावरे, मिराबाई पंडित वेळेकर, मीराबाई दादा खुडे, यमुना साहेबराव दिवटे, रमा दिलीप लांडगे, राजूबाई कल्याण खुडे, राजूबाई भानुदास खुडे, राजेंद्र शिवाजी खुडे, रामा भानुदास खुडे, रावसाहेब जयवंता खुडे, राहुल रमेश मोरे, रेखा जालिंदर डाडर, रोहित निलेश खुडे अ पा क आई मंगल, लता नवनाथ खुडे, लाला दादा खुडे, लोचना श्रीरंग भिसे, विनायक जयवंता खुडे, वैजंताबाई साहेबराव भिसे, शंकर यादव पवार, शकुंतला सुखदेव खुडे, शशिकला साहेबराव खुडे, शालन जवान भिसे, शिवाजी भानुदास खुडे, संगीता बाळू शिंदे, संजय शंकर पवार, संतोष छगन खुडे, सपना विजय खुडे, सविता संदीपान मोरे, साखरबाई बबन खवळे, सिताराम बाबू खुडे, सोजाबाई संतराम भिसे, सोपान महादेव खुडे, सोमनाथ विजय खुडे, हरी भानुदास खुडे, हांबीर केरू खुडे, हिराबाई दादू शिंदे, रेश्मा विजय पाथरे"
        ],
        "khata_no": "3234",
        "area_sqm": 2818.42,
        "area_acres": 0.7,
        "area_guntha": 27.86,
        "land_type": "जिरायत शेती (Jirayat - Rainfed Agricultural)",
        "source": "MahaBhuNaksha Official Live Cadastre",
        "status": "needs_review",
        "confidence_score": 85.1,
        "old_survey_area_acres": 0.7,
        "old_survey_area_sqm": 2818.42,
        "new_survey_area_acres": 0.72,
        "new_survey_area_sqm": 2886.1,
        "area_diff_pct": 2.4,
        "mean_shift_m": 1.5,
        "iou_overlap_pct": 93.6,
        "review_reason": "Drone RTK photogrammetry detects a 2.4% area discrepancy (68 m²) with a mean bund shift of 1.5m along the farm boundary. Verification recommended.",
        "bhunaksha_geometry": {
          "type": "Polygon",
          "coordinates": [
            [
              [
                74.9752138,
                18.4900993
              ],
              [
                74.9752108,
                18.4899382
              ],
              [
                74.9752069,
                18.4897303
              ],
              [
                74.9752064,
                18.4895862
              ],
              [
                74.9751885,
                18.489397
              ],
              [
                74.9751725,
                18.4892128
              ],
              [
                74.975147,
                18.488898
              ],
              [
                74.9751096,
                18.4884882
              ],
              [
                74.9750877,
                18.488245
              ],
              [
                74.9750758,
                18.4880535
              ],
              [
                74.9750768,
                18.4880178
              ],
              [
                74.9750801,
                18.487885
              ],
              [
                74.9750863,
                18.4877189
              ],
              [
                74.9750963,
                18.4874465
              ],
              [
                74.9750604,
                18.4876744
              ],
              [
                74.9749943,
                18.4880884
              ],
              [
                74.9750052,
                18.4882878
              ],
              [
                74.9750223,
                18.4885865
              ],
              [
                74.975049,
                18.489033
              ],
              [
                74.9750468,
                18.4890891
              ],
              [
                74.9750603,
                18.4893685
              ],
              [
                74.9750668,
                18.4895379
              ],
              [
                74.9750911,
                18.4897336
              ],
              [
                74.9750996,
                18.4898209
              ],
              [
                74.9751005,
                18.4898295
              ],
              [
                74.9751034,
                18.4898589
              ],
              [
                74.9751323,
                18.4901429
              ],
              [
                74.9752138,
                18.4900993
              ]
            ]
          ]
        }
      },
      "geometry": {
        "type": "Polygon",
        "coordinates": [
          [
            [
              74.9752009,
              18.4901127
            ],
            [
              74.9751979,
              18.4899497
            ],
            [
              74.9751939,
              18.4897393
            ],
            [
              74.9751934,
              18.4895935
            ],
            [
              74.9751753,
              18.489402
            ],
            [
              74.9751591,
              18.4892156
            ],
            [
              74.9751333,
              18.4888971
            ],
            [
              74.9750954,
              18.4884824
            ],
            [
              74.9750733,
              18.4882363
            ],
            [
              74.9750612,
              18.4880425
            ],
            [
              74.9750623,
              18.4880064
            ],
            [
              74.9750656,
              18.487872
            ],
            [
              74.9750719,
              18.4877039
            ],
            [
              74.975082,
              18.4874283
            ],
            [
              74.9750457,
              18.4876589
            ],
            [
              74.9749788,
              18.4880778
            ],
            [
              74.9749898,
              18.4882796
            ],
            [
              74.9750071,
              18.4885819
            ],
            [
              74.9750341,
              18.4890337
            ],
            [
              74.9750319,
              18.4890905
            ],
            [
              74.9750456,
              18.4893732
            ],
            [
              74.9750521,
              18.4895446
            ],
            [
              74.9750767,
              18.4897427
            ],
            [
              74.9750853,
              18.489831
            ],
            [
              74.9750862,
              18.4898397
            ],
            [
              74.9750892,
              18.4898695
            ],
            [
              74.9751184,
              18.4901568
            ],
            [
              74.9752009,
              18.4901127
            ]
          ]
        ]
      }
    }
  ]
}