{
  "type": "FeatureCollection",
  "name": "Benwadi_Gat_515_Drone_Resurvey",
  "crs": {
    "type": "name",
    "properties": {
      "name": "urn:ogc:def:crs:OGC:1.3:CRS84"
    }
  },
  "features": [
    {
      "type": "Feature",
      "properties": {
        "parcel_id": "MH-AHM-KAR-BEN-515",
        "survey_no": "515",
        "gat_no": "515",
        "village": "Benwadi (बेनवडी)",
        "taluka": "Karjat (कर्जत)",
        "district": "Ahmednagar (अहमदनगर)",
        "state": "Maharashtra",
        "gis_code": "RVM2613272600130334420000",
        "owner_name": "अंकुश भगवान गदादे, अबई भगवान गदादे, आबा तुकाराम गदादे, काका भगवान गदादे, कोंडीबा नारायण गदादे, गेना गणपती गदादे, डिगा गणपती गदादे, दत्तु तुकाराम गदादे, दशरथ नारायण गदादे, पंढरीनाथ सावळा गदादे, बबन तुकाराम गदादे, बबन नारायण गदादे, बाबा रामा गदादे, बाळु विठ्ठल गदादे, भामाबाई बाबा सायकर, भिमा सावळा गदादे, मारुती नारायण गदादे, रामा सावळा गदादे, समाबाई बाबू जाधव, हरीदास सावळा गदादे, पंढरीनाथ दगडू गदादे",
        "all_owners": [
          "अंकुश भगवान गदादे, अबई भगवान गदादे, आबा तुकाराम गदादे, काका भगवान गदादे, कोंडीबा नारायण गदादे, गेना गणपती गदादे, डिगा गणपती गदादे, दत्तु तुकाराम गदादे, दशरथ नारायण गदादे, पंढरीनाथ सावळा गदादे, बबन तुकाराम गदादे, बबन नारायण गदादे, बाबा रामा गदादे, बाळु विठ्ठल गदादे, भामाबाई बाबा सायकर, भिमा सावळा गदादे, मारुती नारायण गदादे, रामा सावळा गदादे, समाबाई बाबू जाधव, हरीदास सावळा गदादे, पंढरीनाथ दगडू गदादे"
        ],
        "khata_no": "766",
        "area_sqm": 540.97,
        "area_acres": 0.13,
        "area_guntha": 5.35,
        "land_type": "जिरायत शेती (Jirayat - Rainfed Agricultural)",
        "source": "MahaBhuNaksha Official Live Cadastre",
        "status": "needs_review",
        "confidence_score": 85.2,
        "old_survey_area_acres": 0.13,
        "old_survey_area_sqm": 540.97,
        "new_survey_area_acres": 0.13,
        "new_survey_area_sqm": 553.4,
        "area_diff_pct": 2.3,
        "mean_shift_m": 1.8,
        "iou_overlap_pct": 93.7,
        "review_reason": "Drone RTK photogrammetry detects a 2.3% area discrepancy (12 m²) with a mean bund shift of 1.8m along the farm boundary. Verification recommended.",
        "bhunaksha_geometry": {
          "type": "Polygon",
          "coordinates": [
            [
              [
                74.9833702,
                18.4945043
              ],
              [
                74.9833456,
                18.4943341
              ],
              [
                74.9833445,
                18.4943266
              ],
              [
                74.9830898,
                18.4943535
              ],
              [
                74.9831187,
                18.4945354
              ],
              [
                74.9833702,
                18.4945043
              ]
            ]
          ]
        }
      },
      "geometry": {
        "type": "Polygon",
        "coordinates": [
          [
            [
              74.9833551,
              18.4945098
            ],
            [
              74.9833302,
              18.4943377
            ],
            [
              74.9833291,
              18.4943301
            ],
            [
              74.9830715,
              18.4943573
            ],
            [
              74.9831007,
              18.4945413
            ],
            [
              74.9833551,
              18.4945098
            ]
          ]
        ]
      }
    }
  ]
}