{
  "type": "FeatureCollection",
  "name": "Benwadi_Gat_488_Drone_Resurvey",
  "crs": {
    "type": "name",
    "properties": {
      "name": "urn:ogc:def:crs:OGC:1.3:CRS84"
    }
  },
  "features": [
    {
      "type": "Feature",
      "properties": {
        "parcel_id": "MH-AHM-KAR-BEN-488",
        "survey_no": "488",
        "gat_no": "488",
        "village": "Benwadi (बेनवडी)",
        "taluka": "Karjat (कर्जत)",
        "district": "Ahmednagar (अहमदनगर)",
        "state": "Maharashtra",
        "gis_code": "RVM2613272600130334420000",
        "owner_name": "मंडोदरी लहू गदादे",
        "all_owners": [
          "मंडोदरी लहू गदादे"
        ],
        "khata_no": "467",
        "area_sqm": 9992.33,
        "area_acres": 2.47,
        "area_guntha": 98.77,
        "land_type": "जिरायत शेती (Jirayat - Rainfed Agricultural)",
        "source": "MahaBhuNaksha Official Live Cadastre",
        "status": "needs_review",
        "confidence_score": 84.4,
        "old_survey_area_acres": 2.47,
        "old_survey_area_sqm": 9992.33,
        "new_survey_area_acres": 2.54,
        "new_survey_area_sqm": 10292.1,
        "area_diff_pct": 3.0,
        "mean_shift_m": 2.1,
        "iou_overlap_pct": 93.0,
        "review_reason": "Drone RTK photogrammetry detects a 3.0% area discrepancy (300 m²) with a mean bund shift of 2.1m along the farm boundary. Verification recommended.",
        "bhunaksha_geometry": {
          "type": "Polygon",
          "coordinates": [
            [
              [
                74.9878996,
                18.4963779
              ],
              [
                74.9876939,
                18.4961138
              ],
              [
                74.9876079,
                18.4959904
              ],
              [
                74.9865424,
                18.4960824
              ],
              [
                74.9854572,
                18.4961551
              ],
              [
                74.98547,
                18.4962447
              ],
              [
                74.9855009,
                18.4965011
              ],
              [
                74.9860153,
                18.4964857
              ],
              [
                74.9870302,
                18.4964242
              ],
              [
                74.9878996,
                18.4963779
              ]
            ]
          ]
        }
      },
      "geometry": {
        "type": "Polygon",
        "coordinates": [
          [
            [
              74.9879338,
              18.4963925
            ],
            [
              74.9877251,
              18.4961245
            ],
            [
              74.9876378,
              18.4959992
            ],
            [
              74.9865564,
              18.4960926
            ],
            [
              74.9854551,
              18.4961664
            ],
            [
              74.985468,
              18.4962573
            ],
            [
              74.9854994,
              18.4965175
            ],
            [
              74.9860215,
              18.4965019
            ],
            [
              74.9870515,
              18.4964395
            ],
            [
              74.9879338,
              18.4963925
            ]
          ]
        ]
      }
    }
  ]
}