{
  "type": "FeatureCollection",
  "name": "Benwadi_Gat_42_Cadastre",
  "crs": {
    "type": "name",
    "properties": {
      "name": "urn:ogc:def:crs:OGC:1.3:CRS84"
    }
  },
  "features": [
    {
      "type": "Feature",
      "properties": {
        "parcel_id": "MH-AHM-KAR-BEN-42",
        "survey_no": "42",
        "gat_no": "42",
        "village": "Benwadi (बेनवडी)",
        "taluka": "Karjat (कर्जत)",
        "district": "Ahmednagar (अहमदनगर)",
        "state": "Maharashtra",
        "gis_code": "RVM2613272600130334420000",
        "owner_name": "लक्ष्मण धोंडिबा गदादे, दशरथ धोंडिबा गदादे",
        "all_owners": [
          "लक्ष्मण धोंडिबा गदादे",
          "दशरथ धोंडिबा गदादे",
          "मारूती धोंडिबा गदादे",
          "देविदास धोंडिबा गदादे",
          "लक्ष्मण धोंडिबा गदादे",
          "महाराष्ट्र राज्याचे मा.राज्यपाल यांचे वतीने जलसंपदा विभाग महाराष्ट्र शासनाचे प्राधिकृत प्रतिनिधी – कार्यकारी अभियंता, कुकडी वितरण विभाग कोळवडी, ता.कर्जत यांचे कबुलीजबाबासाठी कुलमखत्यार म्हणून- कनिष्ठ लिपिक कुकडी वितरण बांधकाम विभाग कोळवडी ता कर्जत –",
          "दशरथ धोंडिबा गदादे",
          "महाराष्ट्र राज्याचे मा.राज्यपाल यांचे वतीने जलसंपदा विभाग महाराष्ट्र शासनाचे प्राधिकृत प्रतिनिधी – कार्यकारी अभियंता, कुकडी वितरण विभाग कोळवडी, ता.कर्जत यांचे कबुलीजबाबासाठी कुलमखत्यार म्हणून- कनिष्ठ लिपिक कुकडी वितरण बांधकाम विभाग कोळवडी ता कर्जत –",
          "महाराष्ट्र राज्याचे मा.राज्यपाल यांचे वतीने जलसंपदा विभाग महाराष्ट्र शासनाचे प्राधिकृत प्रतिनिधी – कार्यकारी अभियंता, कुकडी वितरण विभाग कोळवडी, ता.कर्जत यांचे कबुलीजबाबासाठी कुलमखत्यार म्हणून- कनिष्ठ लिपिक कुकडी वितरण बांधकाम विभाग कोळवडी ता कर्जत –",
          "देविदास धोंडिबा गदादे"
        ],
        "khata_no": "461, 460, 462, 458, 461, 3170, 460, 3165, 3167, 458",
        "area_sqm": 58993.85,
        "area_acres": 14.58,
        "area_guntha": 583.12,
        "land_type": "जिरायत शेती (Jirayat - Rainfed Agricultural)",
        "source": "MahaBhuNaksha Official Live Cadastre",
        "status": "verified",
        "confidence_score": 98.8,
        "old_survey_area_acres": 14.58,
        "old_survey_area_sqm": 58993.85,
        "new_survey_area_acres": 14.58,
        "new_survey_area_sqm": 58993.85
      },
      "geometry": {
        "type": "Polygon",
        "coordinates": [
          [
            [
              74.9869979,
              18.4871177
            ],
            [
              74.9865754,
              18.4859914
            ],
            [
              74.9862851,
              18.485183
            ],
            [
              74.9858455,
              18.4853357
            ],
            [
              74.9850499,
              18.485629
            ],
            [
              74.9850916,
              18.485725
            ],
            [
              74.9851588,
              18.4859771
            ],
            [
              74.9853859,
              18.4868116
            ],
            [
              74.9848878,
              18.4874677
            ],
            [
              74.9840431,
              18.4878029
            ],
            [
              74.9841773,
              18.488504
            ],
            [
              74.9848368,
              18.4883541
            ],
            [
              74.9861708,
              18.4880701
            ],
            [
              74.9868702,
              18.4877898
            ],
            [
              74.986774,
              18.4872513
            ],
            [
              74.9869979,
              18.4871177
            ]
          ]
        ]
      }
    }
  ]
}