{
  "type": "FeatureCollection",
  "name": "Benwadi_Gat_213_Drone_Resurvey",
  "crs": {
    "type": "name",
    "properties": {
      "name": "urn:ogc:def:crs:OGC:1.3:CRS84"
    }
  },
  "features": [
    {
      "type": "Feature",
      "properties": {
        "parcel_id": "MH-AHM-KAR-BEN-213",
        "survey_no": "213",
        "gat_no": "213",
        "village": "Benwadi (बेनवडी)",
        "taluka": "Karjat (कर्जत)",
        "district": "Ahmednagar (अहमदनगर)",
        "state": "Maharashtra",
        "gis_code": "RVM2613272600130334420000",
        "owner_name": "महाराष्ट्र राज्याचे मा.राज्यपाल यांचे वतीने जलसंपदा विभाग महाराष्ट्र शासनाचे प्राधिकृत प्रतिनिधी – कार्यकारी अभियंता, कुकडी वितरण विभाग कोळवडी, ता.कर्जत यांचे कबुलीजबाबासाठी कुलमखत्यार म्हणून- कनिष्ठ लिपिक कुकडी वितरण बांधकाम विभाग कोळवडी ता कर्जत –, महाराष्ट्र राज्याचे मा.राज्यपाल यांचे वतीने जलसंपदा विभाग महाराष्ट्र शासनाचे प्राधिकृत प्रतिनिधी – कार्यकारी अभियंता, कुकडी वितरण विभाग कोळवडी, ता.कर्जत यांचे कबुलीजबाबासाठी कुलमखत्यार म्हणून- कनिष्ठ लिपिक कुकडी वितरण बांधकाम विभाग कोळवडी ता कर्जत –",
        "all_owners": [
          "महाराष्ट्र राज्याचे मा.राज्यपाल यांचे वतीने जलसंपदा विभाग महाराष्ट्र शासनाचे प्राधिकृत प्रतिनिधी – कार्यकारी अभियंता, कुकडी वितरण विभाग कोळवडी, ता.कर्जत यांचे कबुलीजबाबासाठी कुलमखत्यार म्हणून- कनिष्ठ लिपिक कुकडी वितरण बांधकाम विभाग कोळवडी ता कर्जत –",
          "महाराष्ट्र राज्याचे मा.राज्यपाल यांचे वतीने जलसंपदा विभाग महाराष्ट्र शासनाचे प्राधिकृत प्रतिनिधी – कार्यकारी अभियंता, कुकडी वितरण विभाग कोळवडी, ता.कर्जत यांचे कबुलीजबाबासाठी कुलमखत्यार म्हणून- कनिष्ठ लिपिक कुकडी वितरण बांधकाम विभाग कोळवडी ता कर्जत –",
          "रोहीदास शिवाजी गदादे",
          "अशोक शिवाजी गदादे"
        ],
        "khata_no": "3149, 3150, 409, 410",
        "area_sqm": 31309.24,
        "area_acres": 7.74,
        "area_guntha": 309.47,
        "land_type": "जिरायत शेती (Jirayat - Rainfed Agricultural)",
        "source": "MahaBhuNaksha Official Live Cadastre",
        "status": "needs_review",
        "confidence_score": 85.0,
        "old_survey_area_acres": 7.74,
        "old_survey_area_sqm": 31309.24,
        "new_survey_area_acres": 7.93,
        "new_survey_area_sqm": 32092.0,
        "area_diff_pct": 2.5,
        "mean_shift_m": 2.0,
        "iou_overlap_pct": 93.5,
        "review_reason": "Drone RTK photogrammetry detects a 2.5% area discrepancy (783 m²) with a mean bund shift of 2.0m along the farm boundary. Verification recommended.",
        "bhunaksha_geometry": {
          "type": "Polygon",
          "coordinates": [
            [
              [
                74.9519291,
                18.4864556
              ],
              [
                74.9518167,
                18.4863732
              ],
              [
                74.9512451,
                18.4850258
              ],
              [
                74.9510871,
                18.4846579
              ],
              [
                74.9504836,
                18.4850699
              ],
              [
                74.9499964,
                18.4854071
              ],
              [
                74.9497009,
                18.4856037
              ],
              [
                74.9496324,
                18.4857019
              ],
              [
                74.9500365,
                18.4864279
              ],
              [
                74.9501197,
                18.4865774
              ],
              [
                74.950206,
                18.4867324
              ],
              [
                74.9502756,
                18.4867211
              ],
              [
                74.9518401,
                18.4864672
              ],
              [
                74.9519291,
                18.4864556
              ]
            ]
          ]
        }
      },
      "geometry": {
        "type": "Polygon",
        "coordinates": [
          [
            [
              74.951927,
              18.4864564
            ],
            [
              74.9518132,
              18.486373
            ],
            [
              74.9512345,
              18.4850089
            ],
            [
              74.9510746,
              18.4846364
            ],
            [
              74.9504636,
              18.4850535
            ],
            [
              74.9499703,
              18.4853949
            ],
            [
              74.9496711,
              18.485594
            ],
            [
              74.9496018,
              18.4856934
            ],
            [
              74.9500109,
              18.4864284
            ],
            [
              74.9500951,
              18.4865798
            ],
            [
              74.9501825,
              18.4867367
            ],
            [
              74.950253,
              18.4867252
            ],
            [
              74.9518369,
              18.4864682
            ],
            [
              74.951927,
              18.4864564
            ]
          ]
        ]
      }
    }
  ]
}