{
  "type": "FeatureCollection",
  "name": "Benwadi_Gat_104_Cadastre",
  "crs": {
    "type": "name",
    "properties": {
      "name": "urn:ogc:def:crs:OGC:1.3:CRS84"
    }
  },
  "features": [
    {
      "type": "Feature",
      "properties": {
        "parcel_id": "MH-AHM-KAR-BEN-104",
        "survey_no": "104",
        "gat_no": "104",
        "village": "Benwadi (बेनवडी)",
        "taluka": "Karjat (कर्जत)",
        "district": "Ahmednagar (अहमदनगर)",
        "state": "Maharashtra",
        "gis_code": "RVM2613272600130334420000",
        "owner_name": "ओंकार नवनाथ खुडे, लता नवनाथ खुडे, महेश नवनाथ खुडे, दत्तु धर्मा खुडे",
        "all_owners": [
          "ओंकार नवनाथ खुडे, लता नवनाथ खुडे, महेश नवनाथ खुडे",
          "दत्तु धर्मा खुडे"
        ],
        "khata_no": "2919, 2948",
        "area_sqm": 9612.27,
        "area_acres": 2.38,
        "area_guntha": 95.01,
        "land_type": "जिरायत शेती (Jirayat - Rainfed Agricultural)",
        "source": "MahaBhuNaksha Official Live Cadastre",
        "status": "verified",
        "confidence_score": 98.8,
        "old_survey_area_acres": 2.38,
        "old_survey_area_sqm": 9612.27,
        "new_survey_area_acres": 2.38,
        "new_survey_area_sqm": 9612.27
      },
      "geometry": {
        "type": "Polygon",
        "coordinates": [
          [
            [
              74.9782222,
              18.4868464
            ],
            [
              74.9781789,
              18.4863102
            ],
            [
              74.9768524,
              18.4867959
            ],
            [
              74.9767313,
              18.4868404
            ],
            [
              74.9771268,
              18.4874098
            ],
            [
              74.9782222,
              18.4868464
            ]
          ]
        ]
      }
    }
  ]
}