{
  "type": "FeatureCollection",
  "name": "Benwadi_Gat_29_Drone_Resurvey",
  "crs": {
    "type": "name",
    "properties": {
      "name": "urn:ogc:def:crs:OGC:1.3:CRS84"
    }
  },
  "features": [
    {
      "type": "Feature",
      "properties": {
        "parcel_id": "MH-AHM-KAR-BEN-29",
        "survey_no": "29",
        "gat_no": "29",
        "village": "Benwadi (बेनवडी)",
        "taluka": "Karjat (कर्जत)",
        "district": "Ahmednagar (अहमदनगर)",
        "state": "Maharashtra",
        "gis_code": "RVM2613272600130334420000",
        "owner_name": "आजिनाथ साहेबराव राऊत, ज्ञानदेव दत्तू राऊत",
        "all_owners": [
          "आजिनाथ साहेबराव राऊत",
          "ज्ञानदेव दत्तू राऊत",
          "सिंधूबाई रामदास गदादे"
        ],
        "khata_no": "829, 830, 828",
        "area_sqm": 7153.09,
        "area_acres": 1.77,
        "area_guntha": 70.7,
        "land_type": "जिरायत शेती (Jirayat - Rainfed Agricultural)",
        "source": "MahaBhuNaksha Official Live Cadastre",
        "status": "needs_review",
        "confidence_score": 84.5,
        "old_survey_area_acres": 1.77,
        "old_survey_area_sqm": 7153.09,
        "new_survey_area_acres": 1.82,
        "new_survey_area_sqm": 7360.5,
        "area_diff_pct": 2.9,
        "mean_shift_m": 1.6,
        "iou_overlap_pct": 93.1,
        "review_reason": "Drone RTK photogrammetry detects a 2.9% area discrepancy (207 m²) with a mean bund shift of 1.6m along the farm boundary. Verification recommended.",
        "bhunaksha_geometry": {
          "type": "Polygon",
          "coordinates": [
            [
              [
                74.9935179,
                18.4857706
              ],
              [
                74.9933032,
                18.4850939
              ],
              [
                74.9924901,
                18.4855717
              ],
              [
                74.9926591,
                18.4861609
              ],
              [
                74.9935179,
                18.4857706
              ]
            ]
          ]
        }
      },
      "geometry": {
        "type": "Polygon",
        "coordinates": [
          [
            [
              74.9935402,
              18.4857689
            ],
            [
              74.9933224,
              18.4850824
            ],
            [
              74.9924976,
              18.4855671
            ],
            [
              74.992669,
              18.4861648
            ],
            [
              74.9935402,
              18.4857689
            ]
          ]
        ]
      }
    }
  ]
}