{
  "type": "FeatureCollection",
  "name": "Benwadi_Gat_528_Cadastre",
  "crs": {
    "type": "name",
    "properties": {
      "name": "urn:ogc:def:crs:OGC:1.3:CRS84"
    }
  },
  "features": [
    {
      "type": "Feature",
      "properties": {
        "parcel_id": "MH-AHM-KAR-BEN-528",
        "survey_no": "528",
        "gat_no": "528",
        "village": "Benwadi (बेनवडी)",
        "taluka": "Karjat (कर्जत)",
        "district": "Ahmednagar (अहमदनगर)",
        "state": "Maharashtra",
        "gis_code": "RVM2613272600130334420000",
        "owner_name": "उमेश नामदेव गदादे, अंकुश भगवान गदादे",
        "all_owners": [
          "उमेश नामदेव गदादे",
          "अंकुश भगवान गदादे",
          "भामाबाई\t बाबा सुपेकर",
          "समाबाई बाबु जाधव",
          "अबई भगवान गदादे",
          "काका भगवान गदादे",
          "वैशाली रामदास गदादे",
          "रामदास अंकुश गदादे"
        ],
        "khata_no": "897, 14, 2634, 2635, 3231, 547, 3351, 3352",
        "area_sqm": 17628.94,
        "area_acres": 4.36,
        "area_guntha": 174.25,
        "land_type": "जिरायत शेती (Jirayat - Rainfed Agricultural)",
        "source": "MahaBhuNaksha Official Live Cadastre",
        "status": "verified",
        "confidence_score": 98.8,
        "old_survey_area_acres": 4.36,
        "old_survey_area_sqm": 17628.94,
        "new_survey_area_acres": 4.36,
        "new_survey_area_sqm": 17628.94
      },
      "geometry": {
        "type": "Polygon",
        "coordinates": [
          [
            [
              74.9822031,
              18.4932152
            ],
            [
              74.9822004,
              18.4932013
            ],
            [
              74.9821521,
              18.49294
            ],
            [
              74.9821424,
              18.4928952
            ],
            [
              74.9821283,
              18.4928201
            ],
            [
              74.982081,
              18.4925808
            ],
            [
              74.9821047,
              18.4923473
            ],
            [
              74.9827239,
              18.4924443
            ],
            [
              74.9826949,
              18.4923456
            ],
            [
              74.982684,
              18.4922154
            ],
            [
              74.9822879,
              18.4918501
            ],
            [
              74.9816407,
              18.4919393
            ],
            [
              74.9815798,
              18.4919545
            ],
            [
              74.981148,
              18.4925198
            ],
            [
              74.9809666,
              18.4927289
            ],
            [
              74.9811059,
              18.4933246
            ],
            [
              74.9812404,
              18.4933094
            ],
            [
              74.9815428,
              18.4932763
            ],
            [
              74.9819076,
              18.4932438
            ],
            [
              74.9822031,
              18.4932152
            ]
          ]
        ]
      }
    }
  ]
}