{
  "type": "FeatureCollection",
  "name": "Benwadi_Gat_163_Drone_Resurvey",
  "crs": {
    "type": "name",
    "properties": {
      "name": "urn:ogc:def:crs:OGC:1.3:CRS84"
    }
  },
  "features": [
    {
      "type": "Feature",
      "properties": {
        "parcel_id": "MH-AHM-KAR-BEN-163",
        "survey_no": "163",
        "gat_no": "163",
        "village": "Benwadi (बेनवडी)",
        "taluka": "Karjat (कर्जत)",
        "district": "Ahmednagar (अहमदनगर)",
        "state": "Maharashtra",
        "gis_code": "RVM2613272600130334420000",
        "owner_name": "अंकुश शंभाजी गदादे, कलावती नाना नेवसे, कुसुम लाला नाळे, गिरजाबाई शंकर गदादे, जनाबाई बाळु गदादे, दशरथ बाळु गदादे, दादा शंभाजी गदादे, द्वारखाबाई दत्तु राऊत, धोंडाबाई सखाराम गदादे, पार्वतीबाई महादेव जांभुळकर, फुलाबाई ज्ञानदेव कोकाटे, बबई दत्तु शिंदे, मंगल बाळु सायकर, महादेव बाळु गदादे, मालन मारुती ननवरे, राधाबाई परबती नाळे, लिलावती ज्ञानदेव नवले, विमल सखाराम गदादे, शिवाजी शंकर गदादे, श्रीपती शंभाजी गदादे, सुभद्रा सुखदेव घुले, बापु सखाराम गदादे",
        "all_owners": [
          "अंकुश शंभाजी गदादे, कलावती नाना नेवसे, कुसुम लाला नाळे, गिरजाबाई शंकर गदादे, जनाबाई बाळु गदादे, दशरथ बाळु गदादे, दादा शंभाजी गदादे, द्वारखाबाई दत्तु राऊत, धोंडाबाई सखाराम गदादे, पार्वतीबाई महादेव जांभुळकर, फुलाबाई ज्ञानदेव कोकाटे, बबई दत्तु शिंदे, मंगल बाळु सायकर, महादेव बाळु गदादे, मालन मारुती ननवरे, राधाबाई परबती नाळे, लिलावती ज्ञानदेव नवले, विमल सखाराम गदादे, शिवाजी शंकर गदादे, श्रीपती शंभाजी गदादे, सुभद्रा सुखदेव घुले, बापु सखाराम गदादे"
        ],
        "khata_no": "1032",
        "area_sqm": 586.21,
        "area_acres": 0.14,
        "area_guntha": 5.79,
        "land_type": "जिरायत शेती (Jirayat - Rainfed Agricultural)",
        "source": "MahaBhuNaksha Official Live Cadastre",
        "status": "needs_review",
        "confidence_score": 85.0,
        "old_survey_area_acres": 0.14,
        "old_survey_area_sqm": 586.21,
        "new_survey_area_acres": 0.14,
        "new_survey_area_sqm": 600.9,
        "area_diff_pct": 2.5,
        "mean_shift_m": 1.8,
        "iou_overlap_pct": 93.5,
        "review_reason": "Drone RTK photogrammetry detects a 2.5% area discrepancy (15 m²) with a mean bund shift of 1.8m along the farm boundary. Verification recommended.",
        "bhunaksha_geometry": {
          "type": "Polygon",
          "coordinates": [
            [
              [
                74.9718114,
                18.479326
              ],
              [
                74.9716221,
                18.4793063
              ],
              [
                74.9715185,
                18.4793067
              ],
              [
                74.9715169,
                18.479469
              ],
              [
                74.9718043,
                18.4795016
              ],
              [
                74.9718114,
                18.479326
              ]
            ]
          ]
        }
      },
      "geometry": {
        "type": "Polygon",
        "coordinates": [
          [
            [
              74.9717989,
              18.4793339
            ],
            [
              74.9716072,
              18.4793139
            ],
            [
              74.9715023,
              18.4793143
            ],
            [
              74.9715007,
              18.4794787
            ],
            [
              74.9717917,
              18.4795117
            ],
            [
              74.9717989,
              18.4793339
            ]
          ]
        ]
      }
    }
  ]
}