{
  "type": "FeatureCollection",
  "name": "Benwadi_Gat_408_Drone_Resurvey",
  "crs": {
    "type": "name",
    "properties": {
      "name": "urn:ogc:def:crs:OGC:1.3:CRS84"
    }
  },
  "features": [
    {
      "type": "Feature",
      "properties": {
        "parcel_id": "MH-AHM-KAR-BEN-408",
        "survey_no": "408",
        "gat_no": "408",
        "village": "Benwadi (बेनवडी)",
        "taluka": "Karjat (कर्जत)",
        "district": "Ahmednagar (अहमदनगर)",
        "state": "Maharashtra",
        "gis_code": "RVM2613272600130334420000",
        "owner_name": "ओंकार हनुमंत दवणे, तुषार दत्तू दवणे",
        "all_owners": [
          "ओंकार हनुमंत दवणे",
          "तुषार दत्तू दवणे",
          "लीलावती कूंडलिक दवणे",
          "साखरबाई भानुदास दवणे",
          "सत्यभामा रामदास दुरंडे, बबन माणिक दवणे",
          "अशोक बबन दवणे",
          "कार्यकारी अभियंता  कुकडी डावा कालवा  चिलवडी शाखा कालवा  कामाकरिता संपादित",
          "सोहम हनुमंत दवणे",
          "अशोक बबन दवणे",
          "कार्यकारी अभियंता  कुकडी डावा कालवा  चिलवडी शाखा कालवा  कामाकरिता संपादित",
          "लीलावती कूंडलिक दवणे",
          "बबन माणिक दवणे",
          "संतोष बबन दवने",
          "बबन माणिक दवणे",
          "तुषार दत्तू दवणे",
          "कार्यकारी अभियंता  कुकडी डावा कालवा  चिलवडी शाखा कालवा  कामाकरिता संपादित",
          "कूंडलिक तूळशीराम दवणे"
        ],
        "khata_no": "3324, 3209, 502, 2876, 498, 2236, 2813, 3381, 2236, 2813, 502, 503, 2412, 503, 3209, 2813, 499",
        "area_sqm": 115111.75,
        "area_acres": 28.44,
        "area_guntha": 1137.81,
        "land_type": "जिरायत शेती (Jirayat - Rainfed Agricultural)",
        "source": "MahaBhuNaksha Official Live Cadastre",
        "status": "needs_review",
        "confidence_score": 84.4,
        "old_survey_area_acres": 28.44,
        "old_survey_area_sqm": 115111.75,
        "new_survey_area_acres": 29.29,
        "new_survey_area_sqm": 118565.1,
        "area_diff_pct": 3.0,
        "mean_shift_m": 1.7,
        "iou_overlap_pct": 93.0,
        "review_reason": "Drone RTK photogrammetry detects a 3.0% area discrepancy (3453 m²) with a mean bund shift of 1.7m along the farm boundary. Verification recommended.",
        "bhunaksha_geometry": {
          "type": "Polygon",
          "coordinates": [
            [
              [
                74.9982184,
                18.5039819
              ],
              [
                74.9996844,
                18.5029493
              ],
              [
                75.000136,
                18.5026521
              ],
              [
                75.0000593,
                18.5024464
              ],
              [
                74.9998223,
                18.5018107
              ],
              [
                74.9991495,
                18.4999974
              ],
              [
                74.9988211,
                18.4991501
              ],
              [
                74.9975611,
                18.4994631
              ],
              [
                74.9964602,
                18.4997133
              ],
              [
                74.9964842,
                18.4997966
              ],
              [
                74.9965255,
                18.4998575
              ],
              [
                74.9967174,
                18.500341
              ],
              [
                74.9968421,
                18.5006553
              ],
              [
                74.9974098,
                18.5020889
              ],
              [
                74.9980699,
                18.5037404
              ],
              [
                74.9981807,
                18.5040241
              ],
              [
                74.9982184,
                18.5039819
              ]
            ]
          ]
        }
      },
      "geometry": {
        "type": "Polygon",
        "coordinates": [
          [
            [
              74.9982345,
              18.5040261
            ],
            [
              74.9997223,
              18.5029781
            ],
            [
              75.0001807,
              18.5026765
            ],
            [
              75.0001028,
              18.5024677
            ],
            [
              74.9998623,
              18.5018225
            ],
            [
              74.9991795,
              18.4999822
            ],
            [
              74.9988462,
              18.4991223
            ],
            [
              74.9975674,
              18.49944
            ],
            [
              74.9964501,
              18.4996939
            ],
            [
              74.9964745,
              18.4997785
            ],
            [
              74.9965164,
              18.4998403
            ],
            [
              74.9967112,
              18.500331
            ],
            [
              74.9968377,
              18.5006499
            ],
            [
              74.9974139,
              18.5021049
            ],
            [
              74.9980838,
              18.503781
            ],
            [
              74.9981962,
              18.5040689
            ],
            [
              74.9982345,
              18.5040261
            ]
          ]
        ]
      }
    }
  ]
}