{
  "type": "FeatureCollection",
  "name": "Benwadi_Gat_538_Cadastre",
  "crs": {
    "type": "name",
    "properties": {
      "name": "urn:ogc:def:crs:OGC:1.3:CRS84"
    }
  },
  "features": [
    {
      "type": "Feature",
      "properties": {
        "parcel_id": "MH-AHM-KAR-BEN-538",
        "survey_no": "538",
        "gat_no": "538",
        "village": "Benwadi (बेनवडी)",
        "taluka": "Karjat (कर्जत)",
        "district": "Ahmednagar (अहमदनगर)",
        "state": "Maharashtra",
        "gis_code": "RVM2613272600130334420000",
        "owner_name": "शालन लक्ष्मण मोहळकर, कांताबाई शहादेव फरांडे",
        "all_owners": [
          "शालन लक्ष्मण मोहळकर",
          "कांताबाई शहादेव फरांडे",
          "द्रोपदा देवराव गदादे",
          "मणिषा संपत सायकर",
          "श्रीमंत देवराव गदादे",
          "शंकर देवराव गदादे"
        ],
        "khata_no": "121, 2711, 2712, 2713, 709, 710",
        "area_sqm": 8928.92,
        "area_acres": 2.21,
        "area_guntha": 88.26,
        "land_type": "जिरायत शेती (Jirayat - Rainfed Agricultural)",
        "source": "MahaBhuNaksha Official Live Cadastre",
        "status": "verified",
        "confidence_score": 98.8,
        "old_survey_area_acres": 2.21,
        "old_survey_area_sqm": 8928.92,
        "new_survey_area_acres": 2.21,
        "new_survey_area_sqm": 8928.92
      },
      "geometry": {
        "type": "Polygon",
        "coordinates": [
          [
            [
              74.9786278,
              18.4953875
            ],
            [
              74.9781231,
              18.4938823
            ],
            [
              74.9778885,
              18.4931709
            ],
            [
              74.9776495,
              18.4931752
            ],
            [
              74.9778041,
              18.4941264
            ],
            [
              74.978342,
              18.4954519
            ],
            [
              74.9786278,
              18.4953875
            ]
          ]
        ]
      }
    }
  ]
}