{
  "type": "FeatureCollection",
  "name": "Benwadi_Gat_495_Cadastre",
  "crs": {
    "type": "name",
    "properties": {
      "name": "urn:ogc:def:crs:OGC:1.3:CRS84"
    }
  },
  "features": [
    {
      "type": "Feature",
      "properties": {
        "parcel_id": "MH-AHM-KAR-BEN-495",
        "survey_no": "495",
        "gat_no": "495",
        "village": "Benwadi (बेनवडी)",
        "taluka": "Karjat (कर्जत)",
        "district": "Ahmednagar (अहमदनगर)",
        "state": "Maharashtra",
        "gis_code": "RVM2613272600130334420000",
        "owner_name": "गयाबाई रामा गदादे, लिलावती बाळासाहेब गदादे, विश्वनाथ रामा गदादे, सतीश बाळासाहेब गदादे, अजिनाथ बाळासाहेब गदादे",
        "all_owners": [
          "गयाबाई रामा गदादे, लिलावती बाळासाहेब गदादे, विश्वनाथ रामा गदादे, सतीश बाळासाहेब गदादे, अजिनाथ बाळासाहेब गदादे"
        ],
        "khata_no": "265",
        "area_sqm": 4102.8,
        "area_acres": 1.01,
        "area_guntha": 40.55,
        "land_type": "जिरायत शेती (Jirayat - Rainfed Agricultural)",
        "source": "MahaBhuNaksha Official Live Cadastre",
        "status": "verified",
        "confidence_score": 98.8,
        "old_survey_area_acres": 1.01,
        "old_survey_area_sqm": 4102.8,
        "new_survey_area_acres": 1.01,
        "new_survey_area_sqm": 4102.8
      },
      "geometry": {
        "type": "Polygon",
        "coordinates": [
          [
            [
              74.9875127,
              18.4993593
            ],
            [
              74.9864086,
              18.4992479
            ],
            [
              74.9864397,
              18.4998939
            ],
            [
              74.9865388,
              18.4998379
            ],
            [
              74.9875127,
              18.4993593
            ]
          ]
        ]
      }
    }
  ]
}