{
  "type": "FeatureCollection",
  "name": "Benwadi_Gat_193_Drone_Resurvey",
  "crs": {
    "type": "name",
    "properties": {
      "name": "urn:ogc:def:crs:OGC:1.3:CRS84"
    }
  },
  "features": [
    {
      "type": "Feature",
      "properties": {
        "parcel_id": "MH-AHM-KAR-BEN-193",
        "survey_no": "193",
        "gat_no": "193",
        "village": "Benwadi (बेनवडी)",
        "taluka": "Karjat (कर्जत)",
        "district": "Ahmednagar (अहमदनगर)",
        "state": "Maharashtra",
        "gis_code": "RVM2613272600130334420000",
        "owner_name": "बाळू अंबादास गदादे, झूंबर अंबादास गदादे",
        "all_owners": [
          "बाळू अंबादास गदादे",
          "झूंबर अंबादास गदादे",
          "सिताबाई आंबादास गदादे, संपतबाई माणिक चौरे, खंडु आंबादास गदादे, ठकुबाई संपत शिंदे, बाळु आंबादास गदादे, झुंबर आंबादास गदादे, सुनंदा अंबादास राऊत",
          "खंडू अंबादास गदादे",
          "बाबु अंबादास गदादे",
          "झूंबर अंबादास गदादे",
          "खंडू अंबादास गदादे"
        ],
        "khata_no": "842, 819, 2415, 841, 2847, 819, 841",
        "area_sqm": 38619.27,
        "area_acres": 9.54,
        "area_guntha": 381.73,
        "land_type": "जिरायत शेती (Jirayat - Rainfed Agricultural)",
        "source": "MahaBhuNaksha Official Live Cadastre",
        "status": "needs_review",
        "confidence_score": 85.0,
        "old_survey_area_acres": 9.54,
        "old_survey_area_sqm": 38619.27,
        "new_survey_area_acres": 9.78,
        "new_survey_area_sqm": 39584.8,
        "area_diff_pct": 2.5,
        "mean_shift_m": 1.6,
        "iou_overlap_pct": 93.5,
        "review_reason": "Drone RTK photogrammetry detects a 2.5% area discrepancy (966 m²) with a mean bund shift of 1.6m along the farm boundary. Verification recommended.",
        "bhunaksha_geometry": {
          "type": "Polygon",
          "coordinates": [
            [
              [
                74.9590964,
                18.4826346
              ],
              [
                74.9593346,
                18.4826122
              ],
              [
                74.9595391,
                18.4825726
              ],
              [
                74.9596109,
                18.4825808
              ],
              [
                74.9596943,
                18.4825687
              ],
              [
                74.9604698,
                18.4825028
              ],
              [
                74.9599459,
                18.481633
              ],
              [
                74.9596565,
                18.4811519
              ],
              [
                74.9592072,
                18.48055
              ],
              [
                74.9589972,
                18.4802996
              ],
              [
                74.9584033,
                18.4795796
              ],
              [
                74.9581078,
                18.4796781
              ],
              [
                74.9582742,
                18.480421
              ],
              [
                74.958692,
                18.4823131
              ],
              [
                74.9587324,
                18.4824319
              ],
              [
                74.9588522,
                18.482385
              ],
              [
                74.9589348,
                18.4826389
              ],
              [
                74.9590964,
                18.4826346
              ]
            ]
          ]
        }
      },
      "geometry": {
        "type": "Polygon",
        "coordinates": [
          [
            [
              74.9590838,
              18.4826376
            ],
            [
              74.9593249,
              18.4826149
            ],
            [
              74.959532,
              18.4825748
            ],
            [
              74.9596047,
              18.4825831
            ],
            [
              74.9596891,
              18.4825709
            ],
            [
              74.9604742,
              18.4825042
            ],
            [
              74.9599438,
              18.4816236
            ],
            [
              74.9596508,
              18.4811365
            ],
            [
              74.959196,
              18.4805271
            ],
            [
              74.9589833,
              18.4802736
            ],
            [
              74.9583821,
              18.4795446
            ],
            [
              74.9580829,
              18.4796444
            ],
            [
              74.9582514,
              18.4803965
            ],
            [
              74.9586743,
              18.4823121
            ],
            [
              74.9587153,
              18.4824324
            ],
            [
              74.9588365,
              18.4823849
            ],
            [
              74.9589202,
              18.482642
            ],
            [
              74.9590838,
              18.4826376
            ]
          ]
        ]
      }
    }
  ]
}