{
  "type": "FeatureCollection",
  "name": "Benwadi_Gat_198_Cadastre",
  "crs": {
    "type": "name",
    "properties": {
      "name": "urn:ogc:def:crs:OGC:1.3:CRS84"
    }
  },
  "features": [
    {
      "type": "Feature",
      "properties": {
        "parcel_id": "MH-AHM-KAR-BEN-198",
        "survey_no": "198",
        "gat_no": "198",
        "village": "Benwadi (बेनवडी)",
        "taluka": "Karjat (कर्जत)",
        "district": "Ahmednagar (अहमदनगर)",
        "state": "Maharashtra",
        "gis_code": "RVM2613272600130334420000",
        "owner_name": "सोनाली दत्ताञय अनारसे, सरुबाई महादेव गदादे, अशोक महादेव गदादे, मनिषा रमेश राऊत, सुरेखा विकास रासकर, मिराबाई बुवासाहेब गदादे, सुनिल बुवासाहेब गदादे, स्वाती आजिनाथ शेलार, ज्योती पोपट कुदळे",
        "all_owners": [
          "सोनाली दत्ताञय अनारसे, सरुबाई महादेव गदादे, अशोक महादेव गदादे, मनिषा रमेश राऊत, सुरेखा विकास रासकर",
          "मिराबाई बुवासाहेब गदादे, सुनिल बुवासाहेब गदादे, स्वाती आजिनाथ शेलार, ज्योती पोपट कुदळे"
        ],
        "khata_no": "2686, 2687",
        "area_sqm": 8508.88,
        "area_acres": 2.1,
        "area_guntha": 84.1,
        "land_type": "जिरायत शेती (Jirayat - Rainfed Agricultural)",
        "source": "MahaBhuNaksha Official Live Cadastre",
        "status": "verified",
        "confidence_score": 98.8,
        "old_survey_area_acres": 2.1,
        "old_survey_area_sqm": 8508.88,
        "new_survey_area_acres": 2.1,
        "new_survey_area_sqm": 8508.88
      },
      "geometry": {
        "type": "Polygon",
        "coordinates": [
          [
            [
              74.9613372,
              18.4838177
            ],
            [
              74.9611097,
              18.4834765
            ],
            [
              74.9608354,
              18.4835648
            ],
            [
              74.9606946,
              18.4834056
            ],
            [
              74.960626,
              18.4834426
            ],
            [
              74.9604154,
              18.4831194
            ],
            [
              74.9603401,
              18.4829688
            ],
            [
              74.9606677,
              18.4827955
            ],
            [
              74.9605237,
              18.4825983
            ],
            [
              74.9600708,
              18.4826732
            ],
            [
              74.9600936,
              18.4829052
            ],
            [
              74.9602965,
              18.4838582
            ],
            [
              74.9602869,
              18.4839811
            ],
            [
              74.9613372,
              18.4838177
            ]
          ]
        ]
      }
    }
  ]
}