{
  "type": "FeatureCollection",
  "name": "Benwadi_Gat_378_Cadastre",
  "crs": {
    "type": "name",
    "properties": {
      "name": "urn:ogc:def:crs:OGC:1.3:CRS84"
    }
  },
  "features": [
    {
      "type": "Feature",
      "properties": {
        "parcel_id": "MH-AHM-KAR-BEN-378",
        "survey_no": "378",
        "gat_no": "378",
        "village": "Benwadi (बेनवडी)",
        "taluka": "Karjat (कर्जत)",
        "district": "Ahmednagar (अहमदनगर)",
        "state": "Maharashtra",
        "gis_code": "RVM2613272600130334420000",
        "owner_name": "सुनंदा ज्ञानदेव गदादे, पांडूरंग ज्ञानदेव गदादे",
        "all_owners": [
          "सुनंदा ज्ञानदेव गदादे",
          "पांडूरंग ज्ञानदेव गदादे",
          "ज्ञानदेव खंडू गदादे"
        ],
        "khata_no": "2423, 839, 222",
        "area_sqm": 56110.14,
        "area_acres": 13.87,
        "area_guntha": 554.61,
        "land_type": "जिरायत शेती (Jirayat - Rainfed Agricultural)",
        "source": "MahaBhuNaksha Official Live Cadastre",
        "status": "verified",
        "confidence_score": 98.8,
        "old_survey_area_acres": 13.87,
        "old_survey_area_sqm": 56110.14,
        "new_survey_area_acres": 13.87,
        "new_survey_area_sqm": 56110.14
      },
      "geometry": {
        "type": "Polygon",
        "coordinates": [
          [
            [
              74.9827967,
              18.5026053
            ],
            [
              74.9825564,
              18.5025486
            ],
            [
              74.9813841,
              18.5022448
            ],
            [
              74.980482,
              18.5020241
            ],
            [
              74.9805421,
              18.5035076
            ],
            [
              74.98058,
              18.5043138
            ],
            [
              74.9809632,
              18.5043366
            ],
            [
              74.9812282,
              18.5043456
            ],
            [
              74.9819465,
              18.5043945
            ],
            [
              74.9829494,
              18.5044427
            ],
            [
              74.9829163,
              18.5039905
            ],
            [
              74.9827967,
              18.5026053
            ]
          ]
        ]
      }
    }
  ]
}