{
  "type": "FeatureCollection",
  "name": "Benwadi_Gat_210_Cadastre",
  "crs": {
    "type": "name",
    "properties": {
      "name": "urn:ogc:def:crs:OGC:1.3:CRS84"
    }
  },
  "features": [
    {
      "type": "Feature",
      "properties": {
        "parcel_id": "MH-AHM-KAR-BEN-210",
        "survey_no": "210",
        "gat_no": "210",
        "village": "Benwadi (बेनवडी)",
        "taluka": "Karjat (कर्जत)",
        "district": "Ahmednagar (अहमदनगर)",
        "state": "Maharashtra",
        "gis_code": "RVM2613272600130334420000",
        "owner_name": "महाराष्ट्र राज्याचे मा.राज्यपाल यांचे वतीने जलसंपदा विभाग महाराष्ट्र शासनाचे प्राधिकृत प्रतिनिधी – कार्यकारी अभियंता, कुकडी वितरण विभाग कोळवडी, ता.कर्जत यांचे कबुलीजबाबासाठी कुलमखत्यार म्हणून- कनिष्ठ लिपिक कुकडी वितरण बांधकाम विभाग कोळवडी ता कर्जत –, मनोज अजिनाथ गदादे",
        "all_owners": [
          "महाराष्ट्र राज्याचे मा.राज्यपाल यांचे वतीने जलसंपदा विभाग महाराष्ट्र शासनाचे प्राधिकृत प्रतिनिधी – कार्यकारी अभियंता, कुकडी वितरण विभाग कोळवडी, ता.कर्जत यांचे कबुलीजबाबासाठी कुलमखत्यार म्हणून- कनिष्ठ लिपिक कुकडी वितरण बांधकाम विभाग कोळवडी ता कर्जत –",
          "मनोज अजिनाथ गदादे",
          "जाईबाई बापू गदादे",
          "नवनाथ बापू गदादे"
        ],
        "khata_no": "3166, 3238, 405, 406",
        "area_sqm": 48782.21,
        "area_acres": 12.05,
        "area_guntha": 482.18,
        "land_type": "जिरायत शेती (Jirayat - Rainfed Agricultural)",
        "source": "MahaBhuNaksha Official Live Cadastre",
        "status": "verified",
        "confidence_score": 98.8,
        "old_survey_area_acres": 12.05,
        "old_survey_area_sqm": 48782.21,
        "new_survey_area_acres": 12.05,
        "new_survey_area_sqm": 48782.21
      },
      "geometry": {
        "type": "Polygon",
        "coordinates": [
          [
            [
              74.9533653,
              18.4851542
            ],
            [
              74.9530033,
              18.4837023
            ],
            [
              74.9531953,
              18.4835795
            ],
            [
              74.9540928,
              18.4828579
            ],
            [
              74.9544281,
              18.4840962
            ],
            [
              74.9547529,
              18.4853455
            ],
            [
              74.9554173,
              18.4850283
            ],
            [
              74.9553489,
              18.4849648
            ],
            [
              74.9551252,
              18.4839535
            ],
            [
              74.9549433,
              18.4832674
            ],
            [
              74.9545731,
              18.4818199
            ],
            [
              74.9544343,
              18.4819432
            ],
            [
              74.9533421,
              18.4828886
            ],
            [
              74.9524696,
              18.4836422
            ],
            [
              74.9522376,
              18.4838504
            ],
            [
              74.9528069,
              18.4854389
            ],
            [
              74.9533653,
              18.4851542
            ]
          ]
        ]
      }
    }
  ]
}