{
  "type": "FeatureCollection",
  "name": "Benwadi_Gat_443_Cadastre",
  "crs": {
    "type": "name",
    "properties": {
      "name": "urn:ogc:def:crs:OGC:1.3:CRS84"
    }
  },
  "features": [
    {
      "type": "Feature",
      "properties": {
        "parcel_id": "MH-AHM-KAR-BEN-443",
        "survey_no": "443",
        "gat_no": "443",
        "village": "Benwadi (बेनवडी)",
        "taluka": "Karjat (कर्जत)",
        "district": "Ahmednagar (अहमदनगर)",
        "state": "Maharashtra",
        "gis_code": "RVM2613272600130334420000",
        "owner_name": "दत्तात्रय काशिनाथ कोहळे",
        "all_owners": [
          "दत्तात्रय काशिनाथ कोहळे"
        ],
        "khata_no": "89",
        "area_sqm": 5066.36,
        "area_acres": 1.25,
        "area_guntha": 50.08,
        "land_type": "जिरायत शेती (Jirayat - Rainfed Agricultural)",
        "source": "MahaBhuNaksha Official Live Cadastre",
        "status": "verified",
        "confidence_score": 98.8,
        "old_survey_area_acres": 1.25,
        "old_survey_area_sqm": 5066.36,
        "new_survey_area_acres": 1.25,
        "new_survey_area_sqm": 5066.36
      },
      "geometry": {
        "type": "Polygon",
        "coordinates": [
          [
            [
              74.9955517,
              18.4947114
            ],
            [
              74.9954113,
              18.4944418
            ],
            [
              74.9947629,
              18.4946945
            ],
            [
              74.9953653,
              18.4952689
            ],
            [
              74.9954278,
              18.4952933
            ],
            [
              74.9957584,
              18.4951526
            ],
            [
              74.9955517,
              18.4947114
            ]
          ]
        ]
      }
    }
  ]
}