{
  "type": "FeatureCollection",
  "name": "Benwadi_Gat_45_Cadastre",
  "crs": {
    "type": "name",
    "properties": {
      "name": "urn:ogc:def:crs:OGC:1.3:CRS84"
    }
  },
  "features": [
    {
      "type": "Feature",
      "properties": {
        "parcel_id": "MH-AHM-KAR-BEN-45",
        "survey_no": "45",
        "gat_no": "45",
        "village": "Benwadi (बेनवडी)",
        "taluka": "Karjat (कर्जत)",
        "district": "Ahmednagar (अहमदनगर)",
        "state": "Maharashtra",
        "gis_code": "RVM2613272600130334420000",
        "owner_name": "सरपंच ग्रामपंचायत बेनवडी, आजिनाथ बापू खुडे",
        "all_owners": [
          "सरपंच ग्रामपंचायत बेनवडी",
          "आजिनाथ बापू खुडे",
          "जालिंदर पांडुरंग मोढळे",
          "मोहन वसंत धूमाळ",
          "पांडुरंग प्रकाश राऊत",
          "बाळू विठ्ठल खुडे",
          "ओंकार नवनाथ खुडे, लता नवनाथ खुडे, दत्तू धर्मा खुडे, महेश नवनाथ खुडे",
          "सागर आजिनाथ राऊत",
          "आनंद नवनाथ धुमाळ",
          "ज्ञानदेव दत्तू राऊत",
          "तुकाराम दत्तू राऊत, पांडुरंग प्रकाश राऊत, ज्ञानदेव दत्तू  राऊत",
          "उमेश नामदेव गदादे",
          "विठठल साहेबराव राऊत",
          "विमल हरीभाऊ धूमाळ",
          "आशा भरत होलें",
          "मच्छिंद्र साहेबराव खुडे",
          "तूकाराम दत्तू राऊत",
          "सिंधूबाई रामदास गदादे",
          "साईनाथ विठठल धुमाळ",
          "नवनाथ विठठल धूमाळ",
          "नवनाथ वसंत धुमाळ"
        ],
        "khata_no": "1111, 18, 2584, 2789, 2964, 3085, 3099, 3119, 3300, 3337, 3416, 3425, 386, 702, 707, 747, 827, 828, 864, 866, 955",
        "area_sqm": 63614.98,
        "area_acres": 15.72,
        "area_guntha": 628.79,
        "land_type": "जिरायत शेती (Jirayat - Rainfed Agricultural)",
        "source": "MahaBhuNaksha Official Live Cadastre",
        "status": "verified",
        "confidence_score": 98.8,
        "old_survey_area_acres": 15.72,
        "old_survey_area_sqm": 63614.98,
        "new_survey_area_acres": 15.72,
        "new_survey_area_sqm": 63614.98
      },
      "geometry": {
        "type": "Polygon",
        "coordinates": [
          [
            [
              74.98044,
              18.4912237
            ],
            [
              74.9806816,
              18.4911798
            ],
            [
              74.9808836,
              18.4911341
            ],
            [
              74.9809004,
              18.4910452
            ],
            [
              74.9809473,
              18.4905786
            ],
            [
              74.9809596,
              18.4904346
            ],
            [
              74.9809918,
              18.4901607
            ],
            [
              74.9801933,
              18.490199
            ],
            [
              74.9799384,
              18.4902112
            ],
            [
              74.9797338,
              18.490221
            ],
            [
              74.9796294,
              18.490226
            ],
            [
              74.9789861,
              18.4902612
            ],
            [
              74.9786827,
              18.4902778
            ],
            [
              74.9783957,
              18.4903424
            ],
            [
              74.9781141,
              18.4904034
            ],
            [
              74.9772881,
              18.4905821
            ],
            [
              74.9768769,
              18.4906711
            ],
            [
              74.9768411,
              18.4906755
            ],
            [
              74.9766393,
              18.4907
            ],
            [
              74.9765587,
              18.4907223
            ],
            [
              74.9765627,
              18.4907284
            ],
            [
              74.9765711,
              18.4907419
            ],
            [
              74.9765793,
              18.4907555
            ],
            [
              74.9765873,
              18.4907693
            ],
            [
              74.9765951,
              18.4907832
            ],
            [
              74.9766026,
              18.4907972
            ],
            [
              74.9766098,
              18.4908114
            ],
            [
              74.9766168,
              18.4908257
            ],
            [
              74.9766247,
              18.4908427
            ],
            [
              74.976635,
              18.4908647
            ],
            [
              74.9766456,
              18.4908866
            ],
            [
              74.9766566,
              18.4909083
            ],
            [
              74.9766679,
              18.4909297
            ],
            [
              74.9766797,
              18.490951
            ],
            [
              74.9766918,
              18.490972
            ],
            [
              74.9767113,
              18.4910043
            ],
            [
              74.9767202,
              18.4910189
            ],
            [
              74.9767288,
              18.4910336
            ],
            [
              74.9767373,
              18.4910485
            ],
            [
              74.9767454,
              18.4910635
            ],
            [
              74.9767533,
              18.4910787
            ],
            [
              74.9767609,
              18.491094
            ],
            [
              74.9767682,
              18.4911094
            ],
            [
              74.9767753,
              18.491125
            ],
            [
              74.9767821,
              18.4911407
            ],
            [
              74.9767887,
              18.4911565
            ],
            [
              74.9767949,
              18.4911724
            ],
            [
              74.9768009,
              18.4911884
            ],
            [
              74.9768066,
              18.4912045
            ],
            [
              74.976812,
              18.4912207
            ],
            [
              74.9768172,
              18.491237
            ],
            [
              74.976822,
              18.4912534
            ],
            [
              74.9768266,
              18.4912699
            ],
            [
              74.9768315,
              18.4912891
            ],
            [
              74.9768335,
              18.4912968
            ],
            [
              74.9768356,
              18.4913044
            ],
            [
              74.9768378,
              18.4913119
            ],
            [
              74.9768401,
              18.4913195
            ],
            [
              74.9768426,
              18.4913269
            ],
            [
              74.9768452,
              18.4913344
            ],
            [
              74.976848,
              18.4913418
            ],
            [
              74.9768508,
              18.4913491
            ],
            [
              74.9768538,
              18.4913564
            ],
            [
              74.9768569,
              18.4913637
            ],
            [
              74.9768602,
              18.4913708
            ],
            [
              74.9768636,
              18.491378
            ],
            [
              74.9768671,
              18.491385
            ],
            [
              74.9768707,
              18.491392
            ],
            [
              74.9768744,
              18.491399
            ],
            [
              74.9768783,
              18.4914059
            ],
            [
              74.9768822,
              18.4914127
            ],
            [
              74.9768863,
              18.4914194
            ],
            [
              74.9768914,
              18.4914274
            ],
            [
              74.9768953,
              18.4914337
            ],
            [
              74.9768991,
              18.4914402
            ],
            [
              74.9769026,
              18.4914468
            ],
            [
              74.9769059,
              18.4914535
            ],
            [
              74.9769089,
              18.4914604
            ],
            [
              74.9769117,
              18.4914673
            ],
            [
              74.9769143,
              18.4914743
            ],
            [
              74.9769166,
              18.4914814
            ],
            [
              74.9769186,
              18.4914886
            ],
            [
              74.9769205,
              18.4914959
            ],
            [
              74.976922,
              18.4915032
            ],
            [
              74.9769233,
              18.4915105
            ],
            [
              74.9769244,
              18.4915179
            ],
            [
              74.9769252,
              18.4915254
            ],
            [
              74.9769257,
              18.4915328
            ],
            [
              74.976926,
              18.4915403
            ],
            [
              74.976926,
              18.4915478
            ],
            [
              74.9769257,
              18.4915552
            ],
            [
              74.9769252,
              18.4915627
            ],
            [
              74.9769244,
              18.4915701
            ],
            [
              74.976923,
              18.4915801
            ],
            [
              74.9769217,
              18.491588
            ],
            [
              74.9769206,
              18.4915959
            ],
            [
              74.9769196,
              18.4916038
            ],
            [
              74.9769188,
              18.4916118
            ],
            [
              74.976918,
              18.4916198
            ],
            [
              74.9769175,
              18.4916277
            ],
            [
              74.976917,
              18.4916357
            ],
            [
              74.9769167,
              18.4916437
            ],
            [
              74.9769166,
              18.4916517
            ],
            [
              74.9769166,
              18.4916597
            ],
            [
              74.9769167,
              18.4916677
            ],
            [
              74.976917,
              18.4916757
            ],
            [
              74.9769174,
              18.4916837
            ],
            [
              74.9769179,
              18.4916917
            ],
            [
              74.9769186,
              18.4916997
            ],
            [
              74.9769194,
              18.4917077
            ],
            [
              74.9769203,
              18.4917156
            ],
            [
              74.9769214,
              18.4917235
            ],
            [
              74.9769227,
              18.4917315
            ],
            [
              74.976924,
              18.4917393
            ],
            [
              74.976927,
              18.4917543
            ],
            [
              74.9769288,
              18.491763
            ],
            [
              74.9769302,
              18.4917717
            ],
            [
              74.9769313,
              18.4917805
            ],
            [
              74.9769321,
              18.4917894
            ],
            [
              74.9769326,
              18.4917982
            ],
            [
              74.9769328,
              18.4918071
            ],
            [
              74.9769327,
              18.491816
            ],
            [
              74.9769323,
              18.4918248
            ],
            [
              74.9769316,
              18.4918337
            ],
            [
              74.9769305,
              18.4918425
            ],
            [
              74.9769292,
              18.4918512
            ],
            [
              74.9769275,
              18.4918599
            ],
            [
              74.9769256,
              18.4918686
            ],
            [
              74.9769234,
              18.4918771
            ],
            [
              74.9769208,
              18.4918856
            ],
            [
              74.976918,
              18.491894
            ],
            [
              74.9769148,
              18.4919023
            ],
            [
              74.9769114,
              18.4919105
            ],
            [
              74.9769077,
              18.4919185
            ],
            [
              74.9769037,
              18.4919264
            ],
            [
              74.9768995,
              18.4919342
            ],
            [
              74.976895,
              18.4919418
            ],
            [
              74.9768902,
              18.4919492
            ],
            [
              74.9768851,
              18.4919565
            ],
            [
              74.9768743,
              18.4919645
            ],
            [
              74.9768639,
              18.4919
            ],
            [
              74.9768539,
              18.4918303
            ],
            [
              74.9768451,
              18.4917604
            ],
            [
              74.9768375,
              18.4916904
            ],
            [
              74.9768311,
              18.4916203
            ],
            [
              74.976826,
              18.4915501
            ],
            [
              74.9768196,
              18.4914167
            ],
            [
              74.9768193,
              18.4914085
            ],
            [
              74.9768188,
              18.4914002
            ],
            [
              74.9768182,
              18.4913919
            ],
            [
              74.9768174,
              18.4913837
            ],
            [
              74.9768165,
              18.4913755
            ],
            [
              74.9768155,
              18.4913673
            ],
            [
              74.9768143,
              18.4913591
            ],
            [
              74.9768129,
              18.4913509
            ],
            [
              74.9768115,
              18.4913427
            ],
            [
              74.9768098,
              18.4913346
            ],
            [
              74.9768081,
              18.4913265
            ],
            [
              74.9768062,
              18.4913185
            ],
            [
              74.9768041,
              18.4913104
            ],
            [
              74.976802,
              18.4913024
            ],
            [
              74.9767996,
              18.4912945
            ],
            [
              74.9767972,
              18.4912866
            ],
            [
              74.9767946,
              18.4912787
            ],
            [
              74.9767919,
              18.4912709
            ],
            [
              74.976789,
              18.4912631
            ],
            [
              74.976786,
              18.4912554
            ],
            [
              74.9767829,
              18.4912477
            ],
            [
              74.9767796,
              18.4912401
            ],
            [
              74.9767762,
              18.4912326
            ],
            [
              74.9767727,
              18.4912251
            ],
            [
              74.976769,
              18.4912176
            ],
            [
              74.9767652,
              18.4912103
            ],
            [
              74.9767613,
              18.491203
            ],
            [
              74.9767573,
              18.4911957
            ],
            [
              74.9767531,
              18.4911886
            ],
            [
              74.9767488,
              18.4911815
            ],
            [
              74.9767444,
              18.4911745
            ],
            [
              74.9767394,
              18.4911669
            ],
            [
              74.9766565,
              18.4910411
            ],
            [
              74.9765754,
              18.4909142
            ],
            [
              74.9765536,
              18.4908789
            ],
            [
              74.9765325,
              18.4908432
            ],
            [
              74.9765043,
              18.4907935
            ],
            [
              74.976499,
              18.4907842
            ],
            [
              74.9764933,
              18.4907751
            ],
            [
              74.9764874,
              18.4907662
            ],
            [
              74.9764811,
              18.4907575
            ],
            [
              74.9764746,
              18.4907491
            ],
            [
              74.9764232,
              18.4907599
            ],
            [
              74.9765699,
              18.4910666
            ],
            [
              74.9766057,
              18.4913138
            ],
            [
              74.9766212,
              18.4915346
            ],
            [
              74.9766417,
              18.491695
            ],
            [
              74.9766651,
              18.4918968
            ],
            [
              74.976677,
              18.4921317
            ],
            [
              74.9779508,
              18.4918304
            ],
            [
              74.9790995,
              18.4915492
            ],
            [
              74.9795162,
              18.4914472
            ],
            [
              74.9799315,
              18.4913456
            ],
            [
              74.98044,
              18.4912237
            ]
          ]
        ]
      }
    }
  ]
}