{
  "type": "FeatureCollection",
  "name": "Benwadi_Gat_28_Cadastre",
  "crs": {
    "type": "name",
    "properties": {
      "name": "urn:ogc:def:crs:OGC:1.3:CRS84"
    }
  },
  "features": [
    {
      "type": "Feature",
      "properties": {
        "parcel_id": "MH-AHM-KAR-BEN-28",
        "survey_no": "28",
        "gat_no": "28",
        "village": "Benwadi (बेनवडी)",
        "taluka": "Karjat (कर्जत)",
        "district": "Ahmednagar (अहमदनगर)",
        "state": "Maharashtra",
        "gis_code": "RVM2613272600130334420000",
        "owner_name": "हशीम पोपट सय्यद, सुलताना महमद शेख, अल्ताफ अब्बास सय्यद",
        "all_owners": [
          "हशीम पोपट सय्यद",
          "सुलताना महमद शेख, अल्ताफ अब्बास सय्यद"
        ],
        "khata_no": "3478, 2940",
        "area_sqm": 19454.49,
        "area_acres": 4.81,
        "area_guntha": 192.3,
        "land_type": "जिरायत शेती (Jirayat - Rainfed Agricultural)",
        "source": "MahaBhuNaksha Official Live Cadastre",
        "status": "verified",
        "confidence_score": 98.8,
        "old_survey_area_acres": 4.81,
        "old_survey_area_sqm": 19454.49,
        "new_survey_area_acres": 4.81,
        "new_survey_area_sqm": 19454.49
      },
      "geometry": {
        "type": "Polygon",
        "coordinates": [
          [
            [
              74.9649552,
              18.4840236
            ],
            [
              74.964017,
              18.4832687
            ],
            [
              74.9637499,
              18.4828804
            ],
            [
              74.9634023,
              18.4828756
            ],
            [
              74.9627048,
              18.4828497
            ],
            [
              74.9622309,
              18.48283
            ],
            [
              74.9621675,
              18.4828311
            ],
            [
              74.9619818,
              18.4829299
            ],
            [
              74.9619504,
              18.4825689
            ],
            [
              74.9619395,
              18.4821935
            ],
            [
              74.9619147,
              18.4822062
            ],
            [
              74.9617207,
              18.4822928
            ],
            [
              74.9617581,
              18.4826766
            ],
            [
              74.961847,
              18.4832607
            ],
            [
              74.9622765,
              18.4832542
            ],
            [
              74.9631455,
              18.483239
            ],
            [
              74.9635881,
              18.4832337
            ],
            [
              74.9636763,
              18.4832342
            ],
            [
              74.9634489,
              18.483426
            ],
            [
              74.9643059,
              18.4841487
            ],
            [
              74.9646931,
              18.4844788
            ],
            [
              74.9648629,
              18.4841854
            ],
            [
              74.9649552,
              18.4840236
            ]
          ]
        ]
      }
    }
  ]
}