{
  "type": "FeatureCollection",
  "name": "Benwadi_Gat_142_Cadastre",
  "crs": {
    "type": "name",
    "properties": {
      "name": "urn:ogc:def:crs:OGC:1.3:CRS84"
    }
  },
  "features": [
    {
      "type": "Feature",
      "properties": {
        "parcel_id": "MH-AHM-KAR-BEN-142",
        "survey_no": "142",
        "gat_no": "142",
        "village": "Benwadi (बेनवडी)",
        "taluka": "Karjat (कर्जत)",
        "district": "Ahmednagar (अहमदनगर)",
        "state": "Maharashtra",
        "gis_code": "RVM2613272600130334420000",
        "owner_name": "बबन अंकुश गदादे, सोमनाथ अंकुश गदादे",
        "all_owners": [
          "बबन अंकुश गदादे, सोमनाथ अंकुश गदादे"
        ],
        "khata_no": "2955",
        "area_sqm": 4786.54,
        "area_acres": 1.18,
        "area_guntha": 47.31,
        "land_type": "जिरायत शेती (Jirayat - Rainfed Agricultural)",
        "source": "MahaBhuNaksha Official Live Cadastre",
        "status": "verified",
        "confidence_score": 98.8,
        "old_survey_area_acres": 1.18,
        "old_survey_area_sqm": 4786.54,
        "new_survey_area_acres": 1.18,
        "new_survey_area_sqm": 4786.54
      },
      "geometry": {
        "type": "Polygon",
        "coordinates": [
          [
            [
              74.9685152,
              18.488065
            ],
            [
              74.967599,
              18.4881347
            ],
            [
              74.9681799,
              18.4887727
            ],
            [
              74.9683775,
              18.4889356
            ],
            [
              74.9685152,
              18.488065
            ]
          ]
        ]
      }
    }
  ]
}