{
  "type": "FeatureCollection",
  "name": "Benwadi_Gat_303_Drone_Resurvey",
  "crs": {
    "type": "name",
    "properties": {
      "name": "urn:ogc:def:crs:OGC:1.3:CRS84"
    }
  },
  "features": [
    {
      "type": "Feature",
      "properties": {
        "parcel_id": "MH-AHM-KAR-BEN-303",
        "survey_no": "303",
        "gat_no": "303",
        "village": "Benwadi (बेनवडी)",
        "taluka": "Karjat (कर्जत)",
        "district": "Ahmednagar (अहमदनगर)",
        "state": "Maharashtra",
        "gis_code": "RVM2613272600130334420000",
        "owner_name": "जनाबाई नामदेव धुमाळ, संतोष नामदेव धुमाळ, संपत नामदेव धुमाळ",
        "all_owners": [
          "जनाबाई नामदेव धुमाळ, संतोष नामदेव धुमाळ, संपत नामदेव धुमाळ"
        ],
        "khata_no": "130",
        "area_sqm": 8774.64,
        "area_acres": 2.17,
        "area_guntha": 86.73,
        "land_type": "जिरायत शेती (Jirayat - Rainfed Agricultural)",
        "source": "MahaBhuNaksha Official Live Cadastre",
        "status": "needs_review",
        "confidence_score": 85.0,
        "old_survey_area_acres": 2.17,
        "old_survey_area_sqm": 8774.64,
        "new_survey_area_acres": 2.22,
        "new_survey_area_sqm": 8994.0,
        "area_diff_pct": 2.5,
        "mean_shift_m": 1.4,
        "iou_overlap_pct": 93.5,
        "review_reason": "Drone RTK photogrammetry detects a 2.5% area discrepancy (219 m²) with a mean bund shift of 1.4m along the farm boundary. Verification recommended.",
        "bhunaksha_geometry": {
          "type": "Polygon",
          "coordinates": [
            [
              [
                74.9663631,
                18.5033458
              ],
              [
                74.9662914,
                18.5030666
              ],
              [
                74.9656556,
                18.5031901
              ],
              [
                74.9651414,
                18.5032911
              ],
              [
                74.9642312,
                18.5034744
              ],
              [
                74.9639533,
                18.5035381
              ],
              [
                74.9630289,
                18.5037151
              ],
              [
                74.9629378,
                18.5037325
              ],
              [
                74.9629453,
                18.503893
              ],
              [
                74.9630357,
                18.503878
              ],
              [
                74.9642388,
                18.5036784
              ],
              [
                74.9653674,
                18.5034974
              ],
              [
                74.9663631,
                18.5033458
              ]
            ]
          ]
        }
      },
      "geometry": {
        "type": "Polygon",
        "coordinates": [
          [
            [
              74.9663754,
              18.5033377
            ],
            [
              74.9663028,
              18.503055
            ],
            [
              74.9656591,
              18.50318
            ],
            [
              74.9651385,
              18.5032823
            ],
            [
              74.964217,
              18.5034679
            ],
            [
              74.9639356,
              18.5035323
            ],
            [
              74.9629997,
              18.5037115
            ],
            [
              74.9629075,
              18.5037292
            ],
            [
              74.9629151,
              18.5038917
            ],
            [
              74.9630066,
              18.5038765
            ],
            [
              74.9642247,
              18.5036744
            ],
            [
              74.9653673,
              18.5034911
            ],
            [
              74.9663754,
              18.5033377
            ]
          ]
        ]
      }
    }
  ]
}