{
  "type": "FeatureCollection",
  "name": "Benwadi_Gat_472_Cadastre",
  "crs": {
    "type": "name",
    "properties": {
      "name": "urn:ogc:def:crs:OGC:1.3:CRS84"
    }
  },
  "features": [
    {
      "type": "Feature",
      "properties": {
        "parcel_id": "MH-AHM-KAR-BEN-472",
        "survey_no": "472",
        "gat_no": "472",
        "village": "Benwadi (बेनवडी)",
        "taluka": "Karjat (कर्जत)",
        "district": "Ahmednagar (अहमदनगर)",
        "state": "Maharashtra",
        "gis_code": "RVM2613272600130334420000",
        "owner_name": "गोकूळ वसंत गायकवाड, मारूती लक्ष्मण गायकवाड",
        "all_owners": [
          "गोकूळ वसंत गायकवाड",
          "मारूती लक्ष्मण गायकवाड"
        ],
        "khata_no": "566, 888",
        "area_sqm": 12346.24,
        "area_acres": 3.05,
        "area_guntha": 122.03,
        "land_type": "जिरायत शेती (Jirayat - Rainfed Agricultural)",
        "source": "MahaBhuNaksha Official Live Cadastre",
        "status": "verified",
        "confidence_score": 98.8,
        "old_survey_area_acres": 3.05,
        "old_survey_area_sqm": 12346.24,
        "new_survey_area_acres": 3.05,
        "new_survey_area_sqm": 12346.24
      },
      "geometry": {
        "type": "Polygon",
        "coordinates": [
          [
            [
              74.9874973,
              18.4917494
            ],
            [
              74.9872343,
              18.4906978
            ],
            [
              74.9871501,
              18.4902937
            ],
            [
              74.9870169,
              18.4903296
            ],
            [
              74.9866121,
              18.490927
            ],
            [
              74.9865231,
              18.4910098
            ],
            [
              74.986659,
              18.4919673
            ],
            [
              74.9872627,
              18.4919824
            ],
            [
              74.987192,
              18.4918002
            ],
            [
              74.9874973,
              18.4917494
            ]
          ]
        ]
      }
    }
  ]
}