{
  "type": "FeatureCollection",
  "name": "Benwadi_Gat_108_Cadastre",
  "crs": {
    "type": "name",
    "properties": {
      "name": "urn:ogc:def:crs:OGC:1.3:CRS84"
    }
  },
  "features": [
    {
      "type": "Feature",
      "properties": {
        "parcel_id": "MH-AHM-KAR-BEN-108",
        "survey_no": "108",
        "gat_no": "108",
        "village": "Benwadi (बेनवडी)",
        "taluka": "Karjat (कर्जत)",
        "district": "Ahmednagar (अहमदनगर)",
        "state": "Maharashtra",
        "gis_code": "RVM2613272600130334420000",
        "owner_name": "अजिनाथ बापू खुडे, अनिल विजय खुडे, अलका भीमराव चांदणे, आप्पा बाबू खुडे, इंदुबाई छगन खुडे, उद्धव यशवंत सकट, कलावती बापूराव, कल्याण जयवता खुडे, कविता नवनाथ पवार, कांतीलाल छगन खुडे, गयाबाई दत्तु पवार, गोरख  साहेबराव  खुडे, त्रिंबक विश्वनाथ खुडे, दत्तू  साहेबराव  खुडे, दादासाहेब उद्धव सकट, दिव्या विजय खुडे, देवराव चंदर खुडे, धोंडीबा विठ्ठल खुडे, नंदाबाई दादाराम खुडे, नर्मदा शिवाजी खुडे, नाना दादा खुडे, निर्मला शिवाजी खुडे, निलावती बाबुलाल, पूनम उद्धव खुडे, प्रमिला दुर्योधन पवार, प्रमोद रमेश मोरे, बबन विश्वनाथ खुडे, बापू दादाराम खुडे, बाळासाहेब उद्धव सकट, भाऊसाहेब जयवंता खुडे, मच्छिंद्र साहेबराव खुडे, मंदाबाई माणिक घोडे, मधुकर दादा खुडे, मनीषा शशिकांत कांबळे, माणिक जयवंता खुडे, मारुती शंकर पवार, मालन हनुमंत टावरे, मीराबाई दादा खुडे, यमुना साहेबराव दिवटे, रमा दिलीप लांडगे, राजेंद्र शिवाजी खुडे, रावसाहेब जयवंता खुडे, राहुल रमेश मोरे, रेश्मा विजय पाथरे, लाला दादा खुडे, लोचना श्रीरंग भिसे, विनायक जयवंता खुडे, वैजंताबाई साहेबराव भिसे, शंकर यादव पवार, शकुंतला सुखदेव खुडे, शशिकला साहेबराव खुडे, शालन जवान भिसे, संजय शंकर पवार, संतोष छगन खुडे, सपना विजय खुडे, साखरबाई बबन खवळे, सिताराम बाबू खुडे, सोजाबाई शंकर भिसे, सोमनाथ विजय खुडे, कारभारी काशिबा खुडे",
        "all_owners": [
          "अजिनाथ बापू खुडे, अनिल विजय खुडे, अलका भीमराव चांदणे, आप्पा बाबू खुडे, इंदुबाई छगन खुडे, उद्धव यशवंत सकट, कलावती बापूराव, कल्याण जयवता खुडे, कविता नवनाथ पवार, कांतीलाल छगन खुडे, गयाबाई दत्तु पवार, गोरख  साहेबराव  खुडे, त्रिंबक विश्वनाथ खुडे, दत्तू  साहेबराव  खुडे, दादासाहेब उद्धव सकट, दिव्या विजय खुडे, देवराव चंदर खुडे, धोंडीबा विठ्ठल खुडे, नंदाबाई दादाराम खुडे, नर्मदा शिवाजी खुडे, नाना दादा खुडे, निर्मला शिवाजी खुडे, निलावती बाबुलाल, पूनम उद्धव खुडे, प्रमिला दुर्योधन पवार, प्रमोद रमेश मोरे, बबन विश्वनाथ खुडे, बापू दादाराम खुडे, बाळासाहेब उद्धव सकट, भाऊसाहेब जयवंता खुडे, मच्छिंद्र साहेबराव खुडे, मंदाबाई माणिक घोडे, मधुकर दादा खुडे, मनीषा शशिकांत कांबळे, माणिक जयवंता खुडे, मारुती शंकर पवार, मालन हनुमंत टावरे, मीराबाई दादा खुडे, यमुना साहेबराव दिवटे, रमा दिलीप लांडगे, राजेंद्र शिवाजी खुडे, रावसाहेब जयवंता खुडे, राहुल रमेश मोरे, रेश्मा विजय पाथरे, लाला दादा खुडे, लोचना श्रीरंग भिसे, विनायक जयवंता खुडे, वैजंताबाई साहेबराव भिसे, शंकर यादव पवार, शकुंतला सुखदेव खुडे, शशिकला साहेबराव खुडे, शालन जवान भिसे, संजय शंकर पवार, संतोष छगन खुडे, सपना विजय खुडे, साखरबाई बबन खवळे, सिताराम बाबू खुडे, सोजाबाई शंकर भिसे, सोमनाथ विजय खुडे, कारभारी काशिबा खुडे"
        ],
        "khata_no": "762",
        "area_sqm": 861.0,
        "area_acres": 0.21,
        "area_guntha": 8.51,
        "land_type": "जिरायत शेती (Jirayat - Rainfed Agricultural)",
        "source": "MahaBhuNaksha Official Live Cadastre",
        "status": "verified",
        "confidence_score": 98.8,
        "old_survey_area_acres": 0.21,
        "old_survey_area_sqm": 861.0,
        "new_survey_area_acres": 0.21,
        "new_survey_area_sqm": 861.0
      },
      "geometry": {
        "type": "Polygon",
        "coordinates": [
          [
            [
              74.9762198,
              18.4894674
            ],
            [
              74.9764091,
              18.4893529
            ],
            [
              74.9762175,
              18.4893367
            ],
            [
              74.976043,
              18.4893765
            ],
            [
              74.9758455,
              18.4894204
            ],
            [
              74.9758955,
              18.4895099
            ],
            [
              74.9759431,
              18.4896363
            ],
            [
              74.9759901,
              18.4896064
            ],
            [
              74.9762198,
              18.4894674
            ]
          ]
        ]
      }
    }
  ]
}