{
  "type": "FeatureCollection",
  "name": "Benwadi_Gat_521_Cadastre",
  "crs": {
    "type": "name",
    "properties": {
      "name": "urn:ogc:def:crs:OGC:1.3:CRS84"
    }
  },
  "features": [
    {
      "type": "Feature",
      "properties": {
        "parcel_id": "MH-AHM-KAR-BEN-521",
        "survey_no": "521",
        "gat_no": "521",
        "village": "Benwadi (बेनवडी)",
        "taluka": "Karjat (कर्जत)",
        "district": "Ahmednagar (अहमदनगर)",
        "state": "Maharashtra",
        "gis_code": "RVM2613272600130334420000",
        "owner_name": "परशुराम तुकाराम गदादे, किरण बापू गदादे, बापू काशिनाथ गदादे",
        "all_owners": [
          "परशुराम तुकाराम गदादे, किरण बापू गदादे",
          "बापू काशिनाथ गदादे"
        ],
        "khata_no": "3347, 2744",
        "area_sqm": 4858.09,
        "area_acres": 1.2,
        "area_guntha": 48.02,
        "land_type": "जिरायत शेती (Jirayat - Rainfed Agricultural)",
        "source": "MahaBhuNaksha Official Live Cadastre",
        "status": "verified",
        "confidence_score": 98.8,
        "old_survey_area_acres": 1.2,
        "old_survey_area_sqm": 4858.09,
        "new_survey_area_acres": 1.2,
        "new_survey_area_sqm": 4858.09
      },
      "geometry": {
        "type": "Polygon",
        "coordinates": [
          [
            [
              74.9822777,
              18.4935753
            ],
            [
              74.982239,
              18.4933956
            ],
            [
              74.9822031,
              18.4932152
            ],
            [
              74.9819076,
              18.4932438
            ],
            [
              74.9815428,
              18.4932763
            ],
            [
              74.9812404,
              18.4933094
            ],
            [
              74.9811059,
              18.4933246
            ],
            [
              74.9811318,
              18.4934352
            ],
            [
              74.9811972,
              18.4937103
            ],
            [
              74.9814414,
              18.4936774
            ],
            [
              74.9819659,
              18.4936109
            ],
            [
              74.9822777,
              18.4935753
            ]
          ]
        ]
      }
    }
  ]
}