{
  "type": "FeatureCollection",
  "name": "Benwadi_Gat_542_Drone_Resurvey",
  "crs": {
    "type": "name",
    "properties": {
      "name": "urn:ogc:def:crs:OGC:1.3:CRS84"
    }
  },
  "features": [
    {
      "type": "Feature",
      "properties": {
        "parcel_id": "MH-AHM-KAR-BEN-542",
        "survey_no": "542",
        "gat_no": "542",
        "village": "Benwadi (बेनवडी)",
        "taluka": "Karjat (कर्जत)",
        "district": "Ahmednagar (अहमदनगर)",
        "state": "Maharashtra",
        "gis_code": "RVM2613272600130334420000",
        "owner_name": "अफ्रोज अकबर सय्यद, असिफ रसुल सय्यद, अश्माबी राजू शेख, मिनाबी रसुल सय्यद, जुबेर  वजीर  शेख",
        "all_owners": [
          "अफ्रोज अकबर सय्यद, असिफ रसुल सय्यद, अश्माबी राजू शेख, मिनाबी रसुल सय्यद",
          "जुबेर  वजीर  शेख",
          "नजीर अहमद सय्यद",
          "सय्यद कमरोददीन सय्यद",
          "नबिलाल रहिमान सय्यद"
        ],
        "khata_no": "2420, 2585, 3342, 337, 96",
        "area_sqm": 9259.83,
        "area_acres": 2.29,
        "area_guntha": 91.53,
        "land_type": "जिरायत शेती (Jirayat - Rainfed Agricultural)",
        "source": "MahaBhuNaksha Official Live Cadastre",
        "status": "needs_review",
        "confidence_score": 84.9,
        "old_survey_area_acres": 2.29,
        "old_survey_area_sqm": 9259.83,
        "new_survey_area_acres": 2.35,
        "new_survey_area_sqm": 9500.6,
        "area_diff_pct": 2.6,
        "mean_shift_m": 1.9,
        "iou_overlap_pct": 93.4,
        "review_reason": "Drone RTK photogrammetry detects a 2.6% area discrepancy (241 m²) with a mean bund shift of 1.9m along the farm boundary. Verification recommended.",
        "bhunaksha_geometry": {
          "type": "Polygon",
          "coordinates": [
            [
              [
                74.9646931,
                18.4844788
              ],
              [
                74.9643059,
                18.4841487
              ],
              [
                74.9634489,
                18.483426
              ],
              [
                74.9632593,
                18.4836104
              ],
              [
                74.9634777,
                18.4838559
              ],
              [
                74.9638852,
                18.4842937
              ],
              [
                74.9637213,
                18.4845167
              ],
              [
                74.9638981,
                18.4846506
              ],
              [
                74.9643812,
                18.485006
              ],
              [
                74.9646931,
                18.4844788
              ]
            ]
          ]
        }
      },
      "geometry": {
        "type": "Polygon",
        "coordinates": [
          [
            [
              74.9646854,
              18.4844806
            ],
            [
              74.9642932,
              18.4841463
            ],
            [
              74.9634252,
              18.4834142
            ],
            [
              74.9632331,
              18.483601
            ],
            [
              74.9634543,
              18.4838497
            ],
            [
              74.9638671,
              18.4842932
            ],
            [
              74.9637011,
              18.484519
            ],
            [
              74.9638802,
              18.4846547
            ],
            [
              74.9643695,
              18.4850147
            ],
            [
              74.9646854,
              18.4844806
            ]
          ]
        ]
      }
    }
  ]
}