{
  "type": "FeatureCollection",
  "name": "Benwadi_Gat_483_Cadastre",
  "crs": {
    "type": "name",
    "properties": {
      "name": "urn:ogc:def:crs:OGC:1.3:CRS84"
    }
  },
  "features": [
    {
      "type": "Feature",
      "properties": {
        "parcel_id": "MH-AHM-KAR-BEN-483",
        "survey_no": "483",
        "gat_no": "483",
        "village": "Benwadi (बेनवडी)",
        "taluka": "Karjat (कर्जत)",
        "district": "Ahmednagar (अहमदनगर)",
        "state": "Maharashtra",
        "gis_code": "RVM2613272600130334420000",
        "owner_name": "विठ्ठल मारूती गायकवाड, साळूबाई तुळशीराम गदादे, लक्ष्मण तुळशीराम गदादे, मारुती तुळशीराम गदादे",
        "all_owners": [
          "विठ्ठल मारूती गायकवाड",
          "साळूबाई तुळशीराम गदादे, लक्ष्मण तुळशीराम गदादे, मारुती तुळशीराम गदादे",
          "चित्रा रमेश गायकवाड",
          "छाया विठठल गायकवाड",
          "रघुनाथ दिगांबर अनारसे",
          "सुखदेव अर्जुन गदादे",
          "राजाराम कोंडीबा गदादे",
          "अशोक कोंडीबा गदादे",
          "रमेश मारूती गायकवाड",
          "विठठल मारूती गायकवाड"
        ],
        "khata_no": "2539, 81, 810, 811, 1029, 1030, 2709, 2710, 867, 868",
        "area_sqm": 15581.45,
        "area_acres": 3.85,
        "area_guntha": 154.01,
        "land_type": "जिरायत शेती (Jirayat - Rainfed Agricultural)",
        "source": "MahaBhuNaksha Official Live Cadastre",
        "status": "verified",
        "confidence_score": 98.8,
        "old_survey_area_acres": 3.85,
        "old_survey_area_sqm": 15581.45,
        "new_survey_area_acres": 3.85,
        "new_survey_area_sqm": 15581.45
      },
      "geometry": {
        "type": "Polygon",
        "coordinates": [
          [
            [
              74.9878484,
              18.493645
            ],
            [
              74.9864929,
              18.4943689
            ],
            [
              74.9864966,
              18.4944672
            ],
            [
              74.9865005,
              18.4945687
            ],
            [
              74.9865742,
              18.494609
            ],
            [
              74.9869392,
              18.4951047
            ],
            [
              74.9874375,
              18.4957692
            ],
            [
              74.9875341,
              18.4952297
            ],
            [
              74.9875437,
              18.4951781
            ],
            [
              74.9878103,
              18.4937444
            ],
            [
              74.9878484,
              18.493645
            ]
          ]
        ]
      }
    }
  ]
}