{
  "type": "FeatureCollection",
  "name": "Benwadi_Gat_523_Cadastre",
  "crs": {
    "type": "name",
    "properties": {
      "name": "urn:ogc:def:crs:OGC:1.3:CRS84"
    }
  },
  "features": [
    {
      "type": "Feature",
      "properties": {
        "parcel_id": "MH-AHM-KAR-BEN-523",
        "survey_no": "523",
        "gat_no": "523",
        "village": "Benwadi (बेनवडी)",
        "taluka": "Karjat (कर्जत)",
        "district": "Ahmednagar (अहमदनगर)",
        "state": "Maharashtra",
        "gis_code": "RVM2613272600130334420000",
        "owner_name": "सूनीता बबनराव गदादे",
        "all_owners": [
          "सूनीता बबनराव गदादे"
        ],
        "khata_no": "731",
        "area_sqm": 3233.52,
        "area_acres": 0.8,
        "area_guntha": 31.96,
        "land_type": "जिरायत शेती (Jirayat - Rainfed Agricultural)",
        "source": "MahaBhuNaksha Official Live Cadastre",
        "status": "verified",
        "confidence_score": 98.8,
        "old_survey_area_acres": 0.8,
        "old_survey_area_sqm": 3233.52,
        "new_survey_area_acres": 0.8,
        "new_survey_area_sqm": 3233.52
      },
      "geometry": {
        "type": "Polygon",
        "coordinates": [
          [
            [
              74.9831817,
              18.4931949
            ],
            [
              74.9831538,
              18.4930029
            ],
            [
              74.9826518,
              18.4929493
            ],
            [
              74.9824129,
              18.4929224
            ],
            [
              74.9821424,
              18.4928952
            ],
            [
              74.9821521,
              18.49294
            ],
            [
              74.9822004,
              18.4932013
            ],
            [
              74.982511,
              18.493218
            ],
            [
              74.9829315,
              18.4932424
            ],
            [
              74.983191,
              18.4932601
            ],
            [
              74.9831817,
              18.4931949
            ]
          ]
        ]
      }
    }
  ]
}