{
  "type": "FeatureCollection",
  "name": "Benwadi_Gat_275_Drone_Resurvey",
  "crs": {
    "type": "name",
    "properties": {
      "name": "urn:ogc:def:crs:OGC:1.3:CRS84"
    }
  },
  "features": [
    {
      "type": "Feature",
      "properties": {
        "parcel_id": "MH-AHM-KAR-BEN-275",
        "survey_no": "275",
        "gat_no": "275",
        "village": "Benwadi (बेनवडी)",
        "taluka": "Karjat (कर्जत)",
        "district": "Ahmednagar (अहमदनगर)",
        "state": "Maharashtra",
        "gis_code": "RVM2613272600130334420000",
        "owner_name": "श्रीमंत देवराव गदादे, शंकर देवराव गदादे",
        "all_owners": [
          "श्रीमंत देवराव गदादे",
          "शंकर देवराव गदादे"
        ],
        "khata_no": "709, 710",
        "area_sqm": 26891.9,
        "area_acres": 6.65,
        "area_guntha": 265.81,
        "land_type": "जिरायत शेती (Jirayat - Rainfed Agricultural)",
        "source": "MahaBhuNaksha Official Live Cadastre",
        "status": "needs_review",
        "confidence_score": 85.2,
        "old_survey_area_acres": 6.65,
        "old_survey_area_sqm": 26891.9,
        "new_survey_area_acres": 6.8,
        "new_survey_area_sqm": 27510.4,
        "area_diff_pct": 2.3,
        "mean_shift_m": 1.4,
        "iou_overlap_pct": 93.7,
        "review_reason": "Drone RTK photogrammetry detects a 2.3% area discrepancy (618 m²) with a mean bund shift of 1.4m along the farm boundary. Verification recommended.",
        "bhunaksha_geometry": {
          "type": "Polygon",
          "coordinates": [
            [
              [
                74.9646677,
                18.496817
              ],
              [
                74.9644405,
                18.4956598
              ],
              [
                74.9624555,
                18.4963874
              ],
              [
                74.9627876,
                18.4974204
              ],
              [
                74.9646677,
                18.496817
              ]
            ]
          ]
        }
      },
      "geometry": {
        "type": "Polygon",
        "coordinates": [
          [
            [
              74.9646768,
              18.496832
            ],
            [
              74.964447,
              18.4956616
            ],
            [
              74.9624393,
              18.4963975
            ],
            [
              74.9627752,
              18.4974423
            ],
            [
              74.9646768,
              18.496832
            ]
          ]
        ]
      }
    }
  ]
}