{
  "type": "FeatureCollection",
  "name": "Benwadi_Gat_352_Cadastre",
  "crs": {
    "type": "name",
    "properties": {
      "name": "urn:ogc:def:crs:OGC:1.3:CRS84"
    }
  },
  "features": [
    {
      "type": "Feature",
      "properties": {
        "parcel_id": "MH-AHM-KAR-BEN-352",
        "survey_no": "352",
        "gat_no": "352",
        "village": "Benwadi (बेनवडी)",
        "taluka": "Karjat (कर्जत)",
        "district": "Ahmednagar (अहमदनगर)",
        "state": "Maharashtra",
        "gis_code": "RVM2613272600130334420000",
        "owner_name": "संतोष लाला भिताडे",
        "all_owners": [
          "संतोष लाला भिताडे"
        ],
        "khata_no": "622",
        "area_sqm": 2269.53,
        "area_acres": 0.56,
        "area_guntha": 22.43,
        "land_type": "जिरायत शेती (Jirayat - Rainfed Agricultural)",
        "source": "MahaBhuNaksha Official Live Cadastre",
        "status": "verified",
        "confidence_score": 98.8,
        "old_survey_area_acres": 0.56,
        "old_survey_area_sqm": 2269.53,
        "new_survey_area_acres": 0.56,
        "new_survey_area_sqm": 2269.53
      },
      "geometry": {
        "type": "Polygon",
        "coordinates": [
          [
            [
              74.9739895,
              18.499625
            ],
            [
              74.9740795,
              18.499613
            ],
            [
              74.9739562,
              18.4989025
            ],
            [
              74.9738698,
              18.4990624
            ],
            [
              74.9736367,
              18.4994089
            ],
            [
              74.9736901,
              18.4996763
            ],
            [
              74.9739895,
              18.499625
            ]
          ]
        ]
      }
    }
  ]
}