{
  "type": "FeatureCollection",
  "name": "Benwadi_Gat_486_Cadastre",
  "crs": {
    "type": "name",
    "properties": {
      "name": "urn:ogc:def:crs:OGC:1.3:CRS84"
    }
  },
  "features": [
    {
      "type": "Feature",
      "properties": {
        "parcel_id": "MH-AHM-KAR-BEN-486",
        "survey_no": "486",
        "gat_no": "486",
        "village": "Benwadi (बेनवडी)",
        "taluka": "Karjat (कर्जत)",
        "district": "Ahmednagar (अहमदनगर)",
        "state": "Maharashtra",
        "gis_code": "RVM2613272600130334420000",
        "owner_name": "बबन जगन्नाथ गदादे, लहू जगन्नाथ गदादे",
        "all_owners": [
          "बबन जगन्नाथ गदादे",
          "लहू जगन्नाथ गदादे"
        ],
        "khata_no": "466, 465",
        "area_sqm": 10594.58,
        "area_acres": 2.62,
        "area_guntha": 104.72,
        "land_type": "जिरायत शेती (Jirayat - Rainfed Agricultural)",
        "source": "MahaBhuNaksha Official Live Cadastre",
        "status": "verified",
        "confidence_score": 98.8,
        "old_survey_area_acres": 2.62,
        "old_survey_area_sqm": 10594.58,
        "new_survey_area_acres": 2.62,
        "new_survey_area_sqm": 10594.58
      },
      "geometry": {
        "type": "Polygon",
        "coordinates": [
          [
            [
              74.9848268,
              18.4963885
            ],
            [
              74.9847467,
              18.495709
            ],
            [
              74.9835589,
              18.4958091
            ],
            [
              74.9835658,
              18.4958557
            ],
            [
              74.9836828,
              18.4966536
            ],
            [
              74.9848268,
              18.4963885
            ]
          ]
        ]
      }
    }
  ]
}