{
  "type": "FeatureCollection",
  "name": "Benwadi_Gat_436_Cadastre",
  "crs": {
    "type": "name",
    "properties": {
      "name": "urn:ogc:def:crs:OGC:1.3:CRS84"
    }
  },
  "features": [
    {
      "type": "Feature",
      "properties": {
        "parcel_id": "MH-AHM-KAR-BEN-436",
        "survey_no": "436",
        "gat_no": "436",
        "village": "Benwadi (बेनवडी)",
        "taluka": "Karjat (कर्जत)",
        "district": "Ahmednagar (अहमदनगर)",
        "state": "Maharashtra",
        "gis_code": "RVM2613272600130334420000",
        "owner_name": "ओंकार नारायण कोहळे, विशाल वसंत कोहळे",
        "all_owners": [
          "ओंकार नारायण कोहळे",
          "विशाल वसंत कोहळे"
        ],
        "khata_no": "3012, 3010",
        "area_sqm": 30915.95,
        "area_acres": 7.64,
        "area_guntha": 305.58,
        "land_type": "जिरायत शेती (Jirayat - Rainfed Agricultural)",
        "source": "MahaBhuNaksha Official Live Cadastre",
        "status": "verified",
        "confidence_score": 98.8,
        "old_survey_area_acres": 7.64,
        "old_survey_area_sqm": 30915.95,
        "new_survey_area_acres": 7.64,
        "new_survey_area_sqm": 30915.95
      },
      "geometry": {
        "type": "Polygon",
        "coordinates": [
          [
            [
              74.9957789,
              18.4929756
            ],
            [
              74.9952373,
              18.4912753
            ],
            [
              74.9951616,
              18.491072
            ],
            [
              74.9949324,
              18.4911723
            ],
            [
              74.9941484,
              18.4914797
            ],
            [
              74.9947632,
              18.4935168
            ],
            [
              74.9942951,
              18.4939243
            ],
            [
              74.9940045,
              18.4929791
            ],
            [
              74.9938583,
              18.4930558
            ],
            [
              74.9941458,
              18.4940437
            ],
            [
              74.9941365,
              18.4941003
            ],
            [
              74.9942276,
              18.4940867
            ],
            [
              74.9957789,
              18.4929756
            ]
          ]
        ]
      }
    }
  ]
}