{
  "type": "FeatureCollection",
  "name": "Benwadi_Gat_336_Cadastre",
  "crs": {
    "type": "name",
    "properties": {
      "name": "urn:ogc:def:crs:OGC:1.3:CRS84"
    }
  },
  "features": [
    {
      "type": "Feature",
      "properties": {
        "parcel_id": "MH-AHM-KAR-BEN-336",
        "survey_no": "336",
        "gat_no": "336",
        "village": "Benwadi (बेनवडी)",
        "taluka": "Karjat (कर्जत)",
        "district": "Ahmednagar (अहमदनगर)",
        "state": "Maharashtra",
        "gis_code": "RVM2613272600130334420000",
        "owner_name": "सोनाली राजेंद्र भिताडे, लहू रामभाऊ भिताडे",
        "all_owners": [
          "सोनाली राजेंद्र भिताडे",
          "लहू रामभाऊ भिताडे",
          "लक्ष्मण अंकुश भिताडे"
        ],
        "khata_no": "3332, 273, 2324",
        "area_sqm": 9990.37,
        "area_acres": 2.47,
        "area_guntha": 98.75,
        "land_type": "जिरायत शेती (Jirayat - Rainfed Agricultural)",
        "source": "MahaBhuNaksha Official Live Cadastre",
        "status": "verified",
        "confidence_score": 98.8,
        "old_survey_area_acres": 2.47,
        "old_survey_area_sqm": 9990.37,
        "new_survey_area_acres": 2.47,
        "new_survey_area_sqm": 9990.37
      },
      "geometry": {
        "type": "Polygon",
        "coordinates": [
          [
            [
              74.9736362,
              18.4999349
            ],
            [
              74.9733805,
              18.4991025
            ],
            [
              74.9729269,
              18.4992097
            ],
            [
              74.9723452,
              18.4993471
            ],
            [
              74.9724243,
              18.4994897
            ],
            [
              74.9729155,
              18.5002056
            ],
            [
              74.9736362,
              18.4999349
            ]
          ]
        ]
      }
    }
  ]
}