{
  "type": "FeatureCollection",
  "name": "Benwadi_Gat_178_Drone_Resurvey",
  "crs": {
    "type": "name",
    "properties": {
      "name": "urn:ogc:def:crs:OGC:1.3:CRS84"
    }
  },
  "features": [
    {
      "type": "Feature",
      "properties": {
        "parcel_id": "MH-AHM-KAR-BEN-178",
        "survey_no": "178",
        "gat_no": "178",
        "village": "Benwadi (बेनवडी)",
        "taluka": "Karjat (कर्जत)",
        "district": "Ahmednagar (अहमदनगर)",
        "state": "Maharashtra",
        "gis_code": "RVM2613272600130334420000",
        "owner_name": "आजिनाथ विठोबा गदादे",
        "all_owners": [
          "आजिनाथ विठोबा गदादे"
        ],
        "khata_no": "19",
        "area_sqm": 9583.39,
        "area_acres": 2.37,
        "area_guntha": 94.73,
        "land_type": "जिरायत शेती (Jirayat - Rainfed Agricultural)",
        "source": "MahaBhuNaksha Official Live Cadastre",
        "status": "needs_review",
        "confidence_score": 84.4,
        "old_survey_area_acres": 2.37,
        "old_survey_area_sqm": 9583.39,
        "new_survey_area_acres": 2.44,
        "new_survey_area_sqm": 9870.9,
        "area_diff_pct": 3.0,
        "mean_shift_m": 1.5,
        "iou_overlap_pct": 93.0,
        "review_reason": "Drone RTK photogrammetry detects a 3.0% area discrepancy (288 m²) with a mean bund shift of 1.5m along the farm boundary. Verification recommended.",
        "bhunaksha_geometry": {
          "type": "Polygon",
          "coordinates": [
            [
              [
                74.9649239,
                18.4807176
              ],
              [
                74.9647585,
                18.4803099
              ],
              [
                74.9646834,
                18.4799776
              ],
              [
                74.9635638,
                18.4804546
              ],
              [
                74.9634847,
                18.4804745
              ],
              [
                74.963536,
                18.4807435
              ],
              [
                74.9636352,
                18.4809574
              ],
              [
                74.9649239,
                18.4807176
              ]
            ]
          ]
        }
      },
      "geometry": {
        "type": "Polygon",
        "coordinates": [
          [
            [
              74.964945,
              18.4807313
            ],
            [
              74.9647771,
              18.4803176
            ],
            [
              74.9647009,
              18.4799803
            ],
            [
              74.9635646,
              18.4804644
            ],
            [
              74.9634843,
              18.4804846
            ],
            [
              74.9635364,
              18.4807576
            ],
            [
              74.9636371,
              18.4809747
            ],
            [
              74.964945,
              18.4807313
            ]
          ]
        ]
      }
    }
  ]
}