{
  "type": "FeatureCollection",
  "name": "Benwadi_Gat_525_Cadastre",
  "crs": {
    "type": "name",
    "properties": {
      "name": "urn:ogc:def:crs:OGC:1.3:CRS84"
    }
  },
  "features": [
    {
      "type": "Feature",
      "properties": {
        "parcel_id": "MH-AHM-KAR-BEN-525",
        "survey_no": "525",
        "gat_no": "525",
        "village": "Benwadi (बेनवडी)",
        "taluka": "Karjat (कर्जत)",
        "district": "Ahmednagar (अहमदनगर)",
        "state": "Maharashtra",
        "gis_code": "RVM2613272600130334420000",
        "owner_name": "अंकुश भगवान गदादे, अभई भगवान गदादे, आण्णा अर्जुन गदादे, आबा तुकाराम गदादे, काका भगवान गदादे, कोंडीबा नारायण गदादे, दत्तु तुकाराम गदादे, दशरथ नारायण गदादे, बबन तुकाराम गदादे, बबन नारायण गदादे, बाबू सदा गदादे, भानुदास अर्जुन गदादे, भामाबाई बाबा सायकर, मारुती नारायण गदादे, समाबाई बाबू जाधव, सुनिता बबन गदादे, हरीबा दगडू गदादे, काशिनाथ रामभाऊ गदादे",
        "all_owners": [
          "अंकुश भगवान गदादे, अभई भगवान गदादे, आण्णा अर्जुन गदादे, आबा तुकाराम गदादे, काका भगवान गदादे, कोंडीबा नारायण गदादे, दत्तु तुकाराम गदादे, दशरथ नारायण गदादे, बबन तुकाराम गदादे, बबन नारायण गदादे, बाबू सदा गदादे, भानुदास अर्जुन गदादे, भामाबाई बाबा सायकर, मारुती नारायण गदादे, समाबाई बाबू जाधव, सुनिता बबन गदादे, हरीबा दगडू गदादे, काशिनाथ रामभाऊ गदादे"
        ],
        "khata_no": "765",
        "area_sqm": 522.21,
        "area_acres": 0.13,
        "area_guntha": 5.16,
        "land_type": "जिरायत शेती (Jirayat - Rainfed Agricultural)",
        "source": "MahaBhuNaksha Official Live Cadastre",
        "status": "verified",
        "confidence_score": 98.8,
        "old_survey_area_acres": 0.13,
        "old_survey_area_sqm": 522.21,
        "new_survey_area_acres": 0.13,
        "new_survey_area_sqm": 522.21
      },
      "geometry": {
        "type": "Polygon",
        "coordinates": [
          [
            [
              74.9830963,
              18.4926002
            ],
            [
              74.9830362,
              18.4921918
            ],
            [
              74.9829227,
              18.4921994
            ],
            [
              74.9829927,
              18.4926065
            ],
            [
              74.9830963,
              18.4926002
            ]
          ]
        ]
      }
    }
  ]
}