{
  "type": "FeatureCollection",
  "name": "Benwadi_Gat_31_Drone_Resurvey",
  "crs": {
    "type": "name",
    "properties": {
      "name": "urn:ogc:def:crs:OGC:1.3:CRS84"
    }
  },
  "features": [
    {
      "type": "Feature",
      "properties": {
        "parcel_id": "MH-AHM-KAR-BEN-31",
        "survey_no": "31",
        "gat_no": "31",
        "village": "Benwadi (बेनवडी)",
        "taluka": "Karjat (कर्जत)",
        "district": "Ahmednagar (अहमदनगर)",
        "state": "Maharashtra",
        "gis_code": "RVM2613272600130334420000",
        "owner_name": "गणेश रामदास गदादे, पांडुरंग प्रकाश राऊत",
        "all_owners": [
          "गणेश रामदास गदादे",
          "पांडुरंग प्रकाश राऊत",
          "विवेक विठठल राऊत",
          "गणेश रामदास गदादे"
        ],
        "khata_no": "822, 3442, 823, 822",
        "area_sqm": 47788.27,
        "area_acres": 11.81,
        "area_guntha": 472.36,
        "land_type": "जिरायत शेती (Jirayat - Rainfed Agricultural)",
        "source": "MahaBhuNaksha Official Live Cadastre",
        "status": "needs_review",
        "confidence_score": 84.8,
        "old_survey_area_acres": 11.81,
        "old_survey_area_sqm": 47788.27,
        "new_survey_area_acres": 12.13,
        "new_survey_area_sqm": 49078.6,
        "area_diff_pct": 2.7,
        "mean_shift_m": 1.4,
        "iou_overlap_pct": 93.3,
        "review_reason": "Drone RTK photogrammetry detects a 2.7% area discrepancy (1290 m²) with a mean bund shift of 1.4m along the farm boundary. Verification recommended.",
        "bhunaksha_geometry": {
          "type": "Polygon",
          "coordinates": [
            [
              [
                74.9924901,
                18.4855717
              ],
              [
                74.9933032,
                18.4850939
              ],
              [
                74.9938308,
                18.4847858
              ],
              [
                74.9945978,
                18.4843369
              ],
              [
                74.9948936,
                18.4841461
              ],
              [
                74.9944087,
                18.4830618
              ],
              [
                74.994161,
                18.4825014
              ],
              [
                74.9930992,
                18.4837066
              ],
              [
                74.992613,
                18.4842312
              ],
              [
                74.992439,
                18.484725
              ],
              [
                74.9923434,
                18.4850115
              ],
              [
                74.9915278,
                18.4857942
              ],
              [
                74.991301,
                18.4860131
              ],
              [
                74.991352,
                18.4862635
              ],
              [
                74.9924901,
                18.4855717
              ]
            ]
          ]
        }
      },
      "geometry": {
        "type": "Polygon",
        "coordinates": [
          [
            [
              74.9924918,
              18.4855746
            ],
            [
              74.9933158,
              18.4850904
            ],
            [
              74.9938505,
              18.4847781
            ],
            [
              74.9946278,
              18.4843232
            ],
            [
              74.9949275,
              18.4841298
            ],
            [
              74.9944361,
              18.483031
            ],
            [
              74.9941851,
              18.4824631
            ],
            [
              74.9931091,
              18.4836845
            ],
            [
              74.9926164,
              18.4842161
            ],
            [
              74.99244,
              18.4847165
            ],
            [
              74.9923431,
              18.4850068
            ],
            [
              74.9915166,
              18.4858
            ],
            [
              74.9912868,
              18.4860219
            ],
            [
              74.9913384,
              18.4862756
            ],
            [
              74.9924918,
              18.4855746
            ]
          ]
        ]
      }
    }
  ]
}