{
  "type": "FeatureCollection",
  "name": "Benwadi_Gat_196_Drone_Resurvey",
  "crs": {
    "type": "name",
    "properties": {
      "name": "urn:ogc:def:crs:OGC:1.3:CRS84"
    }
  },
  "features": [
    {
      "type": "Feature",
      "properties": {
        "parcel_id": "MH-AHM-KAR-BEN-196",
        "survey_no": "196",
        "gat_no": "196",
        "village": "Benwadi (बेनवडी)",
        "taluka": "Karjat (कर्जत)",
        "district": "Ahmednagar (अहमदनगर)",
        "state": "Maharashtra",
        "gis_code": "RVM2613272600130334420000",
        "owner_name": "योगेश झुंबर गदादे, सुनील परशुराम गदादे",
        "all_owners": [
          "योगेश झुंबर गदादे, सुनील परशुराम गदादे"
        ],
        "khata_no": "3423",
        "area_sqm": 1690.61,
        "area_acres": 0.42,
        "area_guntha": 16.71,
        "land_type": "जिरायत शेती (Jirayat - Rainfed Agricultural)",
        "source": "MahaBhuNaksha Official Live Cadastre",
        "status": "needs_review",
        "confidence_score": 85.4,
        "old_survey_area_acres": 0.42,
        "old_survey_area_sqm": 1690.61,
        "new_survey_area_acres": 0.43,
        "new_survey_area_sqm": 1727.8,
        "area_diff_pct": 2.2,
        "mean_shift_m": 2.1,
        "iou_overlap_pct": 93.8,
        "review_reason": "Drone RTK photogrammetry detects a 2.2% area discrepancy (37 m²) with a mean bund shift of 2.1m along the farm boundary. Verification recommended.",
        "bhunaksha_geometry": {
          "type": "Polygon",
          "coordinates": [
            [
              [
                74.9606946,
                18.4834056
              ],
              [
                74.9609649,
                18.4832621
              ],
              [
                74.9607686,
                18.4829525
              ],
              [
                74.9604154,
                18.4831194
              ],
              [
                74.960626,
                18.4834426
              ],
              [
                74.9606946,
                18.4834056
              ]
            ]
          ]
        }
      },
      "geometry": {
        "type": "Polygon",
        "coordinates": [
          [
            [
              74.9607024,
              18.4834248
            ],
            [
              74.9609756,
              18.4832798
            ],
            [
              74.9607772,
              18.4829668
            ],
            [
              74.9604201,
              18.4831355
            ],
            [
              74.960633,
              18.4834622
            ],
            [
              74.9607024,
              18.4834248
            ]
          ]
        ]
      }
    }
  ]
}