{
  "type": "FeatureCollection",
  "name": "Benwadi_Gat_4_Cadastre",
  "crs": {
    "type": "name",
    "properties": {
      "name": "urn:ogc:def:crs:OGC:1.3:CRS84"
    }
  },
  "features": [
    {
      "type": "Feature",
      "properties": {
        "parcel_id": "MH-AHM-KAR-BEN-4",
        "survey_no": "4",
        "gat_no": "4",
        "village": "Benwadi (बेनवडी)",
        "taluka": "Karjat (कर्जत)",
        "district": "Ahmednagar (अहमदनगर)",
        "state": "Maharashtra",
        "gis_code": "RVM2613272600130334420000",
        "owner_name": "ज्ञानदेव मोहन धुमाळ",
        "all_owners": [
          "ज्ञानदेव मोहन धुमाळ"
        ],
        "khata_no": "3301",
        "area_sqm": 1970.92,
        "area_acres": 0.49,
        "area_guntha": 19.48,
        "land_type": "जिरायत शेती (Jirayat - Rainfed Agricultural)",
        "source": "MahaBhuNaksha Official Live Cadastre",
        "status": "verified",
        "confidence_score": 98.8,
        "old_survey_area_acres": 0.49,
        "old_survey_area_sqm": 1970.92,
        "new_survey_area_acres": 0.49,
        "new_survey_area_sqm": 1970.92
      },
      "geometry": {
        "type": "Polygon",
        "coordinates": [
          [
            [
              74.9813522,
              18.4918805
            ],
            [
              74.9813209,
              18.4918397
            ],
            [
              74.9811007,
              18.4915956
            ],
            [
              74.9807174,
              18.4915936
            ],
            [
              74.9807443,
              18.4919107
            ],
            [
              74.9812888,
              18.4919394
            ],
            [
              74.9813522,
              18.4918805
            ]
          ]
        ]
      }
    }
  ]
}