{
  "type": "FeatureCollection",
  "name": "Benwadi_Gat_320_Cadastre",
  "crs": {
    "type": "name",
    "properties": {
      "name": "urn:ogc:def:crs:OGC:1.3:CRS84"
    }
  },
  "features": [
    {
      "type": "Feature",
      "properties": {
        "parcel_id": "MH-AHM-KAR-BEN-320",
        "survey_no": "320",
        "gat_no": "320",
        "village": "Benwadi (बेनवडी)",
        "taluka": "Karjat (कर्जत)",
        "district": "Ahmednagar (अहमदनगर)",
        "state": "Maharashtra",
        "gis_code": "RVM2613272600130334420000",
        "owner_name": "प्रशांत बापूसाहेब गायकवाड, विजय बापूसाहेब गायकवाड, सुमन बापूसाहेब गायकवाड, श्रीकांत बापूसाहेब गायकवाड",
        "all_owners": [
          "प्रशांत बापूसाहेब गायकवाड, विजय बापूसाहेब गायकवाड, सुमन बापूसाहेब गायकवाड, श्रीकांत बापूसाहेब गायकवाड"
        ],
        "khata_no": "168",
        "area_sqm": 11469.5,
        "area_acres": 2.83,
        "area_guntha": 113.37,
        "land_type": "जिरायत शेती (Jirayat - Rainfed Agricultural)",
        "source": "MahaBhuNaksha Official Live Cadastre",
        "status": "verified",
        "confidence_score": 98.8,
        "old_survey_area_acres": 2.83,
        "old_survey_area_sqm": 11469.5,
        "new_survey_area_acres": 2.83,
        "new_survey_area_sqm": 11469.5
      },
      "geometry": {
        "type": "Polygon",
        "coordinates": [
          [
            [
              74.9667134,
              18.5064657
            ],
            [
              74.966298,
              18.505058
            ],
            [
              74.966099,
              18.5043797
            ],
            [
              74.9659949,
              18.5040399
            ],
            [
              74.9655672,
              18.5040746
            ],
            [
              74.9656499,
              18.5042823
            ],
            [
              74.9657898,
              18.5047219
            ],
            [
              74.9663715,
              18.50657
            ],
            [
              74.9667134,
              18.5064657
            ]
          ]
        ]
      }
    }
  ]
}