{
  "type": "FeatureCollection",
  "name": "Benwadi_Gat_248_Drone_Resurvey",
  "crs": {
    "type": "name",
    "properties": {
      "name": "urn:ogc:def:crs:OGC:1.3:CRS84"
    }
  },
  "features": [
    {
      "type": "Feature",
      "properties": {
        "parcel_id": "MH-AHM-KAR-BEN-248",
        "survey_no": "248",
        "gat_no": "248",
        "village": "Benwadi (बेनवडी)",
        "taluka": "Karjat (कर्जत)",
        "district": "Ahmednagar (अहमदनगर)",
        "state": "Maharashtra",
        "gis_code": "RVM2613272600130334420000",
        "owner_name": "दादा मारुती भिताडे, चंद्रकांत मारुती भिताडे",
        "all_owners": [
          "दादा मारुती भिताडे",
          "चंद्रकांत मारुती भिताडे",
          "शालन विलास पठाडे",
          "कौशल्या मारुती भिताडे"
        ],
        "khata_no": "2618, 2619, 2620, 2989",
        "area_sqm": 73081.32,
        "area_acres": 18.06,
        "area_guntha": 722.36,
        "land_type": "जिरायत शेती (Jirayat - Rainfed Agricultural)",
        "source": "MahaBhuNaksha Official Live Cadastre",
        "status": "needs_review",
        "confidence_score": 84.4,
        "old_survey_area_acres": 18.06,
        "old_survey_area_sqm": 73081.32,
        "new_survey_area_acres": 18.6,
        "new_survey_area_sqm": 75273.8,
        "area_diff_pct": 3.0,
        "mean_shift_m": 1.7,
        "iou_overlap_pct": 93.0,
        "review_reason": "Drone RTK photogrammetry detects a 3.0% area discrepancy (2192 m²) with a mean bund shift of 1.7m along the farm boundary. Verification recommended.",
        "bhunaksha_geometry": {
          "type": "Polygon",
          "coordinates": [
            [
              [
                74.9662812,
                18.4907476
              ],
              [
                74.9663211,
                18.4907165
              ],
              [
                74.9660057,
                18.4903029
              ],
              [
                74.9651865,
                18.4892212
              ],
              [
                74.9644914,
                18.4883126
              ],
              [
                74.9629844,
                18.4890001
              ],
              [
                74.9631443,
                18.489747
              ],
              [
                74.9634385,
                18.491139
              ],
              [
                74.9635278,
                18.4915505
              ],
              [
                74.9648207,
                18.4911716
              ],
              [
                74.9662812,
                18.4907476
              ]
            ]
          ]
        }
      },
      "geometry": {
        "type": "Polygon",
        "coordinates": [
          [
            [
              74.9663214,
              18.4907514
            ],
            [
              74.9663618,
              18.4907199
            ],
            [
              74.9660418,
              18.4903001
            ],
            [
              74.9652104,
              18.4892023
            ],
            [
              74.9645049,
              18.4882802
            ],
            [
              74.9629755,
              18.4889779
            ],
            [
              74.9631377,
              18.4897359
            ],
            [
              74.9634363,
              18.4911486
            ],
            [
              74.963527,
              18.4915663
            ],
            [
              74.9648391,
              18.4911817
            ],
            [
              74.9663214,
              18.4907514
            ]
          ]
        ]
      }
    }
  ]
}