{
  "type": "FeatureCollection",
  "name": "Benwadi_Gat_254_Cadastre",
  "crs": {
    "type": "name",
    "properties": {
      "name": "urn:ogc:def:crs:OGC:1.3:CRS84"
    }
  },
  "features": [
    {
      "type": "Feature",
      "properties": {
        "parcel_id": "MH-AHM-KAR-BEN-254",
        "survey_no": "254",
        "gat_no": "254",
        "village": "Benwadi (बेनवडी)",
        "taluka": "Karjat (कर्जत)",
        "district": "Ahmednagar (अहमदनगर)",
        "state": "Maharashtra",
        "gis_code": "RVM2613272600130334420000",
        "owner_name": "विजय सिताराम घंटे",
        "all_owners": [
          "विजय सिताराम घंटे"
        ],
        "khata_no": "2916",
        "area_sqm": 20498.96,
        "area_acres": 5.07,
        "area_guntha": 202.62,
        "land_type": "जिरायत शेती (Jirayat - Rainfed Agricultural)",
        "source": "MahaBhuNaksha Official Live Cadastre",
        "status": "verified",
        "confidence_score": 98.8,
        "old_survey_area_acres": 5.07,
        "old_survey_area_sqm": 20498.96,
        "new_survey_area_acres": 5.07,
        "new_survey_area_sqm": 20498.96
      },
      "geometry": {
        "type": "Polygon",
        "coordinates": [
          [
            [
              74.9689307,
              18.5002407
            ],
            [
              74.9692877,
              18.5001341
            ],
            [
              74.9705695,
              18.4997219
            ],
            [
              74.9701761,
              18.4989858
            ],
            [
              74.9682642,
              18.4995289
            ],
            [
              74.9685282,
              18.5003608
            ],
            [
              74.9689307,
              18.5002407
            ]
          ]
        ]
      }
    }
  ]
}