{
  "type": "FeatureCollection",
  "name": "Benwadi_Gat_402_Cadastre",
  "crs": {
    "type": "name",
    "properties": {
      "name": "urn:ogc:def:crs:OGC:1.3:CRS84"
    }
  },
  "features": [
    {
      "type": "Feature",
      "properties": {
        "parcel_id": "MH-AHM-KAR-BEN-402",
        "survey_no": "402",
        "gat_no": "402",
        "village": "Benwadi (बेनवडी)",
        "taluka": "Karjat (कर्जत)",
        "district": "Ahmednagar (अहमदनगर)",
        "state": "Maharashtra",
        "gis_code": "RVM2613272600130334420000",
        "owner_name": "मोफत गुरे चारणीकडे - - -",
        "all_owners": [
          "मोफत गुरे चारणीकडे - - -"
        ],
        "khata_no": "1027",
        "area_sqm": 56102.3,
        "area_acres": 13.86,
        "area_guntha": 554.53,
        "land_type": "जिरायत शेती (Jirayat - Rainfed Agricultural)",
        "source": "MahaBhuNaksha Official Live Cadastre",
        "status": "verified",
        "confidence_score": 98.8,
        "old_survey_area_acres": 13.86,
        "old_survey_area_sqm": 56102.3,
        "new_survey_area_acres": 13.86,
        "new_survey_area_sqm": 56102.3
      },
      "geometry": {
        "type": "Polygon",
        "coordinates": [
          [
            [
              75.0007434,
              18.5063924
            ],
            [
              75.0010763,
              18.5058534
            ],
            [
              75.0015988,
              18.5050534
            ],
            [
              75.0016067,
              18.5050413
            ],
            [
              74.9998416,
              18.5044959
            ],
            [
              74.9992724,
              18.5043278
            ],
            [
              74.9983606,
              18.5040249
            ],
            [
              74.9982184,
              18.5039819
            ],
            [
              74.9981807,
              18.5040241
            ],
            [
              74.9982084,
              18.5041368
            ],
            [
              74.9986354,
              18.5052974
            ],
            [
              74.9987651,
              18.5056564
            ],
            [
              74.9989811,
              18.506256
            ],
            [
              75.0007011,
              18.506461
            ],
            [
              75.0007434,
              18.5063924
            ]
          ]
        ]
      }
    }
  ]
}