{
  "type": "FeatureCollection",
  "name": "Benwadi_Gat_543_Cadastre",
  "crs": {
    "type": "name",
    "properties": {
      "name": "urn:ogc:def:crs:OGC:1.3:CRS84"
    }
  },
  "features": [
    {
      "type": "Feature",
      "properties": {
        "parcel_id": "MH-AHM-KAR-BEN-543",
        "survey_no": "543",
        "gat_no": "543",
        "village": "Benwadi (बेनवडी)",
        "taluka": "Karjat (कर्जत)",
        "district": "Ahmednagar (अहमदनगर)",
        "state": "Maharashtra",
        "gis_code": "RVM2613272600130334420000",
        "owner_name": "पोपट शिलेमान सय्यद, मिनाबी रसुल सय्यद, अफ्रोज अकबर सय्यद, अश्माबी राजू शेख, असिफ रसुल सय्यद",
        "all_owners": [
          "पोपट शिलेमान सय्यद",
          "मिनाबी रसुल सय्यद, अफ्रोज अकबर सय्यद, अश्माबी राजू शेख, असिफ रसुल सय्यद",
          "नजीर   अहमद  सय्यद, गणी  अहमद सय्यद, अजमीर  अहमद  सय्यद, बशीर   अहमद सय्यद",
          "सुलताना महमद शेख, अल्ताफ अब्बास सय्यद",
          "सय्यद कमरोददीन सय्यद",
          "नबिलाल रहिमान सय्यद"
        ],
        "khata_no": "154, 2420, 2621, 2940, 337, 96",
        "area_sqm": 358.6,
        "area_acres": 0.09,
        "area_guntha": 3.54,
        "land_type": "जिरायत शेती (Jirayat - Rainfed Agricultural)",
        "source": "MahaBhuNaksha Official Live Cadastre",
        "status": "verified",
        "confidence_score": 98.8,
        "old_survey_area_acres": 0.09,
        "old_survey_area_sqm": 358.6,
        "new_survey_area_acres": 0.09,
        "new_survey_area_sqm": 358.6
      },
      "geometry": {
        "type": "Polygon",
        "coordinates": [
          [
            [
              74.9634489,
              18.483426
            ],
            [
              74.9633268,
              18.4834307
            ],
            [
              74.9630905,
              18.4834708
            ],
            [
              74.9632593,
              18.4836104
            ],
            [
              74.9634489,
              18.483426
            ]
          ]
        ]
      }
    }
  ]
}