{
  "type": "FeatureCollection",
  "name": "Benwadi_Gat_111_Drone_Resurvey",
  "crs": {
    "type": "name",
    "properties": {
      "name": "urn:ogc:def:crs:OGC:1.3:CRS84"
    }
  },
  "features": [
    {
      "type": "Feature",
      "properties": {
        "parcel_id": "MH-AHM-KAR-BEN-111",
        "survey_no": "111",
        "gat_no": "111",
        "village": "Benwadi (बेनवडी)",
        "taluka": "Karjat (कर्जत)",
        "district": "Ahmednagar (अहमदनगर)",
        "state": "Maharashtra",
        "gis_code": "RVM2613272600130334420000",
        "owner_name": "मधुकर दादा खुडे, लाला दादा खुडे, नाना दादा खुडे, मीराबाई दादा खुडे, आजिनाथ बापू खुडे",
        "all_owners": [
          "मधुकर दादा खुडे, लाला दादा खुडे, नाना दादा खुडे, मीराबाई दादा खुडे",
          "आजिनाथ बापू खुडे",
          "मालन हनुमंत टावरे, वैजाबाई साहेबराव भिसे, शालन जवान भिसे, सोजाबाई संतराम भिसे, धोंडिबा विठठल खुडे",
          "हिराबाई  दादू  शिंदे, मिराबाई  पंडित  वेळेकर, दत्तू  धर्मा  खुडे, छाया \t नामदेव  शिंदे, लता नवनाथ खुडे, संगिता  बाळू  शिंदे, ओंकार नवनाथ खुडे, महेश नवनाथ खुडे, अलका  संभाजी  उल्हारे",
          "कांतीलाल छगन खुडे, इंदू छगन खुडे, अनिल विजय खुडे, मनिषा शशिकांत कांबळे, निर्मला शिवाजी खुडे, नर्मदा शिवाजी खुडे, त्रिंबक विश्वनाथ खुडे, दिव्या विजय खुडे, राजेंद्र शिवाजी खुडे, संतोष छगन खुडे, सपना विजय खुडे, सोमनाथ विजय खुडे, बबन विश्वनाथ  खुडे",
          "सूखदेव बापु खूडे"
        ],
        "khata_no": "102, 18, 2288, 2602, 290, 350",
        "area_sqm": 1326.99,
        "area_acres": 0.33,
        "area_guntha": 13.12,
        "land_type": "जिरायत शेती (Jirayat - Rainfed Agricultural)",
        "source": "MahaBhuNaksha Official Live Cadastre",
        "status": "needs_review",
        "confidence_score": 84.8,
        "old_survey_area_acres": 0.33,
        "old_survey_area_sqm": 1326.99,
        "new_survey_area_acres": 0.34,
        "new_survey_area_sqm": 1362.8,
        "area_diff_pct": 2.7,
        "mean_shift_m": 1.4,
        "iou_overlap_pct": 93.3,
        "review_reason": "Drone RTK photogrammetry detects a 2.7% area discrepancy (36 m²) with a mean bund shift of 1.4m along the farm boundary. Verification recommended.",
        "bhunaksha_geometry": {
          "type": "Polygon",
          "coordinates": [
            [
              [
                74.97549,
                18.4894232
              ],
              [
                74.9758077,
                18.4892417
              ],
              [
                74.97577,
                18.4890763
              ],
              [
                74.9756338,
                18.4891525
              ],
              [
                74.9751885,
                18.489397
              ],
              [
                74.9752064,
                18.4895862
              ],
              [
                74.97549,
                18.4894232
              ]
            ]
          ]
        }
      },
      "geometry": {
        "type": "Polygon",
        "coordinates": [
          [
            [
              74.9754815,
              18.4894148
            ],
            [
              74.9758034,
              18.4892308
            ],
            [
              74.9757652,
              18.4890632
            ],
            [
              74.9756272,
              18.4891404
            ],
            [
              74.9751759,
              18.4893882
            ],
            [
              74.9751941,
              18.4895799
            ],
            [
              74.9754815,
              18.4894148
            ]
          ]
        ]
      }
    }
  ]
}