{
  "type": "FeatureCollection",
  "name": "Benwadi_Gat_456_Drone_Resurvey",
  "crs": {
    "type": "name",
    "properties": {
      "name": "urn:ogc:def:crs:OGC:1.3:CRS84"
    }
  },
  "features": [
    {
      "type": "Feature",
      "properties": {
        "parcel_id": "MH-AHM-KAR-BEN-456",
        "survey_no": "456",
        "gat_no": "456",
        "village": "Benwadi (बेनवडी)",
        "taluka": "Karjat (कर्जत)",
        "district": "Ahmednagar (अहमदनगर)",
        "state": "Maharashtra",
        "gis_code": "RVM2613272600130334420000",
        "owner_name": "स्वप्नाली शेखर गायकवाड",
        "all_owners": [
          "स्वप्नाली शेखर गायकवाड"
        ],
        "khata_no": "3297",
        "area_sqm": 31173.05,
        "area_acres": 7.7,
        "area_guntha": 308.13,
        "land_type": "जिरायत शेती (Jirayat - Rainfed Agricultural)",
        "source": "MahaBhuNaksha Official Live Cadastre",
        "status": "needs_review",
        "confidence_score": 85.4,
        "old_survey_area_acres": 7.7,
        "old_survey_area_sqm": 31173.05,
        "new_survey_area_acres": 7.87,
        "new_survey_area_sqm": 31858.9,
        "area_diff_pct": 2.2,
        "mean_shift_m": 2.1,
        "iou_overlap_pct": 93.8,
        "review_reason": "Drone RTK photogrammetry detects a 2.2% area discrepancy (686 m²) with a mean bund shift of 2.1m along the farm boundary. Verification recommended.",
        "bhunaksha_geometry": {
          "type": "Polygon",
          "coordinates": [
            [
              [
                74.9907397,
                18.4970139
              ],
              [
                74.9898382,
                18.4964864
              ],
              [
                74.9891712,
                18.4960985
              ],
              [
                74.9888788,
                18.4961015
              ],
              [
                74.9876939,
                18.4961138
              ],
              [
                74.9878996,
                18.4963779
              ],
              [
                74.9882501,
                18.4968621
              ],
              [
                74.9884631,
                18.4971386
              ],
              [
                74.9887255,
                18.497567
              ],
              [
                74.9888431,
                18.4977722
              ],
              [
                74.9903778,
                18.4971797
              ],
              [
                74.9905902,
                18.4970977
              ],
              [
                74.9907397,
                18.4970139
              ]
            ]
          ]
        }
      },
      "geometry": {
        "type": "Polygon",
        "coordinates": [
          [
            [
              74.9907516,
              18.4970341
            ],
            [
              74.9898402,
              18.4965008
            ],
            [
              74.9891659,
              18.4961087
            ],
            [
              74.9888703,
              18.4961117
            ],
            [
              74.9876724,
              18.4961242
            ],
            [
              74.9878804,
              18.4963912
            ],
            [
              74.9882347,
              18.4968807
            ],
            [
              74.9884501,
              18.4971602
            ],
            [
              74.9887153,
              18.4975933
            ],
            [
              74.9888342,
              18.4978007
            ],
            [
              74.9903857,
              18.4972017
            ],
            [
              74.9906004,
              18.4971188
            ],
            [
              74.9907516,
              18.4970341
            ]
          ]
        ]
      }
    }
  ]
}