{
  "type": "FeatureCollection",
  "name": "Benwadi_Gat_148_Drone_Resurvey",
  "crs": {
    "type": "name",
    "properties": {
      "name": "urn:ogc:def:crs:OGC:1.3:CRS84"
    }
  },
  "features": [
    {
      "type": "Feature",
      "properties": {
        "parcel_id": "MH-AHM-KAR-BEN-148",
        "survey_no": "148",
        "gat_no": "148",
        "village": "Benwadi (बेनवडी)",
        "taluka": "Karjat (कर्जत)",
        "district": "Ahmednagar (अहमदनगर)",
        "state": "Maharashtra",
        "gis_code": "RVM2613272600130334420000",
        "owner_name": "असिफ रसूल सय्यद, तैनिश रमजान सय्यद",
        "all_owners": [
          "असिफ रसूल सय्यद",
          "तैनिश रमजान सय्यद",
          "हशीम पोपट सय्यद",
          "असिफ रसुल सय्यद, अश्माबी राजू शेख, मिनाबी रसुल सय्यद, अफ्रोज अकबर सय्यद",
          "सय्यद कमरोद्दीन सय्यद, बशीर अहमद सय्यद, नजीर अहमद सय्यद, नबीलाल राहिमान सय्यद, रसूल राहिमान सय्यद, अजमीर अहमद सय्यद, गणी अहमद सय्यद",
          "असिफ रसुल सय्यद, मिनाबी रसुल सय्यद, अश्माबी राजू शेख, अफ्रोज अकबर सय्यद",
          "नबिलाल रहिमान सय्यद",
          "अजमीर अहमद सय्यद",
          "नजीर अहमद सय्यद",
          "बशीर अहमद सय्यद"
        ],
        "khata_no": "3154, 3287, 3478, 2420, 3080, 2420, 96, 3341, 3342, 3343",
        "area_sqm": 44086.7,
        "area_acres": 10.89,
        "area_guntha": 435.77,
        "land_type": "जिरायत शेती (Jirayat - Rainfed Agricultural)",
        "source": "MahaBhuNaksha Official Live Cadastre",
        "status": "needs_review",
        "confidence_score": 84.4,
        "old_survey_area_acres": 10.89,
        "old_survey_area_sqm": 44086.7,
        "new_survey_area_acres": 11.22,
        "new_survey_area_sqm": 45409.3,
        "area_diff_pct": 3.0,
        "mean_shift_m": 1.7,
        "iou_overlap_pct": 93.0,
        "review_reason": "Drone RTK photogrammetry detects a 3.0% area discrepancy (1323 m²) with a mean bund shift of 1.7m along the farm boundary. Verification recommended.",
        "bhunaksha_geometry": {
          "type": "Polygon",
          "coordinates": [
            [
              [
                74.9675846,
                18.4848276
              ],
              [
                74.9674057,
                18.4835418
              ],
              [
                74.9665345,
                18.4834054
              ],
              [
                74.9652953,
                18.4838841
              ],
              [
                74.9649552,
                18.4840236
              ],
              [
                74.9659468,
                18.4848407
              ],
              [
                74.9666791,
                18.4854105
              ],
              [
                74.9670932,
                18.4856811
              ],
              [
                74.967576,
                18.4859728
              ],
              [
                74.9677601,
                18.4861032
              ],
              [
                74.9675846,
                18.4848276
              ]
            ]
          ]
        }
      },
      "geometry": {
        "type": "Polygon",
        "coordinates": [
          [
            [
              74.9676134,
              18.484824
            ],
            [
              74.9674319,
              18.4835191
            ],
            [
              74.9665477,
              18.4833806
            ],
            [
              74.9652901,
              18.4838665
            ],
            [
              74.9649449,
              18.484008
            ],
            [
              74.9659513,
              18.4848373
            ],
            [
              74.9666945,
              18.4854156
            ],
            [
              74.9671147,
              18.4856902
            ],
            [
              74.9676047,
              18.4859863
            ],
            [
              74.9677916,
              18.4861186
            ],
            [
              74.9676134,
              18.484824
            ]
          ]
        ]
      }
    }
  ]
}