{
  "type": "FeatureCollection",
  "name": "Benwadi_Gat_170_Drone_Resurvey",
  "crs": {
    "type": "name",
    "properties": {
      "name": "urn:ogc:def:crs:OGC:1.3:CRS84"
    }
  },
  "features": [
    {
      "type": "Feature",
      "properties": {
        "parcel_id": "MH-AHM-KAR-BEN-170",
        "survey_no": "170",
        "gat_no": "170",
        "village": "Benwadi (बेनवडी)",
        "taluka": "Karjat (कर्जत)",
        "district": "Ahmednagar (अहमदनगर)",
        "state": "Maharashtra",
        "gis_code": "RVM2613272600130334420000",
        "owner_name": "केसर नागनाथ राऊत, गोरख धोंडीबा गदादे, दामू धोंडीबा गदादे",
        "all_owners": [
          "केसर नागनाथ राऊत, गोरख धोंडीबा गदादे, दामू धोंडीबा गदादे"
        ],
        "khata_no": "113",
        "area_sqm": 52391.23,
        "area_acres": 12.95,
        "area_guntha": 517.85,
        "land_type": "जिरायत शेती (Jirayat - Rainfed Agricultural)",
        "source": "MahaBhuNaksha Official Live Cadastre",
        "status": "needs_review",
        "confidence_score": 84.6,
        "old_survey_area_acres": 12.95,
        "old_survey_area_sqm": 52391.23,
        "new_survey_area_acres": 13.31,
        "new_survey_area_sqm": 53858.2,
        "area_diff_pct": 2.8,
        "mean_shift_m": 1.9,
        "iou_overlap_pct": 93.2,
        "review_reason": "Drone RTK photogrammetry detects a 2.8% area discrepancy (1467 m²) with a mean bund shift of 1.9m along the farm boundary. Verification recommended.",
        "bhunaksha_geometry": {
          "type": "MultiPolygon",
          "coordinates": [
            [
              [
                [
                  74.9699096,
                  18.4774301
                ],
                [
                  74.9699347,
                  18.4772464
                ],
                [
                  74.9699727,
                  18.4770492
                ],
                [
                  74.970942,
                  18.4770168
                ],
                [
                  74.9726832,
                  18.4769592
                ],
                [
                  74.9727654,
                  18.4771159
                ],
                [
                  74.9744238,
                  18.4770243
                ],
                [
                  74.9744938,
                  18.4770585
                ],
                [
                  74.9741544,
                  18.4761069
                ],
                [
                  74.9732344,
                  18.4760606
                ],
                [
                  74.9728663,
                  18.4760554
                ],
                [
                  74.9725834,
                  18.4761381
                ],
                [
                  74.9724689,
                  18.4761847
                ],
                [
                  74.9711849,
                  18.476196
                ],
                [
                  74.9710713,
                  18.4761905
                ],
                [
                  74.970591,
                  18.4762031
                ],
                [
                  74.9701466,
                  18.4762353
                ],
                [
                  74.9698383,
                  18.476244
                ],
                [
                  74.9697316,
                  18.4762558
                ],
                [
                  74.9696848,
                  18.476261
                ],
                [
                  74.969573,
                  18.4772657
                ],
                [
                  74.9694511,
                  18.4783266
                ],
                [
                  74.9697698,
                  18.4783442
                ],
                [
                  74.9699096,
                  18.4774301
                ]
              ]
            ],
            [
              [
                [
                  74.9727605,
                  18.476701
                ],
                [
                  74.9725739,
                  18.4768108
                ],
                [
                  74.9724607,
                  18.4766757
                ],
                [
                  74.9726345,
                  18.4765668
                ],
                [
                  74.9727605,
                  18.476701
                ]
              ]
            ]
          ]
        }
      },
      "geometry": {
        "type": "MultiPolygon",
        "coordinates": [
          [
            [
              [
                74.9698952,
                18.4774236
              ],
              [
                74.9699206,
                18.4772373
              ],
              [
                74.9699592,
                18.4770374
              ],
              [
                74.9709419,
                18.4770045
              ],
              [
                74.9727073,
                18.4769461
              ],
              [
                74.9727907,
                18.477105
              ],
              [
                74.9744721,
                18.4770121
              ],
              [
                74.9745431,
                18.4770468
              ],
              [
                74.974199,
                18.476082
              ],
              [
                74.9732662,
                18.476035
              ],
              [
                74.972893,
                18.4760297
              ],
              [
                74.9726062,
                18.4761136
              ],
              [
                74.9724901,
                18.4761608
              ],
              [
                74.9711882,
                18.4761723
              ],
              [
                74.971073,
                18.4761667
              ],
              [
                74.9705861,
                18.4761795
              ],
              [
                74.9701355,
                18.4762121
              ],
              [
                74.9698229,
                18.476221
              ],
              [
                74.9697147,
                18.4762329
              ],
              [
                74.9696673,
                18.4762382
              ],
              [
                74.9695539,
                18.4772569
              ],
              [
                74.9694303,
                18.4783325
              ],
              [
                74.9697534,
                18.4783504
              ],
              [
                74.9698952,
                18.4774236
              ]
            ]
          ],
          [
            [
              [
                74.9727685,
                18.476685
              ],
              [
                74.9725793,
                18.4767963
              ],
              [
                74.9724645,
                18.4766594
              ],
              [
                74.9726407,
                18.4765489
              ],
              [
                74.9727685,
                18.476685
              ]
            ]
          ]
        ]
      }
    }
  ]
}