{
  "type": "FeatureCollection",
  "name": "Benwadi_Gat_184_Cadastre",
  "crs": {
    "type": "name",
    "properties": {
      "name": "urn:ogc:def:crs:OGC:1.3:CRS84"
    }
  },
  "features": [
    {
      "type": "Feature",
      "properties": {
        "parcel_id": "MH-AHM-KAR-BEN-184",
        "survey_no": "184",
        "gat_no": "184",
        "village": "Benwadi (बेनवडी)",
        "taluka": "Karjat (कर्जत)",
        "district": "Ahmednagar (अहमदनगर)",
        "state": "Maharashtra",
        "gis_code": "RVM2613272600130334420000",
        "owner_name": "आजिनाथ विठोबा गदादे",
        "all_owners": [
          "आजिनाथ विठोबा गदादे"
        ],
        "khata_no": "19",
        "area_sqm": 43231.04,
        "area_acres": 10.68,
        "area_guntha": 427.31,
        "land_type": "जिरायत शेती (Jirayat - Rainfed Agricultural)",
        "source": "MahaBhuNaksha Official Live Cadastre",
        "status": "verified",
        "confidence_score": 98.8,
        "old_survey_area_acres": 10.68,
        "old_survey_area_sqm": 43231.04,
        "new_survey_area_acres": 10.68,
        "new_survey_area_sqm": 43231.04
      },
      "geometry": {
        "type": "Polygon",
        "coordinates": [
          [
            [
              74.9619395,
              18.4821935
            ],
            [
              74.9621302,
              18.4820961
            ],
            [
              74.9629295,
              18.4816879
            ],
            [
              74.9629711,
              18.4816332
            ],
            [
              74.9639598,
              18.4815996
            ],
            [
              74.9636352,
              18.4809574
            ],
            [
              74.963536,
              18.4807435
            ],
            [
              74.9634847,
              18.4804745
            ],
            [
              74.9632558,
              18.4805352
            ],
            [
              74.9631503,
              18.4799962
            ],
            [
              74.96251,
              18.4802478
            ],
            [
              74.9627751,
              18.4811642
            ],
            [
              74.9620767,
              18.4813441
            ],
            [
              74.9616919,
              18.4801274
            ],
            [
              74.9618632,
              18.480077
            ],
            [
              74.9614115,
              18.4783398
            ],
            [
              74.9612452,
              18.4784173
            ],
            [
              74.9611867,
              18.478407
            ],
            [
              74.9607927,
              18.4786225
            ],
            [
              74.9614375,
              18.4806723
            ],
            [
              74.9619147,
              18.4822062
            ],
            [
              74.9619395,
              18.4821935
            ]
          ]
        ]
      }
    }
  ]
}