{
  "type": "FeatureCollection",
  "name": "Benwadi_Gat_389_Drone_Resurvey",
  "crs": {
    "type": "name",
    "properties": {
      "name": "urn:ogc:def:crs:OGC:1.3:CRS84"
    }
  },
  "features": [
    {
      "type": "Feature",
      "properties": {
        "parcel_id": "MH-AHM-KAR-BEN-389",
        "survey_no": "389",
        "gat_no": "389",
        "village": "Benwadi (बेनवडी)",
        "taluka": "Karjat (कर्जत)",
        "district": "Ahmednagar (अहमदनगर)",
        "state": "Maharashtra",
        "gis_code": "RVM2613272600130334420000",
        "owner_name": "दशरथ नारायण गदादे, कोंडिबा नारायण गदादे",
        "all_owners": [
          "दशरथ नारायण गदादे",
          "कोंडिबा नारायण गदादे",
          "नामदेव बबन गदादे",
          "सूभाष बबन गदादे",
          "मारूती नारायण गदादे",
          "कोंडिबा नारायण गदादे",
          "सुभद्रा बाळासाहेब सायकर, सुनिल परशुराम गदादे, राजाराम सोपान गदादे, सखुबाई धोंडीबा जाधव, छबु सोपान गदादे, शिवगंगा परशुराम गदादे, सोमनाथ परशुराम गदादे, अरुणा झुंबर चाकने",
          "केरा गोविंद गदादे",
          "दशरथ नारायण गदादे",
          "रमेश जनार्धन गदादे",
          "प्रशांत हनुमंत गदादे",
          "राजाराम सोपान गदादे",
          "सुनिल परशुराम गदादे, सोमनाथ परशुराम गदादे, शिवगंगा परशुराम गदादे",
          "सुनिल परशुराम गदादे, सखुबाई धोंडीबा जाधव, सुभद्रा बाळासाहेब सायकर, सोमनाथ परशुराम गदादे, छबु सोपान गदादे, अरुणा झुंबर चाकने, राजाराम सोपान गदादे, शिवगंगा परशुराम गदादे",
          "केरा गोविंद गदादे",
          "दशरथ नारायण गदादे",
          "मारूती नारायण गदादे",
          "कोंडिबा नारायण गदादे",
          "बबन नारायण गदादे",
          "दशरथ नारायण गदादे",
          "मारूती नारायण गदादे"
        ],
        "khata_no": "436, 438, 3357, 983, 437, 438, 2327, 41, 436, 2246, 3164, 434, 435, 2327, 41, 436, 437, 438, 439, 436, 437",
        "area_sqm": 98571.88,
        "area_acres": 24.36,
        "area_guntha": 974.32,
        "land_type": "जिरायत शेती (Jirayat - Rainfed Agricultural)",
        "source": "MahaBhuNaksha Official Live Cadastre",
        "status": "needs_review",
        "confidence_score": 84.5,
        "old_survey_area_acres": 24.36,
        "old_survey_area_sqm": 98571.88,
        "new_survey_area_acres": 25.07,
        "new_survey_area_sqm": 101430.5,
        "area_diff_pct": 2.9,
        "mean_shift_m": 1.6,
        "iou_overlap_pct": 93.1,
        "review_reason": "Drone RTK photogrammetry detects a 2.9% area discrepancy (2859 m²) with a mean bund shift of 1.6m along the farm boundary. Verification recommended.",
        "bhunaksha_geometry": {
          "type": "Polygon",
          "coordinates": [
            [
              [
                74.9897674,
                18.501603
              ],
              [
                74.9897626,
                18.5015055
              ],
              [
                74.989567,
                18.500349
              ],
              [
                74.9892538,
                18.4985073
              ],
              [
                74.9886492,
                18.4988086
              ],
              [
                74.9879577,
                18.4991354
              ],
              [
                74.9875127,
                18.4993593
              ],
              [
                74.9865388,
                18.4998379
              ],
              [
                74.9864397,
                18.4998939
              ],
              [
                74.9862505,
                18.4999603
              ],
              [
                74.9865513,
                18.5001889
              ],
              [
                74.9867798,
                18.5003374
              ],
              [
                74.9867886,
                18.5006341
              ],
              [
                74.9867962,
                18.5014437
              ],
              [
                74.986804,
                18.5017283
              ],
              [
                74.9868267,
                18.5033503
              ],
              [
                74.9868238,
                18.5038364
              ],
              [
                74.987291,
                18.5039325
              ],
              [
                74.9875336,
                18.502903
              ],
              [
                74.9879238,
                18.5011926
              ],
              [
                74.9897674,
                18.501603
              ]
            ]
          ]
        }
      },
      "geometry": {
        "type": "Polygon",
        "coordinates": [
          [
            [
              74.9898124,
              18.5016191
            ],
            [
              74.9898075,
              18.5015202
            ],
            [
              74.9896091,
              18.500347
            ],
            [
              74.9892914,
              18.4984788
            ],
            [
              74.9886781,
              18.4987844
            ],
            [
              74.9879766,
              18.4991159
            ],
            [
              74.9875252,
              18.4993431
            ],
            [
              74.9865373,
              18.4998286
            ],
            [
              74.9864368,
              18.4998854
            ],
            [
              74.9862448,
              18.4999527
            ],
            [
              74.98655,
              18.5001846
            ],
            [
              74.9867818,
              18.5003352
            ],
            [
              74.9867907,
              18.5006362
            ],
            [
              74.9867984,
              18.5014575
            ],
            [
              74.9868063,
              18.5017462
            ],
            [
              74.9868293,
              18.5033915
            ],
            [
              74.9868264,
              18.5038846
            ],
            [
              74.9873003,
              18.5039821
            ],
            [
              74.9875464,
              18.5029378
            ],
            [
              74.9879422,
              18.5012028
            ],
            [
              74.9898124,
              18.5016191
            ]
          ]
        ]
      }
    }
  ]
}