{
  "type": "FeatureCollection",
  "name": "Benwadi_Gat_115_Cadastre",
  "crs": {
    "type": "name",
    "properties": {
      "name": "urn:ogc:def:crs:OGC:1.3:CRS84"
    }
  },
  "features": [
    {
      "type": "Feature",
      "properties": {
        "parcel_id": "MH-AHM-KAR-BEN-115",
        "survey_no": "115",
        "gat_no": "115",
        "village": "Benwadi (बेनवडी)",
        "taluka": "Karjat (कर्जत)",
        "district": "Ahmednagar (अहमदनगर)",
        "state": "Maharashtra",
        "gis_code": "RVM2613272600130334420000",
        "owner_name": "अविनाश कल्याण खुडे",
        "all_owners": [
          "अविनाश कल्याण खुडे"
        ],
        "khata_no": "1045",
        "area_sqm": 1114.37,
        "area_acres": 0.28,
        "area_guntha": 11.01,
        "land_type": "जिरायत शेती (Jirayat - Rainfed Agricultural)",
        "source": "MahaBhuNaksha Official Live Cadastre",
        "status": "verified",
        "confidence_score": 98.8,
        "old_survey_area_acres": 0.28,
        "old_survey_area_sqm": 1114.37,
        "new_survey_area_acres": 0.28,
        "new_survey_area_sqm": 1114.37
      },
      "geometry": {
        "type": "Polygon",
        "coordinates": [
          [
            [
              74.975049,
              18.489033
            ],
            [
              74.9750223,
              18.4885865
            ],
            [
              74.9750052,
              18.4882878
            ],
            [
              74.9749943,
              18.4880884
            ],
            [
              74.9749007,
              18.4886744
            ],
            [
              74.9748526,
              18.4890393
            ],
            [
              74.975049,
              18.489033
            ]
          ]
        ]
      }
    }
  ]
}