{
  "type": "FeatureCollection",
  "name": "Benwadi_Gat_490_Cadastre",
  "crs": {
    "type": "name",
    "properties": {
      "name": "urn:ogc:def:crs:OGC:1.3:CRS84"
    }
  },
  "features": [
    {
      "type": "Feature",
      "properties": {
        "parcel_id": "MH-AHM-KAR-BEN-490",
        "survey_no": "490",
        "gat_no": "490",
        "village": "Benwadi (बेनवडी)",
        "taluka": "Karjat (कर्जत)",
        "district": "Ahmednagar (अहमदनगर)",
        "state": "Maharashtra",
        "gis_code": "RVM2613272600130334420000",
        "owner_name": "सिताबाई उत्तम गदादे, नवनाथ साहेबराव गदादे",
        "all_owners": [
          "सिताबाई उत्तम गदादे",
          "नवनाथ साहेबराव गदादे"
        ],
        "khata_no": "471, 3469",
        "area_sqm": 20923.37,
        "area_acres": 5.17,
        "area_guntha": 206.81,
        "land_type": "जिरायत शेती (Jirayat - Rainfed Agricultural)",
        "source": "MahaBhuNaksha Official Live Cadastre",
        "status": "verified",
        "confidence_score": 98.8,
        "old_survey_area_acres": 5.17,
        "old_survey_area_sqm": 20923.37,
        "new_survey_area_acres": 5.17,
        "new_survey_area_sqm": 20923.37
      },
      "geometry": {
        "type": "Polygon",
        "coordinates": [
          [
            [
              74.9887255,
              18.497567
            ],
            [
              74.9884631,
              18.4971386
            ],
            [
              74.9882501,
              18.4968621
            ],
            [
              74.9865138,
              18.4968787
            ],
            [
              74.9855487,
              18.4969049
            ],
            [
              74.9856006,
              18.4972762
            ],
            [
              74.9866847,
              18.4972811
            ],
            [
              74.9867945,
              18.4976714
            ],
            [
              74.9887255,
              18.497567
            ]
          ]
        ]
      }
    }
  ]
}