{
  "type": "FeatureCollection",
  "name": "Benwadi_Gat_2_Cadastre",
  "crs": {
    "type": "name",
    "properties": {
      "name": "urn:ogc:def:crs:OGC:1.3:CRS84"
    }
  },
  "features": [
    {
      "type": "Feature",
      "properties": {
        "parcel_id": "MH-AHM-KAR-BEN-2",
        "survey_no": "2",
        "gat_no": "2",
        "village": "Benwadi (बेनवडी)",
        "taluka": "Karjat (कर्जत)",
        "district": "Ahmednagar (अहमदनगर)",
        "state": "Maharashtra",
        "gis_code": "RVM2613272600130334420000",
        "owner_name": "दादा विठ्ठल  धुमाळ, मंगेश बाळु धुमाळ",
        "all_owners": [
          "दादा विठ्ठल  धुमाळ",
          "मंगेश बाळु धुमाळ",
          "साईनाथ विठठल धुमाळ",
          "नवनाथ विठठल धूमाळ"
        ],
        "khata_no": "2633, 3075, 864, 866",
        "area_sqm": 8007.47,
        "area_acres": 1.98,
        "area_guntha": 79.15,
        "land_type": "जिरायत शेती (Jirayat - Rainfed Agricultural)",
        "source": "MahaBhuNaksha Official Live Cadastre",
        "status": "verified",
        "confidence_score": 98.8,
        "old_survey_area_acres": 1.98,
        "old_survey_area_sqm": 8007.47,
        "new_survey_area_acres": 1.98,
        "new_survey_area_sqm": 8007.47
      },
      "geometry": {
        "type": "Polygon",
        "coordinates": [
          [
            [
              74.9806841,
              18.4912166
            ],
            [
              74.9806816,
              18.4911798
            ],
            [
              74.98044,
              18.4912237
            ],
            [
              74.9804201,
              18.4912776
            ],
            [
              74.9795988,
              18.4915452
            ],
            [
              74.9791036,
              18.4916995
            ],
            [
              74.9790182,
              18.4917262
            ],
            [
              74.9787676,
              18.4918042
            ],
            [
              74.9784969,
              18.4918834
            ],
            [
              74.9784193,
              18.4919061
            ],
            [
              74.9784239,
              18.4919234
            ],
            [
              74.97845,
              18.492023
            ],
            [
              74.978566,
              18.4924658
            ],
            [
              74.9786111,
              18.4924017
            ],
            [
              74.9799844,
              18.4916379
            ],
            [
              74.9803472,
              18.4914148
            ],
            [
              74.9806841,
              18.4912166
            ]
          ]
        ]
      }
    }
  ]
}