{
  "type": "FeatureCollection",
  "name": "Benwadi_Gat_241_Drone_Resurvey",
  "crs": {
    "type": "name",
    "properties": {
      "name": "urn:ogc:def:crs:OGC:1.3:CRS84"
    }
  },
  "features": [
    {
      "type": "Feature",
      "properties": {
        "parcel_id": "MH-AHM-KAR-BEN-241",
        "survey_no": "241",
        "gat_no": "241",
        "village": "Benwadi (बेनवडी)",
        "taluka": "Karjat (कर्जत)",
        "district": "Ahmednagar (अहमदनगर)",
        "state": "Maharashtra",
        "gis_code": "RVM2613272600130334420000",
        "owner_name": "संदिप लालासाहेब धुमाळ, अर्जून पोपट धूमाळ",
        "all_owners": [
          "संदिप लालासाहेब धुमाळ",
          "अर्जून पोपट धूमाळ",
          "अर्चना सतिष धुमाळ",
          "सानिध्य संदिप धुमाळ, आप्पासाहेब बलभिम धुमाळ",
          "संदिप लालासाहेब धुमाळ",
          "रुपाली आप्पासाहेब धुमाळ",
          "आप्पासाहेब बलभिम धुमाळ"
        ],
        "khata_no": "2496, 2509, 3061, 3400, 2496, 3057, 3401",
        "area_sqm": 12294.66,
        "area_acres": 3.04,
        "area_guntha": 121.52,
        "land_type": "जिरायत शेती (Jirayat - Rainfed Agricultural)",
        "source": "MahaBhuNaksha Official Live Cadastre",
        "status": "needs_review",
        "confidence_score": 84.8,
        "old_survey_area_acres": 3.04,
        "old_survey_area_sqm": 12294.66,
        "new_survey_area_acres": 3.12,
        "new_survey_area_sqm": 12626.6,
        "area_diff_pct": 2.7,
        "mean_shift_m": 2.0,
        "iou_overlap_pct": 93.3,
        "review_reason": "Drone RTK photogrammetry detects a 2.7% area discrepancy (332 m²) with a mean bund shift of 2.0m along the farm boundary. Verification recommended.",
        "bhunaksha_geometry": {
          "type": "Polygon",
          "coordinates": [
            [
              [
                74.9581801,
                18.4916324
              ],
              [
                74.957879,
                18.4908144
              ],
              [
                74.956561,
                18.4908516
              ],
              [
                74.9570375,
                18.4917088
              ],
              [
                74.9581801,
                18.4916324
              ]
            ]
          ]
        }
      },
      "geometry": {
        "type": "Polygon",
        "coordinates": [
          [
            [
              74.9582004,
              18.4916222
            ],
            [
              74.9578953,
              18.4907933
            ],
            [
              74.9565596,
              18.490831
            ],
            [
              74.9570425,
              18.4916997
            ],
            [
              74.9582004,
              18.4916222
            ]
          ]
        ]
      }
    }
  ]
}