{
  "type": "FeatureCollection",
  "name": "Benwadi_Gat_149_Cadastre",
  "crs": {
    "type": "name",
    "properties": {
      "name": "urn:ogc:def:crs:OGC:1.3:CRS84"
    }
  },
  "features": [
    {
      "type": "Feature",
      "properties": {
        "parcel_id": "MH-AHM-KAR-BEN-149",
        "survey_no": "149",
        "gat_no": "149",
        "village": "Benwadi (बेनवडी)",
        "taluka": "Karjat (कर्जत)",
        "district": "Ahmednagar (अहमदनगर)",
        "state": "Maharashtra",
        "gis_code": "RVM2613272600130334420000",
        "owner_name": "असिफ रसुल सय्यद, मिनाबी रसुल सय्यद, अफ्रोज अकबर सय्यद, अश्माबी राजू शेख, नबिलाल रहिमान सय्यद",
        "all_owners": [
          "असिफ रसुल सय्यद, मिनाबी रसुल सय्यद, अफ्रोज अकबर सय्यद, अश्माबी राजू शेख",
          "नबिलाल रहिमान सय्यद",
          "रियाज  छगन  सय्यद, सय्यद कमरुद्दीन सय्यद",
          "जुबेर  वजीर  शेख"
        ],
        "khata_no": "2420, 96, 2338, 2585",
        "area_sqm": 24527.69,
        "area_acres": 6.06,
        "area_guntha": 242.44,
        "land_type": "जिरायत शेती (Jirayat - Rainfed Agricultural)",
        "source": "MahaBhuNaksha Official Live Cadastre",
        "status": "verified",
        "confidence_score": 98.8,
        "old_survey_area_acres": 6.06,
        "old_survey_area_sqm": 24527.69,
        "new_survey_area_acres": 6.06,
        "new_survey_area_sqm": 24527.69
      },
      "geometry": {
        "type": "Polygon",
        "coordinates": [
          [
            [
              74.9691853,
              18.4850559
            ],
            [
              74.9675846,
              18.4848276
            ],
            [
              74.9677601,
              18.4861032
            ],
            [
              74.96839,
              18.4863126
            ],
            [
              74.9692141,
              18.4865694
            ],
            [
              74.9691853,
              18.4850559
            ]
          ]
        ]
      }
    }
  ]
}