{
  "type": "FeatureCollection",
  "name": "Benwadi_Gat_380_Cadastre",
  "crs": {
    "type": "name",
    "properties": {
      "name": "urn:ogc:def:crs:OGC:1.3:CRS84"
    }
  },
  "features": [
    {
      "type": "Feature",
      "properties": {
        "parcel_id": "MH-AHM-KAR-BEN-380",
        "survey_no": "380",
        "gat_no": "380",
        "village": "Benwadi (बेनवडी)",
        "taluka": "Karjat (कर्जत)",
        "district": "Ahmednagar (अहमदनगर)",
        "state": "Maharashtra",
        "gis_code": "RVM2613272600130334420000",
        "owner_name": "नवनाथ दिगांबर गदादे, संतोष श्रीरंग गदादे",
        "all_owners": [
          "नवनाथ दिगांबर गदादे",
          "संतोष श्रीरंग गदादे"
        ],
        "khata_no": "770, 332",
        "area_sqm": 33075.05,
        "area_acres": 8.17,
        "area_guntha": 326.93,
        "land_type": "जिरायत शेती (Jirayat - Rainfed Agricultural)",
        "source": "MahaBhuNaksha Official Live Cadastre",
        "status": "verified",
        "confidence_score": 98.8,
        "old_survey_area_acres": 8.17,
        "old_survey_area_sqm": 33075.05,
        "new_survey_area_acres": 8.17,
        "new_survey_area_sqm": 33075.05
      },
      "geometry": {
        "type": "Polygon",
        "coordinates": [
          [
            [
              74.9797127,
              18.504299
            ],
            [
              74.978643,
              18.5042493
            ],
            [
              74.9786197,
              18.504263
            ],
            [
              74.9787679,
              18.5059218
            ],
            [
              74.9788827,
              18.5070912
            ],
            [
              74.97906,
              18.5070907
            ],
            [
              74.9797762,
              18.5071399
            ],
            [
              74.979776,
              18.5071333
            ],
            [
              74.9797583,
              18.5063913
            ],
            [
              74.979733,
              18.5046518
            ],
            [
              74.9797127,
              18.504299
            ]
          ]
        ]
      }
    }
  ]
}