{
  "type": "FeatureCollection",
  "name": "Benwadi_Gat_466_Drone_Resurvey",
  "crs": {
    "type": "name",
    "properties": {
      "name": "urn:ogc:def:crs:OGC:1.3:CRS84"
    }
  },
  "features": [
    {
      "type": "Feature",
      "properties": {
        "parcel_id": "MH-AHM-KAR-BEN-466",
        "survey_no": "466",
        "gat_no": "466",
        "village": "Benwadi (बेनवडी)",
        "taluka": "Karjat (कर्जत)",
        "district": "Ahmednagar (अहमदनगर)",
        "state": "Maharashtra",
        "gis_code": "RVM2613272600130334420000",
        "owner_name": "राजेंद्र शिवदास गदादे, अशोक सूखदेव गदादे",
        "all_owners": [
          "राजेंद्र शिवदास गदादे",
          "अशोक सूखदेव गदादे",
          "सागर किसन गदादे",
          "गोकूळ शिवदास गदादे"
        ],
        "khata_no": "260, 846, 869, 870",
        "area_sqm": 22128.88,
        "area_acres": 5.47,
        "area_guntha": 218.73,
        "land_type": "जिरायत शेती (Jirayat - Rainfed Agricultural)",
        "source": "MahaBhuNaksha Official Live Cadastre",
        "status": "needs_review",
        "confidence_score": 85.4,
        "old_survey_area_acres": 5.47,
        "old_survey_area_sqm": 22128.88,
        "new_survey_area_acres": 5.59,
        "new_survey_area_sqm": 22615.7,
        "area_diff_pct": 2.2,
        "mean_shift_m": 1.9,
        "iou_overlap_pct": 93.8,
        "review_reason": "Drone RTK photogrammetry detects a 2.2% area discrepancy (487 m²) with a mean bund shift of 1.9m along the farm boundary. Verification recommended.",
        "bhunaksha_geometry": {
          "type": "Polygon",
          "coordinates": [
            [
              [
                74.9902106,
                18.4927561
              ],
              [
                74.9900146,
                18.4914194
              ],
              [
                74.9905616,
                18.4913281
              ],
              [
                74.990539,
                18.4911779
              ],
              [
                74.990464,
                18.4901355
              ],
              [
                74.9904035,
                18.4892319
              ],
              [
                74.9901697,
                18.4893291
              ],
              [
                74.9900382,
                18.4905842
              ],
              [
                74.9895495,
                18.4914724
              ],
              [
                74.9894409,
                18.4914796
              ],
              [
                74.9894761,
                18.4919711
              ],
              [
                74.9895766,
                18.4927932
              ],
              [
                74.9900023,
                18.492896
              ],
              [
                74.9902106,
                18.4927561
              ]
            ]
          ]
        }
      },
      "geometry": {
        "type": "Polygon",
        "coordinates": [
          [
            [
              74.9902103,
              18.4927893
            ],
            [
              74.9900122,
              18.4914379
            ],
            [
              74.9905652,
              18.4913456
            ],
            [
              74.9905423,
              18.4911938
            ],
            [
              74.9904665,
              18.49014
            ],
            [
              74.9904053,
              18.4892265
            ],
            [
              74.990169,
              18.4893248
            ],
            [
              74.990036,
              18.4905936
            ],
            [
              74.989542,
              18.4914915
            ],
            [
              74.9894322,
              18.4914988
            ],
            [
              74.9894678,
              18.4919957
            ],
            [
              74.9895694,
              18.4928268
            ],
            [
              74.9899998,
              18.4929307
            ],
            [
              74.9902103,
              18.4927893
            ]
          ]
        ]
      }
    }
  ]
}