{
  "type": "FeatureCollection",
  "name": "Benwadi_Gat_22_Cadastre",
  "crs": {
    "type": "name",
    "properties": {
      "name": "urn:ogc:def:crs:OGC:1.3:CRS84"
    }
  },
  "features": [
    {
      "type": "Feature",
      "properties": {
        "parcel_id": "MH-AHM-KAR-BEN-22",
        "survey_no": "22",
        "gat_no": "22",
        "village": "Benwadi (बेनवडी)",
        "taluka": "Karjat (कर्जत)",
        "district": "Ahmednagar (अहमदनगर)",
        "state": "Maharashtra",
        "gis_code": "RVM2613272600130334420000",
        "owner_name": "बापू गोरख फाराडे, पप्पु गोरख धुमाळ",
        "all_owners": [
          "बापू गोरख फाराडे",
          "पप्पु गोरख धुमाळ",
          "किसन अर्जुन गदादे",
          "सागर गोरख दवने",
          "लक्ष्मीबाई शिवाजी गदादे",
          "विशाल अरून दवने",
          "शिवदास अर्जून गदादे",
          "सूखदेव अर्जून गदादे",
          "गोरख भानूदास फरांडे",
          "मच्छिंद्र भिमराव दवणे",
          "लहु भिमराव दवणे"
        ],
        "khata_no": "2269, 2427, 2803, 2804, 2806, 2807, 551, 552, 575, 627, 923",
        "area_sqm": 38754.25,
        "area_acres": 9.58,
        "area_guntha": 383.06,
        "land_type": "जिरायत शेती (Jirayat - Rainfed Agricultural)",
        "source": "MahaBhuNaksha Official Live Cadastre",
        "status": "verified",
        "confidence_score": 98.8,
        "old_survey_area_acres": 9.58,
        "old_survey_area_sqm": 38754.25,
        "new_survey_area_acres": 9.58,
        "new_survey_area_sqm": 38754.25
      },
      "geometry": {
        "type": "Polygon",
        "coordinates": [
          [
            [
              74.9902915,
              18.4889227
            ],
            [
              74.9902466,
              18.4886804
            ],
            [
              74.9900856,
              18.4879008
            ],
            [
              74.9899111,
              18.487126
            ],
            [
              74.9896359,
              18.4873927
            ],
            [
              74.9887836,
              18.4879939
            ],
            [
              74.9878173,
              18.4884733
            ],
            [
              74.9876145,
              18.488629
            ],
            [
              74.9878084,
              18.4891734
            ],
            [
              74.9878608,
              18.4893172
            ],
            [
              74.9880263,
              18.4893297
            ],
            [
              74.9888187,
              18.4893065
            ],
            [
              74.9889358,
              18.4891839
            ],
            [
              74.9898917,
              18.4891606
            ],
            [
              74.9901949,
              18.4889893
            ],
            [
              74.9902915,
              18.4889227
            ]
          ]
        ]
      }
    }
  ]
}