{
  "type": "FeatureCollection",
  "name": "Benwadi_Gat_74_Cadastre",
  "crs": {
    "type": "name",
    "properties": {
      "name": "urn:ogc:def:crs:OGC:1.3:CRS84"
    }
  },
  "features": [
    {
      "type": "Feature",
      "properties": {
        "parcel_id": "MH-AHM-KAR-BEN-74",
        "survey_no": "74",
        "gat_no": "74",
        "village": "Benwadi (बेनवडी)",
        "taluka": "Karjat (कर्जत)",
        "district": "Ahmednagar (अहमदनगर)",
        "state": "Maharashtra",
        "gis_code": "RVM2613272600130334420000",
        "owner_name": "धोंडिबा विठठल खूडे",
        "all_owners": [
          "धोंडिबा विठठल खूडे"
        ],
        "khata_no": "854",
        "area_sqm": 5572.7,
        "area_acres": 1.38,
        "area_guntha": 55.08,
        "land_type": "जिरायत शेती (Jirayat - Rainfed Agricultural)",
        "source": "MahaBhuNaksha Official Live Cadastre",
        "status": "verified",
        "confidence_score": 98.8,
        "old_survey_area_acres": 1.38,
        "old_survey_area_sqm": 5572.7,
        "new_survey_area_acres": 1.38,
        "new_survey_area_sqm": 5572.7
      },
      "geometry": {
        "type": "Polygon",
        "coordinates": [
          [
            [
              74.9768411,
              18.4906755
            ],
            [
              74.9766629,
              18.490435
            ],
            [
              74.9764139,
              18.4900865
            ],
            [
              74.9764333,
              18.4900539
            ],
            [
              74.9765848,
              18.4899807
            ],
            [
              74.9768786,
              18.489832
            ],
            [
              74.9768588,
              18.4898114
            ],
            [
              74.9768225,
              18.4897169
            ],
            [
              74.9770475,
              18.4896017
            ],
            [
              74.977212,
              18.48952
            ],
            [
              74.9771695,
              18.489347
            ],
            [
              74.9767622,
              18.4895213
            ],
            [
              74.9767986,
              18.4896652
            ],
            [
              74.9765762,
              18.489718
            ],
            [
              74.9763634,
              18.4897704
            ],
            [
              74.976327,
              18.489773
            ],
            [
              74.9763731,
              18.4899
            ],
            [
              74.9760611,
              18.4899756
            ],
            [
              74.9761438,
              18.4902065
            ],
            [
              74.9760912,
              18.4903297
            ],
            [
              74.9761601,
              18.4903654
            ],
            [
              74.9761776,
              18.4903749
            ],
            [
              74.9761949,
              18.4903848
            ],
            [
              74.9762121,
              18.4903949
            ],
            [
              74.9762291,
              18.4904053
            ],
            [
              74.9762459,
              18.490416
            ],
            [
              74.9762625,
              18.490427
            ],
            [
              74.9762789,
              18.4904383
            ],
            [
              74.9762951,
              18.4904499
            ],
            [
              74.9763112,
              18.4904618
            ],
            [
              74.976327,
              18.4904739
            ],
            [
              74.9763426,
              18.4904864
            ],
            [
              74.9763579,
              18.490499
            ],
            [
              74.9763731,
              18.490512
            ],
            [
              74.976388,
              18.4905252
            ],
            [
              74.9764027,
              18.4905387
            ],
            [
              74.9764172,
              18.4905524
            ],
            [
              74.9764314,
              18.4905664
            ],
            [
              74.9764454,
              18.4905806
            ],
            [
              74.9764658,
              18.4906023
            ],
            [
              74.9764765,
              18.4906141
            ],
            [
              74.9764869,
              18.4906261
            ],
            [
              74.9764972,
              18.4906383
            ],
            [
              74.9765072,
              18.4906507
            ],
            [
              74.976517,
              18.4906632
            ],
            [
              74.9765266,
              18.4906759
            ],
            [
              74.9765359,
              18.4906888
            ],
            [
              74.9765451,
              18.4907018
            ],
            [
              74.976554,
              18.490715
            ],
            [
              74.9765587,
              18.4907223
            ],
            [
              74.9766393,
              18.4907
            ],
            [
              74.9768411,
              18.4906755
            ]
          ]
        ]
      }
    }
  ]
}