{
  "type": "FeatureCollection",
  "name": "Benwadi_Gat_459_Cadastre",
  "crs": {
    "type": "name",
    "properties": {
      "name": "urn:ogc:def:crs:OGC:1.3:CRS84"
    }
  },
  "features": [
    {
      "type": "Feature",
      "properties": {
        "parcel_id": "MH-AHM-KAR-BEN-459",
        "survey_no": "459",
        "gat_no": "459",
        "village": "Benwadi (बेनवडी)",
        "taluka": "Karjat (कर्जत)",
        "district": "Ahmednagar (अहमदनगर)",
        "state": "Maharashtra",
        "gis_code": "RVM2613272600130334420000",
        "owner_name": "रंजना मच्छिंद्र दवणे, वसंत जगन्नाथ गायकवाड",
        "all_owners": [
          "रंजना मच्छिंद्र दवणे",
          "वसंत जगन्नाथ गायकवाड",
          "राजेंद्र जगन्नाथ गायकवाड",
          "सूभाष बाळासाहेब गायकवाड",
          "सविता संतोष गायकवाड"
        ],
        "khata_no": "3268, 284, 259, 855, 857",
        "area_sqm": 66526.51,
        "area_acres": 16.44,
        "area_guntha": 657.57,
        "land_type": "जिरायत शेती (Jirayat - Rainfed Agricultural)",
        "source": "MahaBhuNaksha Official Live Cadastre",
        "status": "verified",
        "confidence_score": 98.8,
        "old_survey_area_acres": 16.44,
        "old_survey_area_sqm": 66526.51,
        "new_survey_area_acres": 16.44,
        "new_survey_area_sqm": 66526.51
      },
      "geometry": {
        "type": "Polygon",
        "coordinates": [
          [
            [
              74.9891712,
              18.4960985
            ],
            [
              74.9890694,
              18.4960278
            ],
            [
              74.989039,
              18.4952286
            ],
            [
              74.9898581,
              18.4952254
            ],
            [
              74.9896252,
              18.4930788
            ],
            [
              74.9892624,
              18.4928321
            ],
            [
              74.9886835,
              18.4927083
            ],
            [
              74.9887094,
              18.493136
            ],
            [
              74.9880533,
              18.4934551
            ],
            [
              74.9879491,
              18.4932801
            ],
            [
              74.9878484,
              18.493645
            ],
            [
              74.9878103,
              18.4937444
            ],
            [
              74.9875437,
              18.4951781
            ],
            [
              74.9875341,
              18.4952297
            ],
            [
              74.9874375,
              18.4957692
            ],
            [
              74.9876079,
              18.4959904
            ],
            [
              74.9876939,
              18.4961138
            ],
            [
              74.9888788,
              18.4961015
            ],
            [
              74.9891712,
              18.4960985
            ]
          ]
        ]
      }
    }
  ]
}