{
  "type": "FeatureCollection",
  "name": "Benwadi_Gat_162_Cadastre",
  "crs": {
    "type": "name",
    "properties": {
      "name": "urn:ogc:def:crs:OGC:1.3:CRS84"
    }
  },
  "features": [
    {
      "type": "Feature",
      "properties": {
        "parcel_id": "MH-AHM-KAR-BEN-162",
        "survey_no": "162",
        "gat_no": "162",
        "village": "Benwadi (बेनवडी)",
        "taluka": "Karjat (कर्जत)",
        "district": "Ahmednagar (अहमदनगर)",
        "state": "Maharashtra",
        "gis_code": "RVM2613272600130334420000",
        "owner_name": "लोचना हरीदास राऊत, ग्यानदेव नारायण गदादे, दत्तू\t नारायण  गदादे, अप्पासाहेब नारायण गदादे, प्रल्हाद नारायण गदादे, बापू सखाराम गदादे",
        "all_owners": [
          "लोचना हरीदास राऊत, ग्यानदेव नारायण गदादे, दत्तू\t नारायण  गदादे, अप्पासाहेब नारायण गदादे, प्रल्हाद नारायण गदादे",
          "बापू सखाराम गदादे",
          "राणी बापू गदादे"
        ],
        "khata_no": "123, 3093, 3176",
        "area_sqm": 18259.09,
        "area_acres": 4.51,
        "area_guntha": 180.48,
        "land_type": "जिरायत शेती (Jirayat - Rainfed Agricultural)",
        "source": "MahaBhuNaksha Official Live Cadastre",
        "status": "verified",
        "confidence_score": 98.8,
        "old_survey_area_acres": 4.51,
        "old_survey_area_sqm": 18259.09,
        "new_survey_area_acres": 4.51,
        "new_survey_area_sqm": 18259.09
      },
      "geometry": {
        "type": "Polygon",
        "coordinates": [
          [
            [
              74.9713495,
              18.4785169
            ],
            [
              74.9702597,
              18.4784022
            ],
            [
              74.9702549,
              18.4787736
            ],
            [
              74.97023,
              18.4796185
            ],
            [
              74.9702288,
              18.479878
            ],
            [
              74.9712473,
              18.4799915
            ],
            [
              74.9713495,
              18.4785169
            ]
          ]
        ]
      }
    }
  ]
}