{
  "type": "FeatureCollection",
  "name": "Benwadi_Gat_461_Cadastre",
  "crs": {
    "type": "name",
    "properties": {
      "name": "urn:ogc:def:crs:OGC:1.3:CRS84"
    }
  },
  "features": [
    {
      "type": "Feature",
      "properties": {
        "parcel_id": "MH-AHM-KAR-BEN-461",
        "survey_no": "461",
        "gat_no": "461",
        "village": "Benwadi (बेनवडी)",
        "taluka": "Karjat (कर्जत)",
        "district": "Ahmednagar (अहमदनगर)",
        "state": "Maharashtra",
        "gis_code": "RVM2613272600130334420000",
        "owner_name": "मच्छिंद्र भिमराव दवणे, मालन अंकुश सातव, लताबाई सोपान सातव, लहू भिमराव दवणे, शालन शहाजी भोसले, दत्तू भिमराव दवणे",
        "all_owners": [
          "मच्छिंद्र भिमराव दवणे, मालन अंकुश सातव, लताबाई सोपान सातव, लहू भिमराव दवणे, शालन शहाजी भोसले, दत्तू भिमराव दवणे"
        ],
        "khata_no": "210",
        "area_sqm": 3532.46,
        "area_acres": 0.87,
        "area_guntha": 34.92,
        "land_type": "जिरायत शेती (Jirayat - Rainfed Agricultural)",
        "source": "MahaBhuNaksha Official Live Cadastre",
        "status": "verified",
        "confidence_score": 98.8,
        "old_survey_area_acres": 0.87,
        "old_survey_area_sqm": 3532.46,
        "new_survey_area_acres": 0.87,
        "new_survey_area_sqm": 3532.46
      },
      "geometry": {
        "type": "Polygon",
        "coordinates": [
          [
            [
              74.9885982,
              18.4925419
            ],
            [
              74.9885493,
              18.4924882
            ],
            [
              74.988301,
              18.4916349
            ],
            [
              74.9880671,
              18.4916687
            ],
            [
              74.9883594,
              18.4929853
            ],
            [
              74.9884459,
              18.4929003
            ],
            [
              74.9884194,
              18.492628
            ],
            [
              74.9885982,
              18.4925419
            ]
          ]
        ]
      }
    }
  ]
}