{
  "type": "FeatureCollection",
  "name": "Benwadi_Gat_393_Cadastre",
  "crs": {
    "type": "name",
    "properties": {
      "name": "urn:ogc:def:crs:OGC:1.3:CRS84"
    }
  },
  "features": [
    {
      "type": "Feature",
      "properties": {
        "parcel_id": "MH-AHM-KAR-BEN-393",
        "survey_no": "393",
        "gat_no": "393",
        "village": "Benwadi (बेनवडी)",
        "taluka": "Karjat (कर्जत)",
        "district": "Ahmednagar (अहमदनगर)",
        "state": "Maharashtra",
        "gis_code": "RVM2613272600130334420000",
        "owner_name": "औदुंबर  हरिभाउ गदादे, सिद्धेश्वर मुरलीधर गदादे",
        "all_owners": [
          "औदुंबर  हरिभाउ गदादे",
          "सिद्धेश्वर मुरलीधर गदादे",
          "सचिन  महादेव \t गदादे",
          "पंढरीनाथ सावळा गदादे",
          "सचिन  महादेव \t गदादे",
          "सिद्धेश्वर मुरलीधर गदादे",
          "संभाजी \t रामा गदादे",
          "नंदकुमार  लक्ष्मण  गदादे",
          "गणेश  लक्ष्मण  गदादे",
          "सुरेश रंगनाथ गदादे",
          "झुंबर \t रामा  गदादे"
        ],
        "khata_no": "2577, 2556, 2578, 530, 2578, 2556, 2943, 2559, 2563, 2368, 2565",
        "area_sqm": 43477.2,
        "area_acres": 10.74,
        "area_guntha": 429.74,
        "land_type": "जिरायत शेती (Jirayat - Rainfed Agricultural)",
        "source": "MahaBhuNaksha Official Live Cadastre",
        "status": "verified",
        "confidence_score": 98.8,
        "old_survey_area_acres": 10.74,
        "old_survey_area_sqm": 43477.2,
        "new_survey_area_acres": 10.74,
        "new_survey_area_sqm": 43477.2
      },
      "geometry": {
        "type": "Polygon",
        "coordinates": [
          [
            [
              74.9905291,
              18.5082879
            ],
            [
              74.9910523,
              18.5082209
            ],
            [
              74.9907057,
              18.5067478
            ],
            [
              74.9903481,
              18.5052343
            ],
            [
              74.9889611,
              18.5051755
            ],
            [
              74.9889679,
              18.5052721
            ],
            [
              74.9895571,
              18.5069205
            ],
            [
              74.990072,
              18.5083464
            ],
            [
              74.9905291,
              18.5082879
            ]
          ]
        ]
      }
    }
  ]
}