{
  "type": "FeatureCollection",
  "name": "Benwadi_Gat_415_Cadastre",
  "crs": {
    "type": "name",
    "properties": {
      "name": "urn:ogc:def:crs:OGC:1.3:CRS84"
    }
  },
  "features": [
    {
      "type": "Feature",
      "properties": {
        "parcel_id": "MH-AHM-KAR-BEN-415",
        "survey_no": "415",
        "gat_no": "415",
        "village": "Benwadi (बेनवडी)",
        "taluka": "Karjat (कर्जत)",
        "district": "Ahmednagar (अहमदनगर)",
        "state": "Maharashtra",
        "gis_code": "RVM2613272600130334420000",
        "owner_name": "सविता गोरख गायकवाड, मच्छिंद्र ज्ञानदेव गायकवाड",
        "all_owners": [
          "सविता गोरख गायकवाड",
          "मच्छिंद्र ज्ञानदेव गायकवाड",
          "रामदास बहुमान गदादे",
          "सविता गोरख गायकवाड",
          "कोताबाई बबन गदादे",
          "मंगल चंद्रकांत गदादे",
          "सार्थक नवनाथ गदादे अ पा क सुनीता",
          "सरपंच ग्रुप ग्रामपंचायत बेनवडी कोळवडी ता कर्जत  जि अहमदनगर  करिता विद्यमान ग्रामसेवक",
          "शांताबाई गुलाब गायकवाड",
          "लक्ष्मण तुळशीराम गदादे",
          "मंगल चंद्रकांत गदादे, हनुमंत महादेव दवणे, शोभा  मोहन गदादे",
          "शालन संभू गायकवाड",
          "रोहिणी मधुकर कोहळे",
          "रवींद्र मधुकर कोहळे",
          "बंडू मधुकर कोहळे",
          "राजश्री धनंजय काळे",
          "बंडू मधूकर कोहळे",
          "रोहीणी मधूकर कोहळे",
          "वैशाली मच्छिंद्र गायकवाड"
        ],
        "khata_no": "2322, 221, 2243, 2322, 2765, 2810, 2907, 3029, 308, 3203, 3263, 344, 3457, 3458, 3459, 3460, 662, 663, 880",
        "area_sqm": 78210.88,
        "area_acres": 19.33,
        "area_guntha": 773.06,
        "land_type": "जिरायत शेती (Jirayat - Rainfed Agricultural)",
        "source": "MahaBhuNaksha Official Live Cadastre",
        "status": "verified",
        "confidence_score": 98.8,
        "old_survey_area_acres": 19.33,
        "old_survey_area_sqm": 78210.88,
        "new_survey_area_acres": 19.33,
        "new_survey_area_sqm": 78210.88
      },
      "geometry": {
        "type": "Polygon",
        "coordinates": [
          [
            [
              74.999259,
              18.4936309
            ],
            [
              74.997556,
              18.4943942
            ],
            [
              74.9968285,
              18.4946926
            ],
            [
              74.9962452,
              18.4949258
            ],
            [
              74.9960643,
              18.4945072
            ],
            [
              74.9955517,
              18.4947114
            ],
            [
              74.9957584,
              18.4951526
            ],
            [
              74.9954278,
              18.4952933
            ],
            [
              74.9964953,
              18.4957746
            ],
            [
              74.9966746,
              18.4963736
            ],
            [
              74.9968801,
              18.496381
            ],
            [
              74.9972926,
              18.4963898
            ],
            [
              74.9982581,
              18.4964221
            ],
            [
              74.9992592,
              18.496446
            ],
            [
              74.9992411,
              18.4963058
            ],
            [
              74.9992686,
              18.4947239
            ],
            [
              74.999259,
              18.4936309
            ]
          ]
        ]
      }
    }
  ]
}