{
  "type": "FeatureCollection",
  "name": "Benwadi_Gat_427_Drone_Resurvey",
  "crs": {
    "type": "name",
    "properties": {
      "name": "urn:ogc:def:crs:OGC:1.3:CRS84"
    }
  },
  "features": [
    {
      "type": "Feature",
      "properties": {
        "parcel_id": "MH-AHM-KAR-BEN-427",
        "survey_no": "427",
        "gat_no": "427",
        "village": "Benwadi (बेनवडी)",
        "taluka": "Karjat (कर्जत)",
        "district": "Ahmednagar (अहमदनगर)",
        "state": "Maharashtra",
        "gis_code": "RVM2613272600130334420000",
        "owner_name": "सुरेश रंगनाथ गदादे, सिद्धेश्वर मुरलीधर गदादे",
        "all_owners": [
          "सुरेश रंगनाथ गदादे",
          "सिद्धेश्वर मुरलीधर गदादे",
          "किसन अर्जुन गदादे",
          "महाराष्ट्र राज्याचे मा.राज्यपाल यांचे वतीने जलसंपदा विभाग महाराष्ट्र शासनाचे प्राधिकृत प्रतिनिधी – कार्यकारी अभियंता, कुकडी वितरण विभाग कोळवडी, ता.कर्जत यांचे कबुलीजबाबासाठी कुलमखत्यार म्हणून- कनिष्ठ लिपिक कुकडी वितरण बांधकाम विभाग कोळवडी ता कर्जत –",
          "महाराष्ट्र राज्याचे मा.राज्यपाल यांचे वतीने जलसंपदा विभाग महाराष्ट्र शासनाचे प्राधिकृत प्रतिनिधी – कार्यकारी अभियंता, कुकडी वितरण विभाग कोळवडी, ता.कर्जत यांचे कबुलीजबाबासाठी कुलमखत्यार म्हणून- कनिष्ठ लिपिक कुकडी वितरण बांधकाम विभाग कोळवडी ता कर्जत –",
          "महाराष्ट्र राज्याचे मा.राज्यपाल यांचे वतीने जलसंपदा विभाग महाराष्ट्र शासनाचे प्राधिकृत प्रतिनिधी – कार्यकारी अभियंता, कुकडी वितरण विभाग कोळवडी, ता.कर्जत यांचे कबुलीजबाबासाठी कुलमखत्यार म्हणून- कनिष्ठ लिपिक कुकडी वितरण बांधकाम विभाग कोळवडी ता कर्जत –",
          "महाराष्ट्र राज्याचे मा.राज्यपाल यांचे वतीने जलसंपदा विभाग महाराष्ट्र शासनाचे प्राधिकृत प्रतिनिधी – कार्यकारी अभियंता, कुकडी वितरण विभाग कोळवडी, ता.कर्जत यांचे कबुलीजबाबासाठी कुलमखत्यार म्हणून- कनिष्ठ लिपिक कुकडी वितरण बांधकाम विभाग कोळवडी ता कर्जत –",
          "लक्ष्मण बाबू गदादे",
          "महादेव बाबू गदादे",
          "सूखदेव अर्जून गदादे",
          "गोविंद कारभारी गदादे",
          "मारुती तुळशीराम गदादे, लक्ष्मण तुळशीराम गदादे, साळूबाई तुळशीराम गदादे"
        ],
        "khata_no": "2368, 2556, 2803, 3220, 3221, 3222, 3223, 522, 523, 552, 60, 81",
        "area_sqm": 37823.76,
        "area_acres": 9.35,
        "area_guntha": 373.86,
        "land_type": "जिरायत शेती (Jirayat - Rainfed Agricultural)",
        "source": "MahaBhuNaksha Official Live Cadastre",
        "status": "needs_review",
        "confidence_score": 85.5,
        "old_survey_area_acres": 9.35,
        "old_survey_area_sqm": 37823.76,
        "new_survey_area_acres": 9.55,
        "new_survey_area_sqm": 38618.1,
        "area_diff_pct": 2.1,
        "mean_shift_m": 1.8,
        "iou_overlap_pct": 93.9,
        "review_reason": "Drone RTK photogrammetry detects a 2.1% area discrepancy (794 m²) with a mean bund shift of 1.8m along the farm boundary. Verification recommended.",
        "bhunaksha_geometry": {
          "type": "Polygon",
          "coordinates": [
            [
              [
                74.9961652,
                18.4906827
              ],
              [
                74.9958039,
                18.4893393
              ],
              [
                74.9954245,
                18.4879058
              ],
              [
                74.9953918,
                18.4877867
              ],
              [
                74.9943873,
                18.4881452
              ],
              [
                74.9944412,
                18.4884111
              ],
              [
                74.9946879,
                18.489335
              ],
              [
                74.9951616,
                18.491072
              ],
              [
                74.9961652,
                18.4906827
              ]
            ]
          ]
        }
      },
      "geometry": {
        "type": "Polygon",
        "coordinates": [
          [
            [
              74.9961915,
              18.4907049
            ],
            [
              74.9958264,
              18.4893475
            ],
            [
              74.9954431,
              18.487899
            ],
            [
              74.99541,
              18.4877787
            ],
            [
              74.994395,
              18.4881409
            ],
            [
              74.9944495,
              18.4884096
            ],
            [
              74.9946988,
              18.4893432
            ],
            [
              74.9951774,
              18.4910983
            ],
            [
              74.9961915,
              18.4907049
            ]
          ]
        ]
      }
    }
  ]
}