{
  "type": "FeatureCollection",
  "name": "Benwadi_Gat_519_Cadastre",
  "crs": {
    "type": "name",
    "properties": {
      "name": "urn:ogc:def:crs:OGC:1.3:CRS84"
    }
  },
  "features": [
    {
      "type": "Feature",
      "properties": {
        "parcel_id": "MH-AHM-KAR-BEN-519",
        "survey_no": "519",
        "gat_no": "519",
        "village": "Benwadi (बेनवडी)",
        "taluka": "Karjat (कर्जत)",
        "district": "Ahmednagar (अहमदनगर)",
        "state": "Maharashtra",
        "gis_code": "RVM2613272600130334420000",
        "owner_name": "सरस्वती बाबूराव गदादे",
        "all_owners": [
          "सरस्वती बाबूराव गदादे"
        ],
        "khata_no": "414",
        "area_sqm": 4554.14,
        "area_acres": 1.13,
        "area_guntha": 45.01,
        "land_type": "जिरायत शेती (Jirayat - Rainfed Agricultural)",
        "source": "MahaBhuNaksha Official Live Cadastre",
        "status": "verified",
        "confidence_score": 98.8,
        "old_survey_area_acres": 1.13,
        "old_survey_area_sqm": 4554.14,
        "new_survey_area_acres": 1.13,
        "new_survey_area_sqm": 4554.14
      },
      "geometry": {
        "type": "Polygon",
        "coordinates": [
          [
            [
              74.983253,
              18.4936907
            ],
            [
              74.9832407,
              18.4936053
            ],
            [
              74.9830198,
              18.4936055
            ],
            [
              74.9829322,
              18.4935016
            ],
            [
              74.9826244,
              18.4935359
            ],
            [
              74.9822777,
              18.4935753
            ],
            [
              74.9819659,
              18.4936109
            ],
            [
              74.9814414,
              18.4936774
            ],
            [
              74.9811972,
              18.4937103
            ],
            [
              74.9812402,
              18.4938911
            ],
            [
              74.9816218,
              18.4938513
            ],
            [
              74.982034,
              18.493811
            ],
            [
              74.9822974,
              18.4937855
            ],
            [
              74.9827877,
              18.493736
            ],
            [
              74.983253,
              18.4936907
            ]
          ]
        ]
      }
    }
  ]
}