{
  "type": "FeatureCollection",
  "name": "Benwadi_Gat_159_Drone_Resurvey",
  "crs": {
    "type": "name",
    "properties": {
      "name": "urn:ogc:def:crs:OGC:1.3:CRS84"
    }
  },
  "features": [
    {
      "type": "Feature",
      "properties": {
        "parcel_id": "MH-AHM-KAR-BEN-159",
        "survey_no": "159",
        "gat_no": "159",
        "village": "Benwadi (बेनवडी)",
        "taluka": "Karjat (कर्जत)",
        "district": "Ahmednagar (अहमदनगर)",
        "state": "Maharashtra",
        "gis_code": "RVM2613272600130334420000",
        "owner_name": "श्रीपती संभाजी गदादे, अंकूश संभाजी गदादे",
        "all_owners": [
          "श्रीपती संभाजी गदादे",
          "अंकूश संभाजी गदादे",
          "दादासाहेब संभाजी गदादे",
          "महाराष्ट्र राज्याचे मा.राज्यपाल यांचे वतीने जलसंपदा विभाग महाराष्ट्र शासनाचे प्राधिकृत प्रतिनिधी – कार्यकारी अभियंता, कुकडी वितरण विभाग कोळवडी, ता.कर्जत यांचे कबुलीजबाबासाठी कुलमखत्यार म्हणून- कनिष्ठ लिपिक कुकडी वितरण बांधकाम विभाग कोळवडी ता कर्जत –",
          "दादासाहेब संभाजी गदादे",
          "महाराष्ट्र राज्याचे मा.राज्यपाल यांचे वतीने जलसंपदा विभाग महाराष्ट्र शासनाचे प्राधिकृत प्रतिनिधी – कार्यकारी अभियंता, कुकडी वितरण विभाग कोळवडी, ता.कर्जत यांचे कबुलीजबाबासाठी कुलमखत्यार म्हणून- कनिष्ठ लिपिक कुकडी वितरण बांधकाम विभाग कोळवडी ता कर्जत –",
          "अंकूश संभाजी गदादे",
          "महाराष्ट्र राज्याचे मा.राज्यपाल यांचे वतीने जलसंपदा विभाग महाराष्ट्र शासनाचे प्राधिकृत प्रतिनिधी – कार्यकारी अभियंता, कुकडी वितरण विभाग कोळवडी, ता.कर्जत यांचे कबुलीजबाबासाठी कुलमखत्यार म्हणून- कनिष्ठ लिपिक कुकडी वितरण बांधकाम विभाग कोळवडी ता कर्जत –",
          "श्रीपती संभाजी गदादे",
          "श्रीपती संभाजी गदादे",
          "अंकूश संभाजी गदादे",
          "दादासाहेब संभाजी गदादे"
        ],
        "khata_no": "492, 493, 494, 3128, 494, 1273, 493, 3129, 492, 492, 493, 494",
        "area_sqm": 63361.0,
        "area_acres": 15.66,
        "area_guntha": 626.28,
        "land_type": "जिरायत शेती (Jirayat - Rainfed Agricultural)",
        "source": "MahaBhuNaksha Official Live Cadastre",
        "status": "needs_review",
        "confidence_score": 84.5,
        "old_survey_area_acres": 15.66,
        "old_survey_area_sqm": 63361.0,
        "new_survey_area_acres": 16.11,
        "new_survey_area_sqm": 65198.5,
        "area_diff_pct": 2.9,
        "mean_shift_m": 1.8,
        "iou_overlap_pct": 93.1,
        "review_reason": "Drone RTK photogrammetry detects a 2.9% area discrepancy (1838 m²) with a mean bund shift of 1.8m along the farm boundary. Verification recommended.",
        "bhunaksha_geometry": {
          "type": "Polygon",
          "coordinates": [
            [
              [
                74.9708192,
                18.4811189
              ],
              [
                74.9729302,
                18.4810455
              ],
              [
                74.9729755,
                18.4809517
              ],
              [
                74.9732494,
                18.4802393
              ],
              [
                74.9718303,
                18.4800577
              ],
              [
                74.9718043,
                18.4795016
              ],
              [
                74.9715169,
                18.479469
              ],
              [
                74.9715185,
                18.4793067
              ],
              [
                74.9716221,
                18.4793063
              ],
              [
                74.971673,
                18.4785418
              ],
              [
                74.9713495,
                18.4785169
              ],
              [
                74.9712473,
                18.4799915
              ],
              [
                74.9702288,
                18.479878
              ],
              [
                74.97023,
                18.4796185
              ],
              [
                74.9691349,
                18.479428
              ],
              [
                74.9690626,
                18.4799953
              ],
              [
                74.9690009,
                18.4804894
              ],
              [
                74.9693722,
                18.4811767
              ],
              [
                74.9708192,
                18.4811189
              ]
            ]
          ]
        }
      },
      "geometry": {
        "type": "Polygon",
        "coordinates": [
          [
            [
              74.9708276,
              18.4811249
            ],
            [
              74.972969,
              18.4810504
            ],
            [
              74.973015,
              18.4809552
            ],
            [
              74.9732928,
              18.4802326
            ],
            [
              74.9718533,
              18.4800484
            ],
            [
              74.9718269,
              18.4794843
            ],
            [
              74.9715354,
              18.4794512
            ],
            [
              74.971537,
              18.4792866
            ],
            [
              74.9716421,
              18.4792862
            ],
            [
              74.9716937,
              18.4785107
            ],
            [
              74.9713656,
              18.4784854
            ],
            [
              74.9712619,
              18.4799812
            ],
            [
              74.9702287,
              18.4798661
            ],
            [
              74.9702299,
              18.4796029
            ],
            [
              74.9691191,
              18.4794096
            ],
            [
              74.9690457,
              18.4799851
            ],
            [
              74.9689832,
              18.4804863
            ],
            [
              74.9693598,
              18.4811835
            ],
            [
              74.9708276,
              18.4811249
            ]
          ]
        ]
      }
    }
  ]
}