{
  "type": "FeatureCollection",
  "name": "Benwadi_Gat_438_Cadastre",
  "crs": {
    "type": "name",
    "properties": {
      "name": "urn:ogc:def:crs:OGC:1.3:CRS84"
    }
  },
  "features": [
    {
      "type": "Feature",
      "properties": {
        "parcel_id": "MH-AHM-KAR-BEN-438",
        "survey_no": "438",
        "gat_no": "438",
        "village": "Benwadi (बेनवडी)",
        "taluka": "Karjat (कर्जत)",
        "district": "Ahmednagar (अहमदनगर)",
        "state": "Maharashtra",
        "gis_code": "RVM2613272600130334420000",
        "owner_name": "साखरबाई दत्तु गदादे, चंद्रकांत - - -, विशाल चंद्रकांत गदादे",
        "all_owners": [
          "साखरबाई दत्तु गदादे",
          "चंद्रकांत - - -, विशाल चंद्रकांत गदादे",
          "मच्छिंद्र ज्ञानदेव गायकवाड",
          "गुलाब ज्ञानदेव गायकवाड",
          "संभू ज्ञानदेव गायकवाड",
          "दत्तात्रय संभाजी गदादे",
          "चंद्रकांत संभाजी गदादे"
        ],
        "khata_no": "1112, 1113, 221, 57, 716, 91, 948",
        "area_sqm": 27493.04,
        "area_acres": 6.79,
        "area_guntha": 271.75,
        "land_type": "जिरायत शेती (Jirayat - Rainfed Agricultural)",
        "source": "MahaBhuNaksha Official Live Cadastre",
        "status": "verified",
        "confidence_score": 98.8,
        "old_survey_area_acres": 6.79,
        "old_survey_area_sqm": 27493.04,
        "new_survey_area_acres": 6.79,
        "new_survey_area_sqm": 27493.04
      },
      "geometry": {
        "type": "Polygon",
        "coordinates": [
          [
            [
              74.9971696,
              18.4933325
            ],
            [
              74.9967652,
              18.4922725
            ],
            [
              74.9957789,
              18.4929756
            ],
            [
              74.9942276,
              18.4940867
            ],
            [
              74.9941365,
              18.4941003
            ],
            [
              74.9944942,
              18.4944403
            ],
            [
              74.995556,
              18.4940013
            ],
            [
              74.9971696,
              18.4933325
            ]
          ]
        ]
      }
    }
  ]
}