{
  "type": "FeatureCollection",
  "name": "Benwadi_Gat_65_Cadastre",
  "crs": {
    "type": "name",
    "properties": {
      "name": "urn:ogc:def:crs:OGC:1.3:CRS84"
    }
  },
  "features": [
    {
      "type": "Feature",
      "properties": {
        "parcel_id": "MH-AHM-KAR-BEN-65",
        "survey_no": "65",
        "gat_no": "65",
        "village": "Benwadi (बेनवडी)",
        "taluka": "Karjat (कर्जत)",
        "district": "Ahmednagar (अहमदनगर)",
        "state": "Maharashtra",
        "gis_code": "RVM2613272600130334420000",
        "owner_name": "व्यंकटेश नारायण गदादे",
        "all_owners": [
          "व्यंकटेश नारायण गदादे"
        ],
        "khata_no": "3359",
        "area_sqm": 1465.26,
        "area_acres": 0.36,
        "area_guntha": 14.48,
        "land_type": "जिरायत शेती (Jirayat - Rainfed Agricultural)",
        "source": "MahaBhuNaksha Official Live Cadastre",
        "status": "verified",
        "confidence_score": 98.8,
        "old_survey_area_acres": 0.36,
        "old_survey_area_sqm": 1465.26,
        "new_survey_area_acres": 0.36,
        "new_survey_area_sqm": 1465.26
      },
      "geometry": {
        "type": "Polygon",
        "coordinates": [
          [
            [
              74.9749722,
              18.4902285
            ],
            [
              74.9745616,
              18.4904839
            ],
            [
              74.9746595,
              18.4906784
            ],
            [
              74.9746998,
              18.4907566
            ],
            [
              74.9749413,
              18.4906123
            ],
            [
              74.9749206,
              18.4905688
            ],
            [
              74.9749995,
              18.4905226
            ],
            [
              74.9749722,
              18.4902285
            ]
          ]
        ]
      }
    }
  ]
}