{
  "type": "FeatureCollection",
  "name": "Benwadi_Gat_12_Cadastre",
  "crs": {
    "type": "name",
    "properties": {
      "name": "urn:ogc:def:crs:OGC:1.3:CRS84"
    }
  },
  "features": [
    {
      "type": "Feature",
      "properties": {
        "parcel_id": "MH-AHM-KAR-BEN-12",
        "survey_no": "12",
        "gat_no": "12",
        "village": "Benwadi (बेनवडी)",
        "taluka": "Karjat (कर्जत)",
        "district": "Ahmednagar (अहमदनगर)",
        "state": "Maharashtra",
        "gis_code": "RVM2613272600130334420000",
        "owner_name": "विजय सिताराम घंटे",
        "all_owners": [
          "विजय सिताराम घंटे"
        ],
        "khata_no": "293",
        "area_sqm": 3134.6,
        "area_acres": 0.77,
        "area_guntha": 30.98,
        "land_type": "जिरायत शेती (Jirayat - Rainfed Agricultural)",
        "source": "MahaBhuNaksha Official Live Cadastre",
        "status": "verified",
        "confidence_score": 98.8,
        "old_survey_area_acres": 0.77,
        "old_survey_area_sqm": 3134.6,
        "new_survey_area_acres": 0.77,
        "new_survey_area_sqm": 3134.6
      },
      "geometry": {
        "type": "Polygon",
        "coordinates": [
          [
            [
              74.9825799,
              18.490872
            ],
            [
              74.9825202,
              18.4902367
            ],
            [
              74.9818084,
              18.491127
            ],
            [
              74.9819918,
              18.4912395
            ],
            [
              74.9822852,
              18.4908825
            ],
            [
              74.9825799,
              18.490872
            ]
          ]
        ]
      }
    }
  ]
}