{
  "type": "FeatureCollection",
  "name": "Benwadi_Gat_182_Cadastre",
  "crs": {
    "type": "name",
    "properties": {
      "name": "urn:ogc:def:crs:OGC:1.3:CRS84"
    }
  },
  "features": [
    {
      "type": "Feature",
      "properties": {
        "parcel_id": "MH-AHM-KAR-BEN-182",
        "survey_no": "182",
        "gat_no": "182",
        "village": "Benwadi (बेनवडी)",
        "taluka": "Karjat (कर्जत)",
        "district": "Ahmednagar (अहमदनगर)",
        "state": "Maharashtra",
        "gis_code": "RVM2613272600130334420000",
        "owner_name": "पंढरीनाथ राजाराम गदादे, उद्धव श्रीराम गदादे, विश्वनाथ श्रीराम गदादे, जगन्नाथ श्रीराम गदादे",
        "all_owners": [
          "पंढरीनाथ राजाराम गदादे",
          "उद्धव श्रीराम गदादे, विश्वनाथ श्रीराम गदादे, जगन्नाथ श्रीराम गदादे"
        ],
        "khata_no": "140, 3081",
        "area_sqm": 803.94,
        "area_acres": 0.2,
        "area_guntha": 7.95,
        "land_type": "जिरायत शेती (Jirayat - Rainfed Agricultural)",
        "source": "MahaBhuNaksha Official Live Cadastre",
        "status": "verified",
        "confidence_score": 98.8,
        "old_survey_area_acres": 0.2,
        "old_survey_area_sqm": 803.94,
        "new_survey_area_acres": 0.2,
        "new_survey_area_sqm": 803.94
      },
      "geometry": {
        "type": "Polygon",
        "coordinates": [
          [
            [
              74.9644342,
              18.482145
            ],
            [
              74.9644614,
              18.4823554
            ],
            [
              74.9647505,
              18.4825048
            ],
            [
              74.964633,
              18.4821154
            ],
            [
              74.9644342,
              18.482145
            ]
          ]
        ]
      }
    }
  ]
}