{
  "type": "FeatureCollection",
  "name": "Benwadi_Gat_288_Drone_Resurvey",
  "crs": {
    "type": "name",
    "properties": {
      "name": "urn:ogc:def:crs:OGC:1.3:CRS84"
    }
  },
  "features": [
    {
      "type": "Feature",
      "properties": {
        "parcel_id": "MH-AHM-KAR-BEN-288",
        "survey_no": "288",
        "gat_no": "288",
        "village": "Benwadi (बेनवडी)",
        "taluka": "Karjat (कर्जत)",
        "district": "Ahmednagar (अहमदनगर)",
        "state": "Maharashtra",
        "gis_code": "RVM2613272600130334420000",
        "owner_name": "बबन रघुनाथ धुमाळ, बाळासाहेब रघुनाथ धुमाळ, भाऊसाहेब रघुनाथ धुमाळ",
        "all_owners": [
          "बबन रघुनाथ धुमाळ, बाळासाहेब रघुनाथ धुमाळ, भाऊसाहेब रघुनाथ धुमाळ"
        ],
        "khata_no": "3033",
        "area_sqm": 4484.99,
        "area_acres": 1.11,
        "area_guntha": 44.33,
        "land_type": "जिरायत शेती (Jirayat - Rainfed Agricultural)",
        "source": "MahaBhuNaksha Official Live Cadastre",
        "status": "needs_review",
        "confidence_score": 84.4,
        "old_survey_area_acres": 1.11,
        "old_survey_area_sqm": 4484.99,
        "new_survey_area_acres": 1.14,
        "new_survey_area_sqm": 4619.5,
        "area_diff_pct": 3.0,
        "mean_shift_m": 2.1,
        "iou_overlap_pct": 93.0,
        "review_reason": "Drone RTK photogrammetry detects a 3.0% area discrepancy (135 m²) with a mean bund shift of 2.1m along the farm boundary. Verification recommended.",
        "bhunaksha_geometry": {
          "type": "Polygon",
          "coordinates": [
            [
              [
                74.9705597,
                18.5002387
              ],
              [
                74.9707033,
                18.4999875
              ],
              [
                74.9698479,
                18.5001726
              ],
              [
                74.9689402,
                18.5003611
              ],
              [
                74.9689596,
                18.5005644
              ],
              [
                74.9689592,
                18.5006039
              ],
              [
                74.9696868,
                18.5004321
              ],
              [
                74.9705597,
                18.5002387
              ]
            ]
          ]
        }
      },
      "geometry": {
        "type": "Polygon",
        "coordinates": [
          [
            [
              74.9705876,
              18.5002501
            ],
            [
              74.9707333,
              18.4999952
            ],
            [
              74.9698652,
              18.500183
            ],
            [
              74.968944,
              18.5003743
            ],
            [
              74.9689637,
              18.5005807
            ],
            [
              74.9689633,
              18.5006208
            ],
            [
              74.9697017,
              18.5004464
            ],
            [
              74.9705876,
              18.5002501
            ]
          ]
        ]
      }
    }
  ]
}