{
  "type": "FeatureCollection",
  "name": "Benwadi_Gat_535_Cadastre",
  "crs": {
    "type": "name",
    "properties": {
      "name": "urn:ogc:def:crs:OGC:1.3:CRS84"
    }
  },
  "features": [
    {
      "type": "Feature",
      "properties": {
        "parcel_id": "MH-AHM-KAR-BEN-535",
        "survey_no": "535",
        "gat_no": "535",
        "village": "Benwadi (बेनवडी)",
        "taluka": "Karjat (कर्जत)",
        "district": "Ahmednagar (अहमदनगर)",
        "state": "Maharashtra",
        "gis_code": "RVM2613272600130334420000",
        "owner_name": "राजेश शरद शहा, राहुल शरद शहा, रुपाली निलेश शहा, शरद हेमचंद शहा",
        "all_owners": [
          "राजेश शरद शहा, राहुल शरद शहा, रुपाली निलेश शहा, शरद हेमचंद शहा"
        ],
        "khata_no": "607",
        "area_sqm": 48268.17,
        "area_acres": 11.93,
        "area_guntha": 477.1,
        "land_type": "जिरायत शेती (Jirayat - Rainfed Agricultural)",
        "source": "MahaBhuNaksha Official Live Cadastre",
        "status": "verified",
        "confidence_score": 98.8,
        "old_survey_area_acres": 11.93,
        "old_survey_area_sqm": 48268.17,
        "new_survey_area_acres": 11.93,
        "new_survey_area_sqm": 48268.17
      },
      "geometry": {
        "type": "Polygon",
        "coordinates": [
          [
            [
              74.9794489,
              18.4971422
            ],
            [
              74.9793304,
              18.4962063
            ],
            [
              74.9791956,
              18.4952639
            ],
            [
              74.9790493,
              18.4952931
            ],
            [
              74.9786278,
              18.4953875
            ],
            [
              74.978342,
              18.4954519
            ],
            [
              74.9780177,
              18.4955188
            ],
            [
              74.9770913,
              18.4957066
            ],
            [
              74.9775803,
              18.4970546
            ],
            [
              74.9779153,
              18.4979422
            ],
            [
              74.977955,
              18.4980068
            ],
            [
              74.9780302,
              18.4979406
            ],
            [
              74.9794489,
              18.4971422
            ]
          ]
        ]
      }
    }
  ]
}