{
  "type": "FeatureCollection",
  "name": "Benwadi_Gat_72_Cadastre",
  "crs": {
    "type": "name",
    "properties": {
      "name": "urn:ogc:def:crs:OGC:1.3:CRS84"
    }
  },
  "features": [
    {
      "type": "Feature",
      "properties": {
        "parcel_id": "MH-AHM-KAR-BEN-72",
        "survey_no": "72",
        "gat_no": "72",
        "village": "Benwadi (बेनवडी)",
        "taluka": "Karjat (कर्जत)",
        "district": "Ahmednagar (अहमदनगर)",
        "state": "Maharashtra",
        "gis_code": "RVM2613272600130334420000",
        "owner_name": "कलावती बापूराव, देवराव चंदर खुडे",
        "all_owners": [
          "कलावती बापूराव",
          "देवराव चंदर खुडे",
          "निलावती बापूराव भिसे",
          "यमुना साहेबराव दिवटे"
        ],
        "khata_no": "2648, 2649, 2650, 2754",
        "area_sqm": 1061.08,
        "area_acres": 0.26,
        "area_guntha": 10.49,
        "land_type": "जिरायत शेती (Jirayat - Rainfed Agricultural)",
        "source": "MahaBhuNaksha Official Live Cadastre",
        "status": "verified",
        "confidence_score": 98.8,
        "old_survey_area_acres": 0.26,
        "old_survey_area_sqm": 1061.08,
        "new_survey_area_acres": 0.26,
        "new_survey_area_sqm": 1061.08
      },
      "geometry": {
        "type": "Polygon",
        "coordinates": [
          [
            [
              74.9771272,
              18.4891741
            ],
            [
              74.9770688,
              18.4889515
            ],
            [
              74.9768371,
              18.4890939
            ],
            [
              74.9768299,
              18.4890982
            ],
            [
              74.9766724,
              18.4891935
            ],
            [
              74.9767182,
              18.4893667
            ],
            [
              74.9771272,
              18.4891741
            ]
          ]
        ]
      }
    }
  ]
}