{
  "type": "FeatureCollection",
  "name": "Benwadi_Gat_363_Cadastre",
  "crs": {
    "type": "name",
    "properties": {
      "name": "urn:ogc:def:crs:OGC:1.3:CRS84"
    }
  },
  "features": [
    {
      "type": "Feature",
      "properties": {
        "parcel_id": "MH-AHM-KAR-BEN-363",
        "survey_no": "363",
        "gat_no": "363",
        "village": "Benwadi (बेनवडी)",
        "taluka": "Karjat (कर्जत)",
        "district": "Ahmednagar (अहमदनगर)",
        "state": "Maharashtra",
        "gis_code": "RVM2613272600130334420000",
        "owner_name": "खंडू निवृत्ती गदादे",
        "all_owners": [
          "खंडू निवृत्ती गदादे"
        ],
        "khata_no": "44",
        "area_sqm": 7196.94,
        "area_acres": 1.78,
        "area_guntha": 71.14,
        "land_type": "जिरायत शेती (Jirayat - Rainfed Agricultural)",
        "source": "MahaBhuNaksha Official Live Cadastre",
        "status": "verified",
        "confidence_score": 98.8,
        "old_survey_area_acres": 1.78,
        "old_survey_area_sqm": 7196.94,
        "new_survey_area_acres": 1.78,
        "new_survey_area_sqm": 7196.94
      },
      "geometry": {
        "type": "Polygon",
        "coordinates": [
          [
            [
              74.9775564,
              18.499997
            ],
            [
              74.9773588,
              18.4992172
            ],
            [
              74.9763905,
              18.4993707
            ],
            [
              74.9768512,
              18.499892
            ],
            [
              74.9770163,
              18.5000978
            ],
            [
              74.9775564,
              18.499997
            ]
          ]
        ]
      }
    }
  ]
}