{
  "type": "FeatureCollection",
  "name": "Benwadi_Gat_95_Drone_Resurvey",
  "crs": {
    "type": "name",
    "properties": {
      "name": "urn:ogc:def:crs:OGC:1.3:CRS84"
    }
  },
  "features": [
    {
      "type": "Feature",
      "properties": {
        "parcel_id": "MH-AHM-KAR-BEN-95",
        "survey_no": "95",
        "gat_no": "95",
        "village": "Benwadi (बेनवडी)",
        "taluka": "Karjat (कर्जत)",
        "district": "Ahmednagar (अहमदनगर)",
        "state": "Maharashtra",
        "gis_code": "RVM2613272600130334420000",
        "owner_name": "जालिंदर पांडुरंग मोढळे, महाराष्ट्र राज्याचे मा.राज्यपाल यांचे वतीने जलसंपदा विभाग महाराष्ट्र शासनाचे प्राधिकृत प्रतिनिधी – कार्यकारी अभियंता, कुकडी वितरण विभाग कोळवडी, ता.कर्जत यांचे कबुलीजबाबासाठी कुलमखत्यार म्हणून- कनिष्ठ लिपिक कुकडी वितरण बांधकाम विभाग कोळवडी ता कर्जत –",
        "all_owners": [
          "जालिंदर पांडुरंग मोढळे",
          "महाराष्ट्र राज्याचे मा.राज्यपाल यांचे वतीने जलसंपदा विभाग महाराष्ट्र शासनाचे प्राधिकृत प्रतिनिधी – कार्यकारी अभियंता, कुकडी वितरण विभाग कोळवडी, ता.कर्जत यांचे कबुलीजबाबासाठी कुलमखत्यार म्हणून- कनिष्ठ लिपिक कुकडी वितरण बांधकाम विभाग कोळवडी ता कर्जत –",
          "महाराष्ट्र राज्याचे मा.राज्यपाल यांचे वतीने जलसंपदा विभाग महाराष्ट्र शासनाचे प्राधिकृत प्रतिनिधी – कार्यकारी अभियंता, कुकडी वितरण विभाग कोळवडी, ता.कर्जत यांचे कबुलीजबाबासाठी कुलमखत्यार म्हणून- कनिष्ठ लिपिक कुकडी वितरण बांधकाम विभाग कोळवडी ता कर्जत –",
          "बापू देवराव खूडे",
          "यशवंत देवराव खूडे"
        ],
        "khata_no": "3113, 3147, 3148, 719, 720",
        "area_sqm": 28050.5,
        "area_acres": 6.93,
        "area_guntha": 277.26,
        "land_type": "जिरायत शेती (Jirayat - Rainfed Agricultural)",
        "source": "MahaBhuNaksha Official Live Cadastre",
        "status": "needs_review",
        "confidence_score": 85.2,
        "old_survey_area_acres": 6.93,
        "old_survey_area_sqm": 28050.5,
        "new_survey_area_acres": 7.09,
        "new_survey_area_sqm": 28695.7,
        "area_diff_pct": 2.3,
        "mean_shift_m": 1.8,
        "iou_overlap_pct": 93.7,
        "review_reason": "Drone RTK photogrammetry detects a 2.3% area discrepancy (645 m²) with a mean bund shift of 1.8m along the farm boundary. Verification recommended.",
        "bhunaksha_geometry": {
          "type": "Polygon",
          "coordinates": [
            [
              [
                74.9809752,
                18.4881521
              ],
              [
                74.9806904,
                18.4876083
              ],
              [
                74.9804275,
                18.4871011
              ],
              [
                74.9794403,
                18.4876268
              ],
              [
                74.9789,
                18.4879135
              ],
              [
                74.9785209,
                18.4881136
              ],
              [
                74.9778556,
                18.4884679
              ],
              [
                74.9782732,
                18.4888855
              ],
              [
                74.9787479,
                18.488746
              ],
              [
                74.9796669,
                18.4884819
              ],
              [
                74.9800715,
                18.4883695
              ],
              [
                74.9805918,
                18.4882462
              ],
              [
                74.9808109,
                18.4881996
              ],
              [
                74.9809752,
                18.4881521
              ]
            ]
          ]
        }
      },
      "geometry": {
        "type": "Polygon",
        "coordinates": [
          [
            [
              74.9809926,
              18.4881683
            ],
            [
              74.9807045,
              18.4876182
            ],
            [
              74.9804386,
              18.4871052
            ],
            [
              74.9794401,
              18.487637
            ],
            [
              74.9788936,
              18.4879269
            ],
            [
              74.9785102,
              18.4881293
            ],
            [
              74.9778373,
              18.4884877
            ],
            [
              74.9782597,
              18.4889101
            ],
            [
              74.9787398,
              18.488769
            ],
            [
              74.9796693,
              18.4885018
            ],
            [
              74.9800785,
              18.4883882
            ],
            [
              74.9806048,
              18.4882634
            ],
            [
              74.9808264,
              18.4882163
            ],
            [
              74.9809926,
              18.4881683
            ]
          ]
        ]
      }
    }
  ]
}