{
  "type": "FeatureCollection",
  "name": "Benwadi_Gat_112_Cadastre",
  "crs": {
    "type": "name",
    "properties": {
      "name": "urn:ogc:def:crs:OGC:1.3:CRS84"
    }
  },
  "features": [
    {
      "type": "Feature",
      "properties": {
        "parcel_id": "MH-AHM-KAR-BEN-112",
        "survey_no": "112",
        "gat_no": "112",
        "village": "Benwadi (बेनवडी)",
        "taluka": "Karjat (कर्जत)",
        "district": "Ahmednagar (अहमदनगर)",
        "state": "Maharashtra",
        "gis_code": "RVM2613272600130334420000",
        "owner_name": "अविनाश कल्याण खुडे",
        "all_owners": [
          "अविनाश कल्याण खुडे"
        ],
        "khata_no": "1045",
        "area_sqm": 652.52,
        "area_acres": 0.16,
        "area_guntha": 6.45,
        "land_type": "जिरायत शेती (Jirayat - Rainfed Agricultural)",
        "source": "MahaBhuNaksha Official Live Cadastre",
        "status": "verified",
        "confidence_score": 98.8,
        "old_survey_area_acres": 0.16,
        "old_survey_area_sqm": 652.52,
        "new_survey_area_acres": 0.16,
        "new_survey_area_sqm": 652.52
      },
      "geometry": {
        "type": "Polygon",
        "coordinates": [
          [
            [
              74.9754346,
              18.4885562
            ],
            [
              74.9753088,
              18.4885904
            ],
            [
              74.9753685,
              18.48882
            ],
            [
              74.975412,
              18.4889809
            ],
            [
              74.9755513,
              18.4889481
            ],
            [
              74.9754987,
              18.4887692
            ],
            [
              74.9754346,
              18.4885562
            ]
          ]
        ]
      }
    }
  ]
}