{
  "type": "FeatureCollection",
  "name": "Benwadi_Gat_391_Cadastre",
  "crs": {
    "type": "name",
    "properties": {
      "name": "urn:ogc:def:crs:OGC:1.3:CRS84"
    }
  },
  "features": [
    {
      "type": "Feature",
      "properties": {
        "parcel_id": "MH-AHM-KAR-BEN-391",
        "survey_no": "391",
        "gat_no": "391",
        "village": "Benwadi (बेनवडी)",
        "taluka": "Karjat (कर्जत)",
        "district": "Ahmednagar (अहमदनगर)",
        "state": "Maharashtra",
        "gis_code": "RVM2613272600130334420000",
        "owner_name": "शिवाजी लक्ष्मण चव्हाण, बापू एकनाथ गायकवाड",
        "all_owners": [
          "शिवाजी लक्ष्मण चव्हाण",
          "बापू एकनाथ गायकवाड"
        ],
        "khata_no": "1015, 161",
        "area_sqm": 8090.56,
        "area_acres": 2.0,
        "area_guntha": 79.97,
        "land_type": "जिरायत शेती (Jirayat - Rainfed Agricultural)",
        "source": "MahaBhuNaksha Official Live Cadastre",
        "status": "verified",
        "confidence_score": 98.8,
        "old_survey_area_acres": 2.0,
        "old_survey_area_sqm": 8090.56,
        "new_survey_area_acres": 2.0,
        "new_survey_area_sqm": 8090.56
      },
      "geometry": {
        "type": "Polygon",
        "coordinates": [
          [
            [
              74.987236,
              18.5044937
            ],
            [
              74.9872113,
              18.5050041
            ],
            [
              74.9886441,
              18.5051482
            ],
            [
              74.9886189,
              18.5046745
            ],
            [
              74.987236,
              18.5044937
            ]
          ]
        ]
      }
    }
  ]
}