{
  "type": "FeatureCollection",
  "name": "Benwadi_Gat_295_Cadastre",
  "crs": {
    "type": "name",
    "properties": {
      "name": "urn:ogc:def:crs:OGC:1.3:CRS84"
    }
  },
  "features": [
    {
      "type": "Feature",
      "properties": {
        "parcel_id": "MH-AHM-KAR-BEN-295",
        "survey_no": "295",
        "gat_no": "295",
        "village": "Benwadi (बेनवडी)",
        "taluka": "Karjat (कर्जत)",
        "district": "Ahmednagar (अहमदनगर)",
        "state": "Maharashtra",
        "gis_code": "RVM2613272600130334420000",
        "owner_name": "बाळू भगवान धुमाळ",
        "all_owners": [
          "बाळू भगवान धुमाळ"
        ],
        "khata_no": "3377",
        "area_sqm": 6105.1,
        "area_acres": 1.51,
        "area_guntha": 60.34,
        "land_type": "जिरायत शेती (Jirayat - Rainfed Agricultural)",
        "source": "MahaBhuNaksha Official Live Cadastre",
        "status": "verified",
        "confidence_score": 98.8,
        "old_survey_area_acres": 1.51,
        "old_survey_area_sqm": 6105.1,
        "new_survey_area_acres": 1.51,
        "new_survey_area_sqm": 6105.1
      },
      "geometry": {
        "type": "Polygon",
        "coordinates": [
          [
            [
              74.9685005,
              18.5034755
            ],
            [
              74.9692149,
              18.5034205
            ],
            [
              74.9691505,
              18.5029518
            ],
            [
              74.968402,
              18.5030304
            ],
            [
              74.9684288,
              18.5031571
            ],
            [
              74.9678839,
              18.5032202
            ],
            [
              74.9678905,
              18.5034392
            ],
            [
              74.9678907,
              18.5035283
            ],
            [
              74.9685005,
              18.5034755
            ]
          ]
        ]
      }
    }
  ]
}