{
  "type": "FeatureCollection",
  "name": "Benwadi_Gat_414_Cadastre",
  "crs": {
    "type": "name",
    "properties": {
      "name": "urn:ogc:def:crs:OGC:1.3:CRS84"
    }
  },
  "features": [
    {
      "type": "Feature",
      "properties": {
        "parcel_id": "MH-AHM-KAR-BEN-414",
        "survey_no": "414",
        "gat_no": "414",
        "village": "Benwadi (बेनवडी)",
        "taluka": "Karjat (कर्जत)",
        "district": "Ahmednagar (अहमदनगर)",
        "state": "Maharashtra",
        "gis_code": "RVM2613272600130334420000",
        "owner_name": "बहूमान बाबू गदादे, कौशल्या संजय गवांदे, नंदकूमार भाऊसाहेब गदादे, महेंद्र भाऊसाहेब गदादे",
        "all_owners": [
          "बहूमान बाबू गदादे",
          "कौशल्या संजय गवांदे, नंदकूमार भाऊसाहेब गदादे, महेंद्र भाऊसाहेब गदादे"
        ],
        "khata_no": "506, 982",
        "area_sqm": 12500.36,
        "area_acres": 3.09,
        "area_guntha": 123.56,
        "land_type": "जिरायत शेती (Jirayat - Rainfed Agricultural)",
        "source": "MahaBhuNaksha Official Live Cadastre",
        "status": "verified",
        "confidence_score": 98.8,
        "old_survey_area_acres": 3.09,
        "old_survey_area_sqm": 12500.36,
        "new_survey_area_acres": 3.09,
        "new_survey_area_sqm": 12500.36
      },
      "geometry": {
        "type": "Polygon",
        "coordinates": [
          [
            [
              74.9993605,
              18.4974949
            ],
            [
              74.9993443,
              18.4973504
            ],
            [
              74.9992592,
              18.496446
            ],
            [
              74.9982581,
              18.4964221
            ],
            [
              74.9985167,
              18.4976673
            ],
            [
              74.9993605,
              18.4974949
            ]
          ]
        ]
      }
    }
  ]
}