{
  "type": "FeatureCollection",
  "name": "Benwadi_Gat_280_Cadastre",
  "crs": {
    "type": "name",
    "properties": {
      "name": "urn:ogc:def:crs:OGC:1.3:CRS84"
    }
  },
  "features": [
    {
      "type": "Feature",
      "properties": {
        "parcel_id": "MH-AHM-KAR-BEN-280",
        "survey_no": "280",
        "gat_no": "280",
        "village": "Benwadi (बेनवडी)",
        "taluka": "Karjat (कर्जत)",
        "district": "Ahmednagar (अहमदनगर)",
        "state": "Maharashtra",
        "gis_code": "RVM2613272600130334420000",
        "owner_name": "तुकाराम शंकर कांबळे, संजय विठठल डमरे",
        "all_owners": [
          "तुकाराम शंकर कांबळे",
          "संजय विठठल डमरे",
          "तेजस्वी बाळु डमरे",
          "बाळु सोपान  डमरे",
          "सचीन सोपान डमरे",
          "राजेंद्र तूकाराम डमरे"
        ],
        "khata_no": "2977, 903, 3463, 3470, 299, 871",
        "area_sqm": 39310.67,
        "area_acres": 9.71,
        "area_guntha": 388.56,
        "land_type": "जिरायत शेती (Jirayat - Rainfed Agricultural)",
        "source": "MahaBhuNaksha Official Live Cadastre",
        "status": "verified",
        "confidence_score": 98.8,
        "old_survey_area_acres": 9.71,
        "old_survey_area_sqm": 39310.67,
        "new_survey_area_acres": 9.71,
        "new_survey_area_sqm": 39310.67
      },
      "geometry": {
        "type": "Polygon",
        "coordinates": [
          [
            [
              74.9660869,
              18.4993354
            ],
            [
              74.9659139,
              18.4988556
            ],
            [
              74.9658022,
              18.4985581
            ],
            [
              74.9640101,
              18.4992976
            ],
            [
              74.9640665,
              18.49967
            ],
            [
              74.962059,
              18.5002118
            ],
            [
              74.9623879,
              18.5010149
            ],
            [
              74.9626515,
              18.5009382
            ],
            [
              74.9632904,
              18.5007196
            ],
            [
              74.9642881,
              18.5004081
            ],
            [
              74.9642458,
              18.5001501
            ],
            [
              74.9648736,
              18.4998594
            ],
            [
              74.9660869,
              18.4993354
            ]
          ]
        ]
      }
    }
  ]
}