{
  "type": "FeatureCollection",
  "name": "Benwadi_Gat_165_Cadastre",
  "crs": {
    "type": "name",
    "properties": {
      "name": "urn:ogc:def:crs:OGC:1.3:CRS84"
    }
  },
  "features": [
    {
      "type": "Feature",
      "properties": {
        "parcel_id": "MH-AHM-KAR-BEN-165",
        "survey_no": "165",
        "gat_no": "165",
        "village": "Benwadi (बेनवडी)",
        "taluka": "Karjat (कर्जत)",
        "district": "Ahmednagar (अहमदनगर)",
        "state": "Maharashtra",
        "gis_code": "RVM2613272600130334420000",
        "owner_name": "रामदास शिवाजी गदादे, ऋतुजा लक्ष्मण गदादे, तुळसाबाई शिवाजी गदादे, स्वाती लक्ष्मण गदादे, सुरज लक्ष्मण गदादे",
        "all_owners": [
          "रामदास शिवाजी गदादे",
          "ऋतुजा लक्ष्मण गदादे, तुळसाबाई शिवाजी गदादे, स्वाती लक्ष्मण गदादे, सुरज लक्ष्मण गदादे",
          "महाराष्ट्र राज्याचे मा.राज्यपाल यांचे वतीने जलसंपदा विभाग महाराष्ट्र शासनाचे प्राधिकृत प्रतिनिधी – कार्यकारी अभियंता, कुकडी वितरण विभाग कोळवडी, ता.कर्जत यांचे कबुलीजबाबासाठी कुलमखत्यार म्हणून- कनिष्ठ लिपिक कुकडी वितरण बांधकाम विभाग कोळवडी ता कर्जत –"
        ],
        "khata_no": "3114, 3115, 3186",
        "area_sqm": 16819.32,
        "area_acres": 4.16,
        "area_guntha": 166.25,
        "land_type": "जिरायत शेती (Jirayat - Rainfed Agricultural)",
        "source": "MahaBhuNaksha Official Live Cadastre",
        "status": "verified",
        "confidence_score": 98.8,
        "old_survey_area_acres": 4.16,
        "old_survey_area_sqm": 16819.32,
        "new_survey_area_acres": 4.16,
        "new_survey_area_sqm": 16819.32
      },
      "geometry": {
        "type": "Polygon",
        "coordinates": [
          [
            [
              74.9738339,
              18.4787799
            ],
            [
              74.971673,
              18.4785418
            ],
            [
              74.9716221,
              18.4793063
            ],
            [
              74.9718114,
              18.479326
            ],
            [
              74.9723017,
              18.4793446
            ],
            [
              74.9735925,
              18.4793695
            ],
            [
              74.9738339,
              18.4787799
            ]
          ]
        ]
      }
    }
  ]
}