{
  "type": "FeatureCollection",
  "name": "Benwadi_Gat_164_Cadastre",
  "crs": {
    "type": "name",
    "properties": {
      "name": "urn:ogc:def:crs:OGC:1.3:CRS84"
    }
  },
  "features": [
    {
      "type": "Feature",
      "properties": {
        "parcel_id": "MH-AHM-KAR-BEN-164",
        "survey_no": "164",
        "gat_no": "164",
        "village": "Benwadi (बेनवडी)",
        "taluka": "Karjat (कर्जत)",
        "district": "Ahmednagar (अहमदनगर)",
        "state": "Maharashtra",
        "gis_code": "RVM2613272600130334420000",
        "owner_name": "महाराष्ट्र राज्याचे मा.राज्यपाल यांचे वतीने जलसंपदा विभाग महाराष्ट्र शासनाचे प्राधिकृत प्रतिनिधी – कार्यकारी अभियंता, कुकडी वितरण विभाग कोळवडी, ता.कर्जत यांचे कबुलीजबाबासाठी कुलमखत्यार म्हणून- कनिष्ठ लिपिक कुकडी वितरण बांधकाम विभाग कोळवडी ता कर्जत –, कल्याण दशरथ गदादे",
        "all_owners": [
          "महाराष्ट्र राज्याचे मा.राज्यपाल यांचे वतीने जलसंपदा विभाग महाराष्ट्र शासनाचे प्राधिकृत प्रतिनिधी – कार्यकारी अभियंता, कुकडी वितरण विभाग कोळवडी, ता.कर्जत यांचे कबुलीजबाबासाठी कुलमखत्यार म्हणून- कनिष्ठ लिपिक कुकडी वितरण बांधकाम विभाग कोळवडी ता कर्जत –",
          "कल्याण दशरथ गदादे",
          "महादेव बाळू गदादे"
        ],
        "khata_no": "3184, 3293, 925",
        "area_sqm": 15159.87,
        "area_acres": 3.75,
        "area_guntha": 149.85,
        "land_type": "जिरायत शेती (Jirayat - Rainfed Agricultural)",
        "source": "MahaBhuNaksha Official Live Cadastre",
        "status": "verified",
        "confidence_score": 98.8,
        "old_survey_area_acres": 3.75,
        "old_survey_area_sqm": 15159.87,
        "new_survey_area_acres": 3.75,
        "new_survey_area_sqm": 15159.87
      },
      "geometry": {
        "type": "Polygon",
        "coordinates": [
          [
            [
              74.9735925,
              18.4793695
            ],
            [
              74.9723017,
              18.4793446
            ],
            [
              74.9718114,
              18.479326
            ],
            [
              74.9718043,
              18.4795016
            ],
            [
              74.9718303,
              18.4800577
            ],
            [
              74.9732494,
              18.4802393
            ],
            [
              74.9735925,
              18.4793695
            ]
          ]
        ]
      }
    }
  ]
}