{
  "type": "FeatureCollection",
  "name": "Benwadi_Gat_46_Cadastre",
  "crs": {
    "type": "name",
    "properties": {
      "name": "urn:ogc:def:crs:OGC:1.3:CRS84"
    }
  },
  "features": [
    {
      "type": "Feature",
      "properties": {
        "parcel_id": "MH-AHM-KAR-BEN-46",
        "survey_no": "46",
        "gat_no": "46",
        "village": "Benwadi (बेनवडी)",
        "taluka": "Karjat (कर्जत)",
        "district": "Ahmednagar (अहमदनगर)",
        "state": "Maharashtra",
        "gis_code": "RVM2613272600130334420000",
        "owner_name": "हनुमंत अर्जुन गदादे, अश्विनी संदिप धुमाळ, रेश्मा नवनाथ धुमाळ",
        "all_owners": [
          "हनुमंत अर्जुन गदादे",
          "अश्विनी संदिप धुमाळ, रेश्मा नवनाथ धुमाळ",
          "साईनाथ विठठल धुमाळ",
          "नवनाथ विठठल धूमाळ"
        ],
        "khata_no": "2285, 3290, 864, 866",
        "area_sqm": 11787.19,
        "area_acres": 2.91,
        "area_guntha": 116.51,
        "land_type": "जिरायत शेती (Jirayat - Rainfed Agricultural)",
        "source": "MahaBhuNaksha Official Live Cadastre",
        "status": "verified",
        "confidence_score": 98.8,
        "old_survey_area_acres": 2.91,
        "old_survey_area_sqm": 11787.19,
        "new_survey_area_acres": 2.91,
        "new_survey_area_sqm": 11787.19
      },
      "geometry": {
        "type": "Polygon",
        "coordinates": [
          [
            [
              74.9784193,
              18.4919061
            ],
            [
              74.9784969,
              18.4918834
            ],
            [
              74.9787676,
              18.4918042
            ],
            [
              74.9790182,
              18.4917262
            ],
            [
              74.9791036,
              18.4916995
            ],
            [
              74.9795988,
              18.4915452
            ],
            [
              74.9804201,
              18.4912776
            ],
            [
              74.98044,
              18.4912237
            ],
            [
              74.9799315,
              18.4913456
            ],
            [
              74.9795162,
              18.4914472
            ],
            [
              74.9790995,
              18.4915492
            ],
            [
              74.9779508,
              18.4918304
            ],
            [
              74.976677,
              18.4921317
            ],
            [
              74.9755911,
              18.4923989
            ],
            [
              74.975551,
              18.4927526
            ],
            [
              74.976626,
              18.4924289
            ],
            [
              74.9784193,
              18.4919061
            ]
          ]
        ]
      }
    }
  ]
}