{
  "type": "FeatureCollection",
  "name": "Benwadi_Gat_160_Cadastre",
  "crs": {
    "type": "name",
    "properties": {
      "name": "urn:ogc:def:crs:OGC:1.3:CRS84"
    }
  },
  "features": [
    {
      "type": "Feature",
      "properties": {
        "parcel_id": "MH-AHM-KAR-BEN-160",
        "survey_no": "160",
        "gat_no": "160",
        "village": "Benwadi (बेनवडी)",
        "taluka": "Karjat (कर्जत)",
        "district": "Ahmednagar (अहमदनगर)",
        "state": "Maharashtra",
        "gis_code": "RVM2613272600130334420000",
        "owner_name": "आप्पासाहेब नारायण गदादे, श्रीपती संभाजी गदादे",
        "all_owners": [
          "आप्पासाहेब नारायण गदादे",
          "श्रीपती संभाजी गदादे",
          "दशरथ बाळू गदादे",
          "महादेव बाळू गदादे"
        ],
        "khata_no": "2740, 492, 742, 925",
        "area_sqm": 9126.37,
        "area_acres": 2.26,
        "area_guntha": 90.21,
        "land_type": "जिरायत शेती (Jirayat - Rainfed Agricultural)",
        "source": "MahaBhuNaksha Official Live Cadastre",
        "status": "verified",
        "confidence_score": 98.8,
        "old_survey_area_acres": 2.26,
        "old_survey_area_sqm": 9126.37,
        "new_survey_area_acres": 2.26,
        "new_survey_area_sqm": 9126.37
      },
      "geometry": {
        "type": "Polygon",
        "coordinates": [
          [
            [
              74.9702549,
              18.4787736
            ],
            [
              74.9694141,
              18.4787001
            ],
            [
              74.9691349,
              18.479428
            ],
            [
              74.97023,
              18.4796185
            ],
            [
              74.9702549,
              18.4787736
            ]
          ]
        ]
      }
    }
  ]
}