{
  "type": "FeatureCollection",
  "name": "Benwadi_Gat_183_Drone_Resurvey",
  "crs": {
    "type": "name",
    "properties": {
      "name": "urn:ogc:def:crs:OGC:1.3:CRS84"
    }
  },
  "features": [
    {
      "type": "Feature",
      "properties": {
        "parcel_id": "MH-AHM-KAR-BEN-183",
        "survey_no": "183",
        "gat_no": "183",
        "village": "Benwadi (बेनवडी)",
        "taluka": "Karjat (कर्जत)",
        "district": "Ahmednagar (अहमदनगर)",
        "state": "Maharashtra",
        "gis_code": "RVM2613272600130334420000",
        "owner_name": "मूरलीधर रामकृष्ण गदादे, गेनदेव सोपान गदादे, सुभद्रा सोपान गदादे, दत्तात्रय  सोपान  गदादे, मधूकर सोपान गदादे",
        "all_owners": [
          "मूरलीधर रामकृष्ण गदादे",
          "गेनदेव सोपान गदादे, सुभद्रा सोपान गदादे, दत्तात्रय  सोपान  गदादे, मधूकर सोपान गदादे",
          "संगिता रामदास अनारसे, संजय छगन गदादे, सविता राजेंद्र नेवसे, हिराबाई छगन गदादे",
          "सूदाम रामकृष्ण गदादे",
          "सूरेश रामकृष्ण गदादे",
          "तूळशीराम पंढरीनाथ गदादे",
          "बाळू अंबादास गदादे"
        ],
        "khata_no": "239, 361, 644, 645, 646, 82, 842",
        "area_sqm": 30764.71,
        "area_acres": 7.6,
        "area_guntha": 304.09,
        "land_type": "जिरायत शेती (Jirayat - Rainfed Agricultural)",
        "source": "MahaBhuNaksha Official Live Cadastre",
        "status": "needs_review",
        "confidence_score": 85.0,
        "old_survey_area_acres": 7.6,
        "old_survey_area_sqm": 30764.71,
        "new_survey_area_acres": 7.79,
        "new_survey_area_sqm": 31533.8,
        "area_diff_pct": 2.5,
        "mean_shift_m": 1.8,
        "iou_overlap_pct": 93.5,
        "review_reason": "Drone RTK photogrammetry detects a 2.5% area discrepancy (769 m²) with a mean bund shift of 1.8m along the farm boundary. Verification recommended.",
        "bhunaksha_geometry": {
          "type": "Polygon",
          "coordinates": [
            [
              [
                74.9652953,
                18.4838841
              ],
              [
                74.9649865,
                18.4826382
              ],
              [
                74.9647505,
                18.4825048
              ],
              [
                74.9644614,
                18.4823554
              ],
              [
                74.9644342,
                18.482145
              ],
              [
                74.9643441,
                18.481593
              ],
              [
                74.9639598,
                18.4815996
              ],
              [
                74.9629711,
                18.4816332
              ],
              [
                74.9629295,
                18.4816879
              ],
              [
                74.9633161,
                18.4822498
              ],
              [
                74.9637499,
                18.4828804
              ],
              [
                74.964017,
                18.4832687
              ],
              [
                74.9649552,
                18.4840236
              ],
              [
                74.9652953,
                18.4838841
              ]
            ]
          ]
        }
      },
      "geometry": {
        "type": "Polygon",
        "coordinates": [
          [
            [
              74.9652979,
              18.4838893
            ],
            [
              74.9649853,
              18.4826279
            ],
            [
              74.9647463,
              18.4824929
            ],
            [
              74.9644536,
              18.4823416
            ],
            [
              74.9644261,
              18.4821286
            ],
            [
              74.9643349,
              18.4815697
            ],
            [
              74.9639458,
              18.4815764
            ],
            [
              74.9629448,
              18.4816104
            ],
            [
              74.9629027,
              18.4816658
            ],
            [
              74.9632941,
              18.4822347
            ],
            [
              74.9637333,
              18.4828731
            ],
            [
              74.9640037,
              18.4832662
            ],
            [
              74.9649536,
              18.4840305
            ],
            [
              74.9652979,
              18.4838893
            ]
          ]
        ]
      }
    }
  ]
}