{
  "type": "FeatureCollection",
  "name": "Benwadi_Gat_75_Drone_Resurvey",
  "crs": {
    "type": "name",
    "properties": {
      "name": "urn:ogc:def:crs:OGC:1.3:CRS84"
    }
  },
  "features": [
    {
      "type": "Feature",
      "properties": {
        "parcel_id": "MH-AHM-KAR-BEN-75",
        "survey_no": "75",
        "gat_no": "75",
        "village": "Benwadi (बेनवडी)",
        "taluka": "Karjat (कर्जत)",
        "district": "Ahmednagar (अहमदनगर)",
        "state": "Maharashtra",
        "gis_code": "RVM2613272600130334420000",
        "owner_name": "बबन भगवान खुडे, कचर गणपत खुडे",
        "all_owners": [
          "बबन भगवान खुडे",
          "कचर गणपत खुडे",
          "लाला माधव खूडे",
          "शामराव हंबीरराव खुडे, हरिबाई दशरथ लोंढे, भामाबाई कुंडलीक चांदणे, पोपट हंबीरराव खुडे, शालन प्रल्हाद वाघमारे, छबुबाई गेना भवाळ",
          "शिवाजी भानूदास खुडे, हरी भानूदास खुडे, राजुबाई भानूदास खुडे, उषा मोहन भोसले, तुषार निलेश खुडे, मंगल निलेश खुडे, रामा भानूदास खुडे, रोहित निलेश खुडे अ पा क आई मंगल, आशा शिवलिंग कांबळे",
          "मा.मुख्य कार्यकरी अधिकारी जि. प. अहमदनगर करिता ग्रा.पं.बेनवडी ता कर्जत विद्यमान ग्रामसेवक - -",
          "सोपान महादेव खूडे"
        ],
        "khata_no": "2292, 25, 282, 2856, 2857, 3228, 362",
        "area_sqm": 4471.18,
        "area_acres": 1.1,
        "area_guntha": 44.19,
        "land_type": "जिरायत शेती (Jirayat - Rainfed Agricultural)",
        "source": "MahaBhuNaksha Official Live Cadastre",
        "status": "needs_review",
        "confidence_score": 85.2,
        "old_survey_area_acres": 1.1,
        "old_survey_area_sqm": 4471.18,
        "new_survey_area_acres": 1.13,
        "new_survey_area_sqm": 4574.0,
        "area_diff_pct": 2.3,
        "mean_shift_m": 1.4,
        "iou_overlap_pct": 93.7,
        "review_reason": "Drone RTK photogrammetry detects a 2.3% area discrepancy (103 m²) with a mean bund shift of 1.4m along the farm boundary. Verification recommended.",
        "bhunaksha_geometry": {
          "type": "Polygon",
          "coordinates": [
            [
              [
                74.9772881,
                18.4905821
              ],
              [
                74.9770818,
                18.490212
              ],
              [
                74.9769883,
                18.4900373
              ],
              [
                74.9768786,
                18.489832
              ],
              [
                74.9765848,
                18.4899807
              ],
              [
                74.9764333,
                18.4900539
              ],
              [
                74.9764139,
                18.4900865
              ],
              [
                74.9766629,
                18.490435
              ],
              [
                74.9768411,
                18.4906755
              ],
              [
                74.9768769,
                18.4906711
              ],
              [
                74.9772881,
                18.4905821
              ]
            ]
          ]
        }
      },
      "geometry": {
        "type": "Polygon",
        "coordinates": [
          [
            [
              74.9772904,
              18.490598
            ],
            [
              74.9770818,
              18.4902237
            ],
            [
              74.9769872,
              18.490047
            ],
            [
              74.9768762,
              18.4898394
            ],
            [
              74.9765791,
              18.4899898
            ],
            [
              74.9764258,
              18.4900638
            ],
            [
              74.9764062,
              18.4900968
            ],
            [
              74.9766581,
              18.4904493
            ],
            [
              74.9768383,
              18.4906925
            ],
            [
              74.9768745,
              18.4906881
            ],
            [
              74.9772904,
              18.490598
            ]
          ]
        ]
      }
    }
  ]
}