{
  "type": "FeatureCollection",
  "name": "Benwadi_Gat_107_Cadastre",
  "crs": {
    "type": "name",
    "properties": {
      "name": "urn:ogc:def:crs:OGC:1.3:CRS84"
    }
  },
  "features": [
    {
      "type": "Feature",
      "properties": {
        "parcel_id": "MH-AHM-KAR-BEN-107",
        "survey_no": "107",
        "gat_no": "107",
        "village": "Benwadi (बेनवडी)",
        "taluka": "Karjat (कर्जत)",
        "district": "Ahmednagar (अहमदनगर)",
        "state": "Maharashtra",
        "gis_code": "RVM2613272600130334420000",
        "owner_name": "कलावती बापूराव, देवराव चंदर खुडे",
        "all_owners": [
          "कलावती बापूराव",
          "देवराव चंदर खुडे",
          "निलावती बाबूलाल भिसे",
          "यमुना साहेबराव दिवटे"
        ],
        "khata_no": "2648, 2649, 2659, 2754",
        "area_sqm": 2985.78,
        "area_acres": 0.74,
        "area_guntha": 29.51,
        "land_type": "जिरायत शेती (Jirayat - Rainfed Agricultural)",
        "source": "MahaBhuNaksha Official Live Cadastre",
        "status": "verified",
        "confidence_score": 98.8,
        "old_survey_area_acres": 0.74,
        "old_survey_area_sqm": 2985.78,
        "new_survey_area_acres": 0.74,
        "new_survey_area_sqm": 2985.78
      },
      "geometry": {
        "type": "Polygon",
        "coordinates": [
          [
            [
              74.9766724,
              18.4891935
            ],
            [
              74.9768299,
              18.4890982
            ],
            [
              74.9766639,
              18.4888036
            ],
            [
              74.9766241,
              18.4887395
            ],
            [
              74.9765363,
              18.4887118
            ],
            [
              74.9765259,
              18.4886473
            ],
            [
              74.9765101,
              18.4885669
            ],
            [
              74.9763898,
              18.488685
            ],
            [
              74.9763471,
              18.4888402
            ],
            [
              74.9762988,
              18.4890233
            ],
            [
              74.9762175,
              18.4893367
            ],
            [
              74.9764091,
              18.4893529
            ],
            [
              74.9766724,
              18.4891935
            ]
          ]
        ]
      }
    }
  ]
}