{
  "type": "FeatureCollection",
  "name": "Benwadi_Gat_305_Drone_Resurvey",
  "crs": {
    "type": "name",
    "properties": {
      "name": "urn:ogc:def:crs:OGC:1.3:CRS84"
    }
  },
  "features": [
    {
      "type": "Feature",
      "properties": {
        "parcel_id": "MH-AHM-KAR-BEN-305",
        "survey_no": "305",
        "gat_no": "305",
        "village": "Benwadi (बेनवडी)",
        "taluka": "Karjat (कर्जत)",
        "district": "Ahmednagar (अहमदनगर)",
        "state": "Maharashtra",
        "gis_code": "RVM2613272600130334420000",
        "owner_name": "अवदुत बाळासाहेब धुमाळ, अस्मिता पांडुरंग कवडे, किसन जगन्नाथ धुमाळ, पल्लवी बालाजी शिंदे, प्रवीण बाळासाहेब धुमाळ, बायडाबाई बबन शेटे, मंदा आजिनाथ गुंड, माधुरी भरत गुंड, लंका बाळासाहेब धुमाळ, श्रीपती जगन्नाथ धुमाळ, बाळासाहेब पांडुरंग धुमाळ",
        "all_owners": [
          "अवदुत बाळासाहेब धुमाळ, अस्मिता पांडुरंग कवडे, किसन जगन्नाथ धुमाळ, पल्लवी बालाजी शिंदे, प्रवीण बाळासाहेब धुमाळ, बायडाबाई बबन शेटे, मंदा आजिनाथ गुंड, माधुरी भरत गुंड, लंका बाळासाहेब धुमाळ, श्रीपती जगन्नाथ धुमाळ, बाळासाहेब पांडुरंग धुमाळ"
        ],
        "khata_no": "73",
        "area_sqm": 8155.72,
        "area_acres": 2.02,
        "area_guntha": 80.61,
        "land_type": "जिरायत शेती (Jirayat - Rainfed Agricultural)",
        "source": "MahaBhuNaksha Official Live Cadastre",
        "status": "needs_review",
        "confidence_score": 85.2,
        "old_survey_area_acres": 2.02,
        "old_survey_area_sqm": 8155.72,
        "new_survey_area_acres": 2.07,
        "new_survey_area_sqm": 8343.3,
        "area_diff_pct": 2.3,
        "mean_shift_m": 1.6,
        "iou_overlap_pct": 93.7,
        "review_reason": "Drone RTK photogrammetry detects a 2.3% area discrepancy (188 m²) with a mean bund shift of 1.6m along the farm boundary. Verification recommended.",
        "bhunaksha_geometry": {
          "type": "Polygon",
          "coordinates": [
            [
              [
                74.9661573,
                18.504023
              ],
              [
                74.9662925,
                18.5040274
              ],
              [
                74.9662034,
                18.5036316
              ],
              [
                74.9656257,
                18.5037053
              ],
              [
                74.9642063,
                18.5038765
              ],
              [
                74.9630419,
                18.5040258
              ],
              [
                74.962952,
                18.5040373
              ],
              [
                74.9629581,
                18.5041675
              ],
              [
                74.9630476,
                18.5041605
              ],
              [
                74.9642248,
                18.5040684
              ],
              [
                74.9652073,
                18.5039897
              ],
              [
                74.9660451,
                18.5039196
              ],
              [
                74.9661573,
                18.504023
              ]
            ]
          ]
        }
      },
      "geometry": {
        "type": "Polygon",
        "coordinates": [
          [
            [
              74.9661786,
              18.5040375
            ],
            [
              74.9663153,
              18.5040419
            ],
            [
              74.9662252,
              18.5036416
            ],
            [
              74.9656409,
              18.5037161
            ],
            [
              74.9642053,
              18.5038893
            ],
            [
              74.9630275,
              18.5040403
            ],
            [
              74.9629366,
              18.5040519
            ],
            [
              74.9629428,
              18.5041836
            ],
            [
              74.9630333,
              18.5041765
            ],
            [
              74.964224,
              18.5040834
            ],
            [
              74.9652177,
              18.5040038
            ],
            [
              74.9660651,
              18.5039329
            ],
            [
              74.9661786,
              18.5040375
            ]
          ]
        ]
      }
    }
  ]
}