{
  "type": "FeatureCollection",
  "name": "Benwadi_Gat_292_Cadastre",
  "crs": {
    "type": "name",
    "properties": {
      "name": "urn:ogc:def:crs:OGC:1.3:CRS84"
    }
  },
  "features": [
    {
      "type": "Feature",
      "properties": {
        "parcel_id": "MH-AHM-KAR-BEN-292",
        "survey_no": "292",
        "gat_no": "292",
        "village": "Benwadi (बेनवडी)",
        "taluka": "Karjat (कर्जत)",
        "district": "Ahmednagar (अहमदनगर)",
        "state": "Maharashtra",
        "gis_code": "RVM2613272600130334420000",
        "owner_name": "किसन जगन्नाथ धूमाळ, पल्लवी बालाजी शिंदे, प्रवीण बाळासाहेब धुमाळ, लंका बाळासाहेब धुमाळ, अवदुत बाळासाहेब धुमाळ, अस्मिता पांडुरंग कवडे",
        "all_owners": [
          "किसन जगन्नाथ धूमाळ",
          "पल्लवी बालाजी शिंदे, प्रवीण बाळासाहेब धुमाळ, लंका बाळासाहेब धुमाळ, अवदुत बाळासाहेब धुमाळ, अस्मिता पांडुरंग कवडे",
          "किसन जगन्नाथ धूमाळ",
          "अवदुत बाळासाहेब धुमाळ, अस्मिता पांडुरंग कवडे, पल्लवी बालाजी शिंदे, प्रवीण बाळासाहेब धुमाळ, लंका बाळासाहेब धुमाळ",
          "रामदास दिगांबर धुमाळ",
          "पांडूरंग जगन्नाथ धुमाळ",
          "पोपट दिगांबर धुमाळ",
          "श्रीपती जगन्नाथ धुमाळ",
          "कल्याण भगवान धुमाळ",
          "बाळू भगवान धुमाळ",
          "संपत नामदेव धुमाळ",
          "संतोष नामदेव धुमाळ"
        ],
        "khata_no": "1003, 1004, 1003, 1004, 2567, 2568, 2569, 2570, 2571, 2572, 2573, 2574",
        "area_sqm": 8614.45,
        "area_acres": 2.13,
        "area_guntha": 85.15,
        "land_type": "जिरायत शेती (Jirayat - Rainfed Agricultural)",
        "source": "MahaBhuNaksha Official Live Cadastre",
        "status": "verified",
        "confidence_score": 98.8,
        "old_survey_area_acres": 2.13,
        "old_survey_area_sqm": 8614.45,
        "new_survey_area_acres": 2.13,
        "new_survey_area_sqm": 8614.45
      },
      "geometry": {
        "type": "Polygon",
        "coordinates": [
          [
            [
              74.9703962,
              18.5009494
            ],
            [
              74.9703728,
              18.5008086
            ],
            [
              74.970342,
              18.5006193
            ],
            [
              74.969821,
              18.5006936
            ],
            [
              74.9691457,
              18.5007788
            ],
            [
              74.9689825,
              18.5008115
            ],
            [
              74.9689948,
              18.5009903
            ],
            [
              74.9684777,
              18.5010668
            ],
            [
              74.9681921,
              18.501122
            ],
            [
              74.9680047,
              18.5011546
            ],
            [
              74.9680517,
              18.5013754
            ],
            [
              74.9695684,
              18.5011076
            ],
            [
              74.9703678,
              18.5009594
            ],
            [
              74.9703962,
              18.5009494
            ]
          ]
        ]
      }
    }
  ]
}