{
  "type": "FeatureCollection",
  "name": "Benwadi_Gat_109_Cadastre",
  "crs": {
    "type": "name",
    "properties": {
      "name": "urn:ogc:def:crs:OGC:1.3:CRS84"
    }
  },
  "features": [
    {
      "type": "Feature",
      "properties": {
        "parcel_id": "MH-AHM-KAR-BEN-109",
        "survey_no": "109",
        "gat_no": "109",
        "village": "Benwadi (बेनवडी)",
        "taluka": "Karjat (कर्जत)",
        "district": "Ahmednagar (अहमदनगर)",
        "state": "Maharashtra",
        "gis_code": "RVM2613272600130334420000",
        "owner_name": "अविनाश कल्याण खुडे",
        "all_owners": [
          "अविनाश कल्याण खुडे"
        ],
        "khata_no": "1045",
        "area_sqm": 1543.43,
        "area_acres": 0.38,
        "area_guntha": 15.26,
        "land_type": "जिरायत शेती (Jirayat - Rainfed Agricultural)",
        "source": "MahaBhuNaksha Official Live Cadastre",
        "status": "verified",
        "confidence_score": 98.8,
        "old_survey_area_acres": 0.38,
        "old_survey_area_sqm": 1543.43,
        "new_survey_area_acres": 0.38,
        "new_survey_area_sqm": 1543.43
      },
      "geometry": {
        "type": "Polygon",
        "coordinates": [
          [
            [
              74.9759431,
              18.4896363
            ],
            [
              74.9758955,
              18.4895099
            ],
            [
              74.9758455,
              18.4894204
            ],
            [
              74.9758247,
              18.4893084
            ],
            [
              74.9758077,
              18.4892417
            ],
            [
              74.97549,
              18.4894232
            ],
            [
              74.9755698,
              18.4895553
            ],
            [
              74.9756971,
              18.4897924
            ],
            [
              74.9759431,
              18.4896363
            ]
          ]
        ]
      }
    }
  ]
}