{
  "type": "FeatureCollection",
  "name": "Benwadi_Gat_500_Cadastre",
  "crs": {
    "type": "name",
    "properties": {
      "name": "urn:ogc:def:crs:OGC:1.3:CRS84"
    }
  },
  "features": [
    {
      "type": "Feature",
      "properties": {
        "parcel_id": "MH-AHM-KAR-BEN-500",
        "survey_no": "500",
        "gat_no": "500",
        "village": "Benwadi (बेनवडी)",
        "taluka": "Karjat (कर्जत)",
        "district": "Ahmednagar (अहमदनगर)",
        "state": "Maharashtra",
        "gis_code": "RVM2613272600130334420000",
        "owner_name": "नवनाथ  साहेबराव गदादे, उत्तम  साहेबराव  गदादे, कारभारी हरी गदादे",
        "all_owners": [
          "नवनाथ  साहेबराव गदादे, उत्तम  साहेबराव  गदादे",
          "कारभारी हरी गदादे",
          "शिवाजी बाबूराव गदादे",
          "विठठल बाबूराव गदादे",
          "आबासाहेब बाबूराव गदादे"
        ],
        "khata_no": "2742, 33, 411, 412, 413",
        "area_sqm": 356.78,
        "area_acres": 0.09,
        "area_guntha": 3.53,
        "land_type": "जिरायत शेती (Jirayat - Rainfed Agricultural)",
        "source": "MahaBhuNaksha Official Live Cadastre",
        "status": "verified",
        "confidence_score": 98.8,
        "old_survey_area_acres": 0.09,
        "old_survey_area_sqm": 356.78,
        "new_survey_area_acres": 0.09,
        "new_survey_area_sqm": 356.78
      },
      "geometry": {
        "type": "Polygon",
        "coordinates": [
          [
            [
              74.9852631,
              18.4972671
            ],
            [
              74.9851849,
              18.4975574
            ],
            [
              74.9853196,
              18.4976122
            ],
            [
              74.9853149,
              18.4972701
            ],
            [
              74.9852631,
              18.4972671
            ]
          ]
        ]
      }
    }
  ]
}