{
  "type": "FeatureCollection",
  "name": "Benwadi_Gat_80_Drone_Resurvey",
  "crs": {
    "type": "name",
    "properties": {
      "name": "urn:ogc:def:crs:OGC:1.3:CRS84"
    }
  },
  "features": [
    {
      "type": "Feature",
      "properties": {
        "parcel_id": "MH-AHM-KAR-BEN-80",
        "survey_no": "80",
        "gat_no": "80",
        "village": "Benwadi (बेनवडी)",
        "taluka": "Karjat (कर्जत)",
        "district": "Ahmednagar (अहमदनगर)",
        "state": "Maharashtra",
        "gis_code": "RVM2613272600130334420000",
        "owner_name": "अनिल विजय खुडे, दिव्या विजय खुडे, निर्मला  शिवाजी खुडे, सपना विजय खुडे, सोमनाथ विजय खुडे, राजेंद्र शिवाजी खुडे",
        "all_owners": [
          "अनिल विजय खुडे, दिव्या विजय खुडे, निर्मला  शिवाजी खुडे, सपना विजय खुडे, सोमनाथ विजय खुडे, राजेंद्र शिवाजी खुडे"
        ],
        "khata_no": "313",
        "area_sqm": 7609.99,
        "area_acres": 1.88,
        "area_guntha": 75.22,
        "land_type": "जिरायत शेती (Jirayat - Rainfed Agricultural)",
        "source": "MahaBhuNaksha Official Live Cadastre",
        "status": "needs_review",
        "confidence_score": 84.6,
        "old_survey_area_acres": 1.88,
        "old_survey_area_sqm": 7609.99,
        "new_survey_area_acres": 1.93,
        "new_survey_area_sqm": 7823.1,
        "area_diff_pct": 2.8,
        "mean_shift_m": 1.7,
        "iou_overlap_pct": 93.2,
        "review_reason": "Drone RTK photogrammetry detects a 2.8% area discrepancy (213 m²) with a mean bund shift of 1.7m along the farm boundary. Verification recommended.",
        "bhunaksha_geometry": {
          "type": "Polygon",
          "coordinates": [
            [
              [
                74.9777929,
                18.4898159
              ],
              [
                74.9777799,
                18.4897928
              ],
              [
                74.9776966,
                18.4895845
              ],
              [
                74.9779519,
                18.4895074
              ],
              [
                74.9783628,
                18.4893769
              ],
              [
                74.9782243,
                18.4891811
              ],
              [
                74.9781119,
                18.4890225
              ],
              [
                74.9780424,
                18.4889249
              ],
              [
                74.9778666,
                18.4886755
              ],
              [
                74.9777616,
                18.4885256
              ],
              [
                74.9773369,
                18.4887867
              ],
              [
                74.9775671,
                18.489344
              ],
              [
                74.9774687,
                18.4893951
              ],
              [
                74.9774391,
                18.4894083
              ],
              [
                74.9775671,
                18.4896831
              ],
              [
                74.9776707,
                18.4898999
              ],
              [
                74.9777929,
                18.4898159
              ]
            ]
          ]
        }
      },
      "geometry": {
        "type": "Polygon",
        "coordinates": [
          [
            [
              74.9777955,
              18.4898079
            ],
            [
              74.9777823,
              18.4897844
            ],
            [
              74.9776978,
              18.4895732
            ],
            [
              74.9779567,
              18.4894951
            ],
            [
              74.9783733,
              18.4893628
            ],
            [
              74.9782329,
              18.4891642
            ],
            [
              74.9781189,
              18.4890034
            ],
            [
              74.9780484,
              18.4889045
            ],
            [
              74.9778702,
              18.4886516
            ],
            [
              74.9777637,
              18.4884996
            ],
            [
              74.9773331,
              18.4887643
            ],
            [
              74.9775665,
              18.4893294
            ],
            [
              74.9774668,
              18.4893812
            ],
            [
              74.9774367,
              18.4893946
            ],
            [
              74.9775665,
              18.4896732
            ],
            [
              74.9776716,
              18.489893
            ],
            [
              74.9777955,
              18.4898079
            ]
          ]
        ]
      }
    }
  ]
}