{
  "type": "FeatureCollection",
  "name": "Benwadi_Gat_451_Drone_Resurvey",
  "crs": {
    "type": "name",
    "properties": {
      "name": "urn:ogc:def:crs:OGC:1.3:CRS84"
    }
  },
  "features": [
    {
      "type": "Feature",
      "properties": {
        "parcel_id": "MH-AHM-KAR-BEN-451",
        "survey_no": "451",
        "gat_no": "451",
        "village": "Benwadi (बेनवडी)",
        "taluka": "Karjat (कर्जत)",
        "district": "Ahmednagar (अहमदनगर)",
        "state": "Maharashtra",
        "gis_code": "RVM2613272600130334420000",
        "owner_name": "मच्छिंद्र ज्ञानदेव गायकवाड, गुलाब ज्ञानदेव गायकवाड",
        "all_owners": [
          "मच्छिंद्र ज्ञानदेव गायकवाड",
          "गुलाब ज्ञानदेव गायकवाड",
          "गोरख ज्ञानदेव गायकवाड",
          "संभू ज्ञानदेव गायकवाड",
          "गुलाब ज्ञानदेव गायकवाड, मच्छिंद्र ज्ञानदेव गायकवाड, गोरख ज्ञानदेव गायकवाड, संभू ज्ञानदेव गायकवाड"
        ],
        "khata_no": "221, 57, 63, 716, 852",
        "area_sqm": 34729.49,
        "area_acres": 8.58,
        "area_guntha": 343.28,
        "land_type": "जिरायत शेती (Jirayat - Rainfed Agricultural)",
        "source": "MahaBhuNaksha Official Live Cadastre",
        "status": "needs_review",
        "confidence_score": 84.8,
        "old_survey_area_acres": 8.58,
        "old_survey_area_sqm": 34729.49,
        "new_survey_area_acres": 8.81,
        "new_survey_area_sqm": 35667.2,
        "area_diff_pct": 2.7,
        "mean_shift_m": 1.8,
        "iou_overlap_pct": 93.3,
        "review_reason": "Drone RTK photogrammetry detects a 2.7% area discrepancy (938 m²) with a mean bund shift of 1.8m along the farm boundary. Verification recommended.",
        "bhunaksha_geometry": {
          "type": "Polygon",
          "coordinates": [
            [
              [
                74.9930595,
                18.5018073
              ],
              [
                74.9927996,
                18.5002335
              ],
              [
                74.9927196,
                18.4996989
              ],
              [
                74.9926503,
                18.4992304
              ],
              [
                74.9925349,
                18.4984572
              ],
              [
                74.9924912,
                18.4981718
              ],
              [
                74.9923778,
                18.4974303
              ],
              [
                74.9922546,
                18.4974871
              ],
              [
                74.9917618,
                18.4976293
              ],
              [
                74.9918045,
                18.4979339
              ],
              [
                74.9918687,
                18.4983928
              ],
              [
                74.9920211,
                18.4996114
              ],
              [
                74.9922806,
                18.501578
              ],
              [
                74.9923205,
                18.5018932
              ],
              [
                74.9930595,
                18.5018073
              ]
            ]
          ]
        }
      },
      "geometry": {
        "type": "Polygon",
        "coordinates": [
          [
            [
              74.9930754,
              18.5018265
            ],
            [
              74.992812,
              18.5002316
            ],
            [
              74.9927309,
              18.4996899
            ],
            [
              74.9926607,
              18.4992151
            ],
            [
              74.9925437,
              18.4984315
            ],
            [
              74.9924994,
              18.4981423
            ],
            [
              74.9923845,
              18.4973908
            ],
            [
              74.9922597,
              18.4974484
            ],
            [
              74.9917603,
              18.4975925
            ],
            [
              74.9918035,
              18.4979012
            ],
            [
              74.9918686,
              18.4983662
            ],
            [
              74.992023,
              18.4996012
            ],
            [
              74.992286,
              18.5015941
            ],
            [
              74.9923265,
              18.5019136
            ],
            [
              74.9930754,
              18.5018265
            ]
          ]
        ]
      }
    }
  ]
}