{
  "type": "FeatureCollection",
  "name": "Benwadi_Gat_57_Cadastre",
  "crs": {
    "type": "name",
    "properties": {
      "name": "urn:ogc:def:crs:OGC:1.3:CRS84"
    }
  },
  "features": [
    {
      "type": "Feature",
      "properties": {
        "parcel_id": "MH-AHM-KAR-BEN-57",
        "survey_no": "57",
        "gat_no": "57",
        "village": "Benwadi (बेनवडी)",
        "taluka": "Karjat (कर्जत)",
        "district": "Ahmednagar (अहमदनगर)",
        "state": "Maharashtra",
        "gis_code": "RVM2613272600130334420000",
        "owner_name": "हरीजन स्मशान भुमि",
        "all_owners": [
          "हरीजन स्मशान भुमि"
        ],
        "khata_no": "1007",
        "area_sqm": 1742.24,
        "area_acres": 0.43,
        "area_guntha": 17.22,
        "land_type": "जिरायत शेती (Jirayat - Rainfed Agricultural)",
        "source": "MahaBhuNaksha Official Live Cadastre",
        "status": "verified",
        "confidence_score": 98.8,
        "old_survey_area_acres": 0.43,
        "old_survey_area_sqm": 1742.24,
        "new_survey_area_acres": 0.43,
        "new_survey_area_sqm": 1742.24
      },
      "geometry": {
        "type": "Polygon",
        "coordinates": [
          [
            [
              74.973604,
              18.4920165
            ],
            [
              74.9735496,
              18.4914577
            ],
            [
              74.9732406,
              18.4916925
            ],
            [
              74.9732627,
              18.4920229
            ],
            [
              74.973604,
              18.4920165
            ]
          ]
        ]
      }
    }
  ]
}