{
  "type": "FeatureCollection",
  "name": "Benwadi_Gat_413_Cadastre",
  "crs": {
    "type": "name",
    "properties": {
      "name": "urn:ogc:def:crs:OGC:1.3:CRS84"
    }
  },
  "features": [
    {
      "type": "Feature",
      "properties": {
        "parcel_id": "MH-AHM-KAR-BEN-413",
        "survey_no": "413",
        "gat_no": "413",
        "village": "Benwadi (बेनवडी)",
        "taluka": "Karjat (कर्जत)",
        "district": "Ahmednagar (अहमदनगर)",
        "state": "Maharashtra",
        "gis_code": "RVM2613272600130334420000",
        "owner_name": "आण्णा अर्जुन गदादे, बहूमान बाबू गदादे",
        "all_owners": [
          "आण्णा अर्जुन गदादे",
          "बहूमान बाबू गदादे",
          "नवनाथ बाबू गदादे",
          "चांगदेव दादा काळे, बायडाबाई दादा काळे, अजिनाथ दादा काळे"
        ],
        "khata_no": "464, 506, 509, 659",
        "area_sqm": 15510.33,
        "area_acres": 3.83,
        "area_guntha": 153.31,
        "land_type": "जिरायत शेती (Jirayat - Rainfed Agricultural)",
        "source": "MahaBhuNaksha Official Live Cadastre",
        "status": "verified",
        "confidence_score": 98.8,
        "old_survey_area_acres": 3.83,
        "old_survey_area_sqm": 15510.33,
        "new_survey_area_acres": 3.83,
        "new_survey_area_sqm": 15510.33
      },
      "geometry": {
        "type": "Polygon",
        "coordinates": [
          [
            [
              74.9985167,
              18.4976673
            ],
            [
              74.9982581,
              18.4964221
            ],
            [
              74.9972926,
              18.4963898
            ],
            [
              74.9975614,
              18.4978648
            ],
            [
              74.9985167,
              18.4976673
            ]
          ]
        ]
      }
    }
  ]
}