{
  "type": "FeatureCollection",
  "name": "Benwadi_Gat_122_Drone_Resurvey",
  "crs": {
    "type": "name",
    "properties": {
      "name": "urn:ogc:def:crs:OGC:1.3:CRS84"
    }
  },
  "features": [
    {
      "type": "Feature",
      "properties": {
        "parcel_id": "MH-AHM-KAR-BEN-122",
        "survey_no": "122",
        "gat_no": "122",
        "village": "Benwadi (बेनवडी)",
        "taluka": "Karjat (कर्जत)",
        "district": "Ahmednagar (अहमदनगर)",
        "state": "Maharashtra",
        "gis_code": "RVM2613272600130334420000",
        "owner_name": "भिवाजी आत्माराम गदादे, छाया अशोक गदादे",
        "all_owners": [
          "भिवाजी आत्माराम गदादे",
          "छाया अशोक गदादे",
          "मंगल रंगनाथ, लालासाहेब रंगनाथ गदादे",
          "विश्वनाथ संपत गदादे",
          "शिवाजी आत्माराम गदादे"
        ],
        "khata_no": "1012, 875, 279, 3007, 2304",
        "area_sqm": 14596.78,
        "area_acres": 3.61,
        "area_guntha": 144.28,
        "land_type": "जिरायत शेती (Jirayat - Rainfed Agricultural)",
        "source": "MahaBhuNaksha Official Live Cadastre",
        "status": "needs_review",
        "confidence_score": 84.9,
        "old_survey_area_acres": 3.61,
        "old_survey_area_sqm": 14596.78,
        "new_survey_area_acres": 3.7,
        "new_survey_area_sqm": 14976.3,
        "area_diff_pct": 2.6,
        "mean_shift_m": 1.5,
        "iou_overlap_pct": 93.4,
        "review_reason": "Drone RTK photogrammetry detects a 2.6% area discrepancy (380 m²) with a mean bund shift of 1.5m along the farm boundary. Verification recommended.",
        "bhunaksha_geometry": {
          "type": "Polygon",
          "coordinates": [
            [
              [
                74.9750963,
                18.4874465
              ],
              [
                74.9750512,
                18.4874295
              ],
              [
                74.9748313,
                18.4864193
              ],
              [
                74.9735053,
                18.4865405
              ],
              [
                74.9736256,
                18.4873125
              ],
              [
                74.974983,
                18.4874551
              ],
              [
                74.9750963,
                18.4874465
              ]
            ]
          ]
        }
      },
      "geometry": {
        "type": "Polygon",
        "coordinates": [
          [
            [
              74.9750909,
              18.4874453
            ],
            [
              74.9750452,
              18.487428
            ],
            [
              74.9748225,
              18.4864048
            ],
            [
              74.9734794,
              18.4865276
            ],
            [
              74.9736012,
              18.4873095
            ],
            [
              74.9749761,
              18.487454
            ],
            [
              74.9750909,
              18.4874453
            ]
          ]
        ]
      }
    }
  ]
}