{
  "type": "FeatureCollection",
  "name": "Benwadi_Gat_409_Cadastre",
  "crs": {
    "type": "name",
    "properties": {
      "name": "urn:ogc:def:crs:OGC:1.3:CRS84"
    }
  },
  "features": [
    {
      "type": "Feature",
      "properties": {
        "parcel_id": "MH-AHM-KAR-BEN-409",
        "survey_no": "409",
        "gat_no": "409",
        "village": "Benwadi (बेनवडी)",
        "taluka": "Karjat (कर्जत)",
        "district": "Ahmednagar (अहमदनगर)",
        "state": "Maharashtra",
        "gis_code": "RVM2613272600130334420000",
        "owner_name": "तुषार दत्तू दवणे, रामकुर हनुमंत दवणे, विठठल कुंडलिक दवणे",
        "all_owners": [
          "तुषार दत्तू दवणे, रामकुर हनुमंत दवणे",
          "विठठल कुंडलिक दवणे",
          "दत्तू महादेव दवणे"
        ],
        "khata_no": "3242, 504, 505",
        "area_sqm": 24680.91,
        "area_acres": 6.1,
        "area_guntha": 243.95,
        "land_type": "जिरायत शेती (Jirayat - Rainfed Agricultural)",
        "source": "MahaBhuNaksha Official Live Cadastre",
        "status": "verified",
        "confidence_score": 98.8,
        "old_survey_area_acres": 6.1,
        "old_survey_area_sqm": 24680.91,
        "new_survey_area_acres": 6.1,
        "new_survey_area_sqm": 24680.91
      },
      "geometry": {
        "type": "Polygon",
        "coordinates": [
          [
            [
              74.9988211,
              18.4991501
            ],
            [
              74.9995265,
              18.4989918
            ],
            [
              74.9994544,
              18.4983987
            ],
            [
              74.9973372,
              18.4988109
            ],
            [
              74.9962365,
              18.4990306
            ],
            [
              74.9964602,
              18.4997133
            ],
            [
              74.9975611,
              18.4994631
            ],
            [
              74.9988211,
              18.4991501
            ]
          ]
        ]
      }
    }
  ]
}