{
  "type": "FeatureCollection",
  "name": "Benwadi_Gat_85_Drone_Resurvey",
  "crs": {
    "type": "name",
    "properties": {
      "name": "urn:ogc:def:crs:OGC:1.3:CRS84"
    }
  },
  "features": [
    {
      "type": "Feature",
      "properties": {
        "parcel_id": "MH-AHM-KAR-BEN-85",
        "survey_no": "85",
        "gat_no": "85",
        "village": "Benwadi (बेनवडी)",
        "taluka": "Karjat (कर्जत)",
        "district": "Ahmednagar (अहमदनगर)",
        "state": "Maharashtra",
        "gis_code": "RVM2613272600130334420000",
        "owner_name": "माणिक जयवंता खुडे, विनायक जयवंता खुडे",
        "all_owners": [
          "माणिक जयवंता खुडे",
          "विनायक जयवंता खुडे",
          "भाऊसाहेब जयवंता खुडे",
          "रावसाहेब जयवंता खुडे",
          "सविता संदीपान मोरे, राजूबाई कल्याण खुडे, कविता संतोष जगताप, निता मच्छिंद्र लोखंडे, रेखा जालिंदर डाडर, अविनाश कल्याण खुडे",
          "केशरबाई संभाजी वाल्हेकर"
        ],
        "khata_no": "690, 691, 692, 693, 694, 695",
        "area_sqm": 5223.07,
        "area_acres": 1.29,
        "area_guntha": 51.63,
        "land_type": "जिरायत शेती (Jirayat - Rainfed Agricultural)",
        "source": "MahaBhuNaksha Official Live Cadastre",
        "status": "needs_review",
        "confidence_score": 85.2,
        "old_survey_area_acres": 1.29,
        "old_survey_area_sqm": 5223.07,
        "new_survey_area_acres": 1.32,
        "new_survey_area_sqm": 5343.2,
        "area_diff_pct": 2.3,
        "mean_shift_m": 2.0,
        "iou_overlap_pct": 93.7,
        "review_reason": "Drone RTK photogrammetry detects a 2.3% area discrepancy (120 m²) with a mean bund shift of 2.0m along the farm boundary. Verification recommended.",
        "bhunaksha_geometry": {
          "type": "Polygon",
          "coordinates": [
            [
              [
                74.9789861,
                18.4902612
              ],
              [
                74.9788675,
                18.4897699
              ],
              [
                74.978819,
                18.4897807
              ],
              [
                74.9786296,
                18.4898347
              ],
              [
                74.9786071,
                18.4898431
              ],
              [
                74.9782315,
                18.4898739
              ],
              [
                74.9778979,
                18.4898999
              ],
              [
                74.9780208,
                18.4901733
              ],
              [
                74.9781141,
                18.4904034
              ],
              [
                74.9783957,
                18.4903424
              ],
              [
                74.9786827,
                18.4902778
              ],
              [
                74.9789861,
                18.4902612
              ]
            ]
          ]
        }
      },
      "geometry": {
        "type": "Polygon",
        "coordinates": [
          [
            [
              74.9789906,
              18.4902817
            ],
            [
              74.9788706,
              18.4897847
            ],
            [
              74.9788216,
              18.4897957
            ],
            [
              74.97863,
              18.4898503
            ],
            [
              74.9786073,
              18.4898588
            ],
            [
              74.9782274,
              18.4898899
            ],
            [
              74.9778899,
              18.4899162
            ],
            [
              74.9780143,
              18.4901928
            ],
            [
              74.9781086,
              18.4904255
            ],
            [
              74.9783934,
              18.4903638
            ],
            [
              74.9786837,
              18.4902984
            ],
            [
              74.9789906,
              18.4902817
            ]
          ]
        ]
      }
    }
  ]
}