{
  "type": "FeatureCollection",
  "name": "Benwadi_Gat_99_Drone_Resurvey",
  "crs": {
    "type": "name",
    "properties": {
      "name": "urn:ogc:def:crs:OGC:1.3:CRS84"
    }
  },
  "features": [
    {
      "type": "Feature",
      "properties": {
        "parcel_id": "MH-AHM-KAR-BEN-99",
        "survey_no": "99",
        "gat_no": "99",
        "village": "Benwadi (बेनवडी)",
        "taluka": "Karjat (कर्जत)",
        "district": "Ahmednagar (अहमदनगर)",
        "state": "Maharashtra",
        "gis_code": "RVM2613272600130334420000",
        "owner_name": "बबन भगवान खुडे, कचर गणपत खुडे",
        "all_owners": [
          "बबन भगवान खुडे",
          "कचर गणपत खुडे",
          "महाराष्ट्र राज्याचे मा.राज्यपाल यांचे वतीने जलसंपदा विभाग महाराष्ट्र शासनाचे प्राधिकृत प्रतिनिधी – कार्यकारी अभियंता, कुकडी वितरण विभाग कोळवडी, ता.कर्जत यांचे कबुलीजबाबासाठी कुलमखत्यार म्हणून- कनिष्ठ लिपिक कुकडी वितरण बांधकाम विभाग कोळवडी ता कर्जत –",
          "लाला माधव खूडे",
          "हरी भानूदास खुडे, उषा मोहन भोसले, तुषार निलेश खुडे, मंगल निलेश खुडे, राजुबाई भानूदास खुडे, रामा भानूदास खुडे, रोहित निलेश खुडे अ पा क आई मंगल, शिवाजी भानूदास खुडे, आशा शिवलिंग कांबळे",
          "हरीबाई दशरथ लोंढे, शालन प्रल्हाद वाघमारे, रामराव हांबीराव खुडे, राजेंद्र कुंडलिक चांदणे, भिमराव कुंडलिक चांदणे, छबुबाई गेणा भवाळ, पोपट हांबीराव खुडे",
          "महाराष्ट्र राज्याचे मा.राज्यपाल यांचे वतीने जलसंपदा विभाग महाराष्ट्र शासनाचे प्राधिकृत प्रतिनिधी – कार्यकारी अभियंता, कुकडी वितरण विभाग कोळवडी, ता.कर्जत यांचे कबुलीजबाबासाठी कुलमखत्यार म्हणून- कनिष्ठ लिपिक कुकडी वितरण बांधकाम विभाग कोळवडी ता कर्जत –",
          "महाराष्ट्र राज्याचे मा.राज्यपाल यांचे वतीने जलसंपदा विभाग महाराष्ट्र शासनाचे प्राधिकृत प्रतिनिधी – कार्यकारी अभियंता, कुकडी वितरण विभाग कोळवडी, ता.कर्जत यांचे कबुलीजबाबासाठी कुलमखत्यार म्हणून- कनिष्ठ लिपिक कुकडी वितरण बांधकाम विभाग कोळवडी ता कर्जत –",
          "महाराष्ट्र राज्याचे मा.राज्यपाल यांचे वतीने जलसंपदा विभाग महाराष्ट्र शासनाचे प्राधिकृत प्रतिनिधी – कार्यकारी अभियंता, कुकडी वितरण विभाग कोळवडी, ता.कर्जत यांचे कबुलीजबाबासाठी कुलमखत्यार म्हणून- कनिष्ठ लिपिक कुकडी वितरण बांधकाम विभाग कोळवडी ता कर्जत –",
          "सोपान महादेव खूडे"
        ],
        "khata_no": "2292, 25, 2636, 282, 2857, 2978, 3200, 3201, 3202, 362",
        "area_sqm": 10935.2,
        "area_acres": 2.7,
        "area_guntha": 108.09,
        "land_type": "जिरायत शेती (Jirayat - Rainfed Agricultural)",
        "source": "MahaBhuNaksha Official Live Cadastre",
        "status": "needs_review",
        "confidence_score": 84.5,
        "old_survey_area_acres": 2.7,
        "old_survey_area_sqm": 10935.2,
        "new_survey_area_acres": 2.78,
        "new_survey_area_sqm": 11252.3,
        "area_diff_pct": 2.9,
        "mean_shift_m": 1.4,
        "iou_overlap_pct": 93.1,
        "review_reason": "Drone RTK photogrammetry detects a 2.9% area discrepancy (317 m²) with a mean bund shift of 1.4m along the farm boundary. Verification recommended.",
        "bhunaksha_geometry": {
          "type": "Polygon",
          "coordinates": [
            [
              [
                74.9794403,
                18.4876268
              ],
              [
                74.9793546,
                18.4871757
              ],
              [
                74.9792609,
                18.4867086
              ],
              [
                74.9794981,
                18.4865252
              ],
              [
                74.9794613,
                18.4864192
              ],
              [
                74.9794419,
                18.4863289
              ],
              [
                74.9793739,
                18.4861353
              ],
              [
                74.9792989,
                18.4858866
              ],
              [
                74.9788233,
                18.4860672
              ],
              [
                74.9788447,
                18.4865645
              ],
              [
                74.9788814,
                18.4873365
              ],
              [
                74.9788971,
                18.487856
              ],
              [
                74.9789,
                18.4879135
              ],
              [
                74.9794403,
                18.4876268
              ]
            ]
          ]
        }
      },
      "geometry": {
        "type": "Polygon",
        "coordinates": [
          [
            [
              74.9794567,
              18.487642
            ],
            [
              74.9793697,
              18.4871844
            ],
            [
              74.9792747,
              18.4867106
            ],
            [
              74.9795153,
              18.4865246
            ],
            [
              74.979478,
              18.486417
            ],
            [
              74.9794583,
              18.4863254
            ],
            [
              74.9793893,
              18.486129
            ],
            [
              74.9793132,
              18.4858768
            ],
            [
              74.9788308,
              18.48606
            ],
            [
              74.9788525,
              18.4865644
            ],
            [
              74.9788897,
              18.4873475
            ],
            [
              74.9789056,
              18.4878745
            ],
            [
              74.9789086,
              18.4879328
            ],
            [
              74.9794567,
              18.487642
            ]
          ]
        ]
      }
    }
  ]
}