{
  "type": "FeatureCollection",
  "name": "Benwadi_Gat_324_Cadastre",
  "crs": {
    "type": "name",
    "properties": {
      "name": "urn:ogc:def:crs:OGC:1.3:CRS84"
    }
  },
  "features": [
    {
      "type": "Feature",
      "properties": {
        "parcel_id": "MH-AHM-KAR-BEN-324",
        "survey_no": "324",
        "gat_no": "324",
        "village": "Benwadi (बेनवडी)",
        "taluka": "Karjat (कर्जत)",
        "district": "Ahmednagar (अहमदनगर)",
        "state": "Maharashtra",
        "gis_code": "RVM2613272600130334420000",
        "owner_name": "निखील महादेव गायकवाड",
        "all_owners": [
          "निखील महादेव गायकवाड"
        ],
        "khata_no": "838",
        "area_sqm": 7505.78,
        "area_acres": 1.85,
        "area_guntha": 74.19,
        "land_type": "जिरायत शेती (Jirayat - Rainfed Agricultural)",
        "source": "MahaBhuNaksha Official Live Cadastre",
        "status": "verified",
        "confidence_score": 98.8,
        "old_survey_area_acres": 1.85,
        "old_survey_area_sqm": 7505.78,
        "new_survey_area_acres": 1.85,
        "new_survey_area_sqm": 7505.78
      },
      "geometry": {
        "type": "Polygon",
        "coordinates": [
          [
            [
              74.9641401,
              18.5066581
            ],
            [
              74.9642351,
              18.506638
            ],
            [
              74.9642034,
              18.5064746
            ],
            [
              74.9641071,
              18.5060041
            ],
            [
              74.9640663,
              18.5057814
            ],
            [
              74.9638554,
              18.5056544
            ],
            [
              74.9631533,
              18.5059147
            ],
            [
              74.9632275,
              18.5062098
            ],
            [
              74.9634984,
              18.506092
            ],
            [
              74.9635566,
              18.5060631
            ],
            [
              74.9636964,
              18.5065799
            ],
            [
              74.9637362,
              18.5067541
            ],
            [
              74.9641401,
              18.5066581
            ]
          ]
        ]
      }
    }
  ]
}