{
  "type": "FeatureCollection",
  "name": "Benwadi_Gat_332_Cadastre",
  "crs": {
    "type": "name",
    "properties": {
      "name": "urn:ogc:def:crs:OGC:1.3:CRS84"
    }
  },
  "features": [
    {
      "type": "Feature",
      "properties": {
        "parcel_id": "MH-AHM-KAR-BEN-332",
        "survey_no": "332",
        "gat_no": "332",
        "village": "Benwadi (बेनवडी)",
        "taluka": "Karjat (कर्जत)",
        "district": "Ahmednagar (अहमदनगर)",
        "state": "Maharashtra",
        "gis_code": "RVM2613272600130334420000",
        "owner_name": "उत्तम दत्तु भिताडे, झुंबरबाई उध्दव कवडे",
        "all_owners": [
          "उत्तम दत्तु भिताडे",
          "झुंबरबाई उध्दव कवडे",
          "छाया  रमेश \t लांगोरे",
          "शेऊबाई नवनाथ भिंताडे",
          "पपेश सूर्यकांत बूवा",
          "सूधीर सूर्यकांत बूवा",
          "जयश्री यशवंत बुवा",
          "मनिषा यशवंत बूवा"
        ],
        "khata_no": "2337, 2514, 2575, 315, 475, 476, 477, 478",
        "area_sqm": 101534.67,
        "area_acres": 25.09,
        "area_guntha": 1003.6,
        "land_type": "जिरायत शेती (Jirayat - Rainfed Agricultural)",
        "source": "MahaBhuNaksha Official Live Cadastre",
        "status": "verified",
        "confidence_score": 98.8,
        "old_survey_area_acres": 25.09,
        "old_survey_area_sqm": 101534.67,
        "new_survey_area_acres": 25.09,
        "new_survey_area_sqm": 101534.67
      },
      "geometry": {
        "type": "Polygon",
        "coordinates": [
          [
            [
              74.970178,
              18.5076086
            ],
            [
              74.9705913,
              18.5075938
            ],
            [
              74.9708718,
              18.5075838
            ],
            [
              74.9709388,
              18.5075757
            ],
            [
              74.9713602,
              18.5075183
            ],
            [
              74.9718283,
              18.5074629
            ],
            [
              74.9731974,
              18.5073882
            ],
            [
              74.9732746,
              18.5073835
            ],
            [
              74.9726467,
              18.5056648
            ],
            [
              74.972304,
              18.5047534
            ],
            [
              74.9723045,
              18.5046745
            ],
            [
              74.9707321,
              18.5043164
            ],
            [
              74.9701567,
              18.5050027
            ],
            [
              74.9696325,
              18.505384
            ],
            [
              74.9697985,
              18.5067256
            ],
            [
              74.9698267,
              18.5069543
            ],
            [
              74.9699128,
              18.5076144
            ],
            [
              74.9699532,
              18.5076166
            ],
            [
              74.970178,
              18.5076086
            ]
          ]
        ]
      }
    }
  ]
}