{
  "type": "FeatureCollection",
  "name": "Benwadi_Gat_37_Drone_Resurvey",
  "crs": {
    "type": "name",
    "properties": {
      "name": "urn:ogc:def:crs:OGC:1.3:CRS84"
    }
  },
  "features": [
    {
      "type": "Feature",
      "properties": {
        "parcel_id": "MH-AHM-KAR-BEN-37",
        "survey_no": "37",
        "gat_no": "37",
        "village": "Benwadi (बेनवडी)",
        "taluka": "Karjat (कर्जत)",
        "district": "Ahmednagar (अहमदनगर)",
        "state": "Maharashtra",
        "gis_code": "RVM2613272600130334420000",
        "owner_name": "महाराष्ट्र राज्याचे मा. राज्यपाल यांचे वतीने जलसंपदा विभाग महाराष्ट्र शासनाचे प्राधिकृत प्रतिनिधि - कार्यकारी अभियंता, कुकडी वितरण बांधकाम विभाग काेळवडी ता. कर्जत यांचे कबुलीजबाबासाठी कुलमुखत्यार म्हणून - कनिष्ठ लिपिक कुकडी वितरण बांधकाम विभाग काेळवडी ता. कर्जत - - -, दादा साहेबराव धुमाळ",
        "all_owners": [
          "महाराष्ट्र राज्याचे मा. राज्यपाल यांचे वतीने जलसंपदा विभाग महाराष्ट्र शासनाचे प्राधिकृत प्रतिनिधि - कार्यकारी अभियंता, कुकडी वितरण बांधकाम विभाग काेळवडी ता. कर्जत यांचे कबुलीजबाबासाठी कुलमुखत्यार म्हणून - कनिष्ठ लिपिक कुकडी वितरण बांधकाम विभाग काेळवडी ता. कर्जत - - -",
          "दादा साहेबराव धुमाळ",
          "गोरख  साहेबराव धुमाळ"
        ],
        "khata_no": "3205, 3309, 3310",
        "area_sqm": 13504.89,
        "area_acres": 3.34,
        "area_guntha": 133.49,
        "land_type": "जिरायत शेती (Jirayat - Rainfed Agricultural)",
        "source": "MahaBhuNaksha Official Live Cadastre",
        "status": "needs_review",
        "confidence_score": 85.5,
        "old_survey_area_acres": 3.34,
        "old_survey_area_sqm": 13504.89,
        "new_survey_area_acres": 3.41,
        "new_survey_area_sqm": 13788.5,
        "area_diff_pct": 2.1,
        "mean_shift_m": 1.6,
        "iou_overlap_pct": 93.9,
        "review_reason": "Drone RTK photogrammetry detects a 2.1% area discrepancy (284 m²) with a mean bund shift of 1.6m along the farm boundary. Verification recommended.",
        "bhunaksha_geometry": {
          "type": "Polygon",
          "coordinates": [
            [
              [
                74.9871295,
                18.4849383
              ],
              [
                74.9873202,
                18.4848866
              ],
              [
                74.9872284,
                18.4841339
              ],
              [
                74.9861615,
                18.4835917
              ],
              [
                74.9862009,
                18.4838848
              ],
              [
                74.986331,
                18.4849983
              ],
              [
                74.9863671,
                18.4851516
              ],
              [
                74.9871295,
                18.4849383
              ]
            ]
          ]
        }
      },
      "geometry": {
        "type": "Polygon",
        "coordinates": [
          [
            [
              74.9871492,
              18.4849453
            ],
            [
              74.9873419,
              18.484893
            ],
            [
              74.9872491,
              18.4841324
            ],
            [
              74.9861711,
              18.4835846
            ],
            [
              74.9862109,
              18.4838807
            ],
            [
              74.9863423,
              18.4850059
            ],
            [
              74.9863788,
              18.4851608
            ],
            [
              74.9871492,
              18.4849453
            ]
          ]
        ]
      }
    }
  ]
}