{
  "type": "FeatureCollection",
  "name": "Benwadi_Gat_256_Drone_Resurvey",
  "crs": {
    "type": "name",
    "properties": {
      "name": "urn:ogc:def:crs:OGC:1.3:CRS84"
    }
  },
  "features": [
    {
      "type": "Feature",
      "properties": {
        "parcel_id": "MH-AHM-KAR-BEN-256",
        "survey_no": "256",
        "gat_no": "256",
        "village": "Benwadi (बेनवडी)",
        "taluka": "Karjat (कर्जत)",
        "district": "Ahmednagar (अहमदनगर)",
        "state": "Maharashtra",
        "gis_code": "RVM2613272600130334420000",
        "owner_name": "राजेंद्र सिताराम घंटे, विजय सिताराम घंटे, दत्तू रामदास गायकवाड",
        "all_owners": [
          "राजेंद्र सिताराम घंटे, विजय सिताराम घंटे",
          "दत्तू रामदास गायकवाड"
        ],
        "khata_no": "3002, 578",
        "area_sqm": 896.69,
        "area_acres": 0.22,
        "area_guntha": 8.86,
        "land_type": "जिरायत शेती (Jirayat - Rainfed Agricultural)",
        "source": "MahaBhuNaksha Official Live Cadastre",
        "status": "needs_review",
        "confidence_score": 85.4,
        "old_survey_area_acres": 0.22,
        "old_survey_area_sqm": 896.69,
        "new_survey_area_acres": 0.22,
        "new_survey_area_sqm": 916.4,
        "area_diff_pct": 2.2,
        "mean_shift_m": 2.1,
        "iou_overlap_pct": 93.8,
        "review_reason": "Drone RTK photogrammetry detects a 2.2% area discrepancy (20 m²) with a mean bund shift of 2.1m along the farm boundary. Verification recommended.",
        "bhunaksha_geometry": {
          "type": "Polygon",
          "coordinates": [
            [
              [
                74.9688409,
                18.4984073
              ],
              [
                74.9685604,
                18.4985534
              ],
              [
                74.9685985,
                18.4987727
              ],
              [
                74.9688841,
                18.498699
              ],
              [
                74.9688409,
                18.4984073
              ]
            ]
          ]
        }
      },
      "geometry": {
        "type": "Polygon",
        "coordinates": [
          [
            [
              74.9688364,
              18.4984232
            ],
            [
              74.9685528,
              18.4985709
            ],
            [
              74.9685913,
              18.4987926
            ],
            [
              74.9688801,
              18.4987181
            ],
            [
              74.9688364,
              18.4984232
            ]
          ]
        ]
      }
    }
  ]
}