{
  "type": "FeatureCollection",
  "name": "Benwadi_Gat_199_Cadastre",
  "crs": {
    "type": "name",
    "properties": {
      "name": "urn:ogc:def:crs:OGC:1.3:CRS84"
    }
  },
  "features": [
    {
      "type": "Feature",
      "properties": {
        "parcel_id": "MH-AHM-KAR-BEN-199",
        "survey_no": "199",
        "gat_no": "199",
        "village": "Benwadi (बेनवडी)",
        "taluka": "Karjat (कर्जत)",
        "district": "Ahmednagar (अहमदनगर)",
        "state": "Maharashtra",
        "gis_code": "RVM2613272600130334420000",
        "owner_name": "मारूती रंगनाथ देशमूख, कलावती सुदाम वाळुंजकर, चंदा चंदु देशमूख, छाया भिमराव पवार, ताई चंदु देशमूख, दादा बाजीराव देशमूख, मंदा धनु देशमूख, राजु चंदु देशमूख, लता चंदु देशमूख, पद्मिनि बाजीराव देशमूख, सुनिल बाजीराव देशमूख",
        "all_owners": [
          "मारूती रंगनाथ देशमूख",
          "कलावती सुदाम वाळुंजकर, चंदा चंदु देशमूख, छाया भिमराव पवार, ताई चंदु देशमूख, दादा बाजीराव देशमूख, मंदा धनु देशमूख, राजु चंदु देशमूख, लता चंदु देशमूख, पद्मिनि बाजीराव देशमूख, सुनिल बाजीराव देशमूख",
          "कोमल संजय देशमुख   अ.पा.क श्रीरंग  रावसो जगताप",
          "संग्राम उर्फ  कृष्णा संजय देशमुख   अ.पा.क श्रीरंग  रावसो जगताप",
          "सिध्दी संजय देशमुख  अ.पा.क श्रीरंग  रावसो जगताप",
          "अमृता  संभाजी  देशमुख, वृषाल  संभाजी  देशमुख, योगिता संभाजी देशमुख",
          "दशरथ तुकाराम देशमुख"
        ],
        "khata_no": "231, 2396, 2901, 2902, 2904, 2781, 3063",
        "area_sqm": 15154.82,
        "area_acres": 3.74,
        "area_guntha": 149.8,
        "land_type": "जिरायत शेती (Jirayat - Rainfed Agricultural)",
        "source": "MahaBhuNaksha Official Live Cadastre",
        "status": "verified",
        "confidence_score": 98.8,
        "old_survey_area_acres": 3.74,
        "old_survey_area_sqm": 15154.82,
        "new_survey_area_acres": 3.74,
        "new_survey_area_sqm": 15154.82
      },
      "geometry": {
        "type": "Polygon",
        "coordinates": [
          [
            [
              74.9619386,
              18.4847218
            ],
            [
              74.9613372,
              18.4838177
            ],
            [
              74.9602869,
              18.4839811
            ],
            [
              74.9607721,
              18.4851353
            ],
            [
              74.9619386,
              18.4847218
            ]
          ]
        ]
      }
    }
  ]
}