{
  "type": "FeatureCollection",
  "name": "Benwadi_Gat_121_Cadastre",
  "crs": {
    "type": "name",
    "properties": {
      "name": "urn:ogc:def:crs:OGC:1.3:CRS84"
    }
  },
  "features": [
    {
      "type": "Feature",
      "properties": {
        "parcel_id": "MH-AHM-KAR-BEN-121",
        "survey_no": "121",
        "gat_no": "121",
        "village": "Benwadi (बेनवडी)",
        "taluka": "Karjat (कर्जत)",
        "district": "Ahmednagar (अहमदनगर)",
        "state": "Maharashtra",
        "gis_code": "RVM2613272600130334420000",
        "owner_name": "बबन तूकाराम गदादे, आबा तूकाराम गदादे",
        "all_owners": [
          "बबन तूकाराम गदादे",
          "आबा तूकाराम गदादे",
          "दत्तात्रय तूकाराम गदादे"
        ],
        "khata_no": "593, 595, 594",
        "area_sqm": 37752.49,
        "area_acres": 9.33,
        "area_guntha": 373.16,
        "land_type": "जिरायत शेती (Jirayat - Rainfed Agricultural)",
        "source": "MahaBhuNaksha Official Live Cadastre",
        "status": "verified",
        "confidence_score": 98.8,
        "old_survey_area_acres": 9.33,
        "old_survey_area_sqm": 37752.49,
        "new_survey_area_acres": 9.33,
        "new_survey_area_sqm": 37752.49
      },
      "geometry": {
        "type": "Polygon",
        "coordinates": [
          [
            [
              74.9748313,
              18.4864193
            ],
            [
              74.9746246,
              18.4854613
            ],
            [
              74.9731444,
              18.4856408
            ],
            [
              74.972189,
              18.4857308
            ],
            [
              74.9722448,
              18.4871577
            ],
            [
              74.9736256,
              18.4873125
            ],
            [
              74.9735053,
              18.4865405
            ],
            [
              74.9748313,
              18.4864193
            ]
          ]
        ]
      }
    }
  ]
}