{
  "type": "FeatureCollection",
  "name": "Benwadi_Gat_262_Cadastre",
  "crs": {
    "type": "name",
    "properties": {
      "name": "urn:ogc:def:crs:OGC:1.3:CRS84"
    }
  },
  "features": [
    {
      "type": "Feature",
      "properties": {
        "parcel_id": "MH-AHM-KAR-BEN-262",
        "survey_no": "262",
        "gat_no": "262",
        "village": "Benwadi (बेनवडी)",
        "taluka": "Karjat (कर्जत)",
        "district": "Ahmednagar (अहमदनगर)",
        "state": "Maharashtra",
        "gis_code": "RVM2613272600130334420000",
        "owner_name": "राजु खंडू भिताडे, राणी गणेश भिताडे",
        "all_owners": [
          "राजु खंडू भिताडे",
          "राणी गणेश भिताडे",
          "गणेश खंडू भिताडे"
        ],
        "khata_no": "1055, 2918, 49",
        "area_sqm": 35805.81,
        "area_acres": 8.85,
        "area_guntha": 353.92,
        "land_type": "जिरायत शेती (Jirayat - Rainfed Agricultural)",
        "source": "MahaBhuNaksha Official Live Cadastre",
        "status": "verified",
        "confidence_score": 98.8,
        "old_survey_area_acres": 8.85,
        "old_survey_area_sqm": 35805.81,
        "new_survey_area_acres": 8.85,
        "new_survey_area_sqm": 35805.81
      },
      "geometry": {
        "type": "Polygon",
        "coordinates": [
          [
            [
              74.966744,
              18.4917402
            ],
            [
              74.9662812,
              18.4907476
            ],
            [
              74.9648207,
              18.4911716
            ],
            [
              74.9635278,
              18.4915505
            ],
            [
              74.9637591,
              18.4925055
            ],
            [
              74.9654192,
              18.4920778
            ],
            [
              74.966744,
              18.4917402
            ]
          ]
        ]
      }
    }
  ]
}