{
  "type": "FeatureCollection",
  "name": "Benwadi_Gat_92_Cadastre",
  "crs": {
    "type": "name",
    "properties": {
      "name": "urn:ogc:def:crs:OGC:1.3:CRS84"
    }
  },
  "features": [
    {
      "type": "Feature",
      "properties": {
        "parcel_id": "MH-AHM-KAR-BEN-92",
        "survey_no": "92",
        "gat_no": "92",
        "village": "Benwadi (बेनवडी)",
        "taluka": "Karjat (कर्जत)",
        "district": "Ahmednagar (अहमदनगर)",
        "state": "Maharashtra",
        "gis_code": "RVM2613272600130334420000",
        "owner_name": "कलावती बापूराव, देवराव चंदर खुडे",
        "all_owners": [
          "कलावती बापूराव",
          "देवराव चंदर खुडे",
          "निलावती बापूराव भिसे",
          "यमुना साहेबराव दिवटे"
        ],
        "khata_no": "2648, 2649, 2650, 2754",
        "area_sqm": 3192.19,
        "area_acres": 0.79,
        "area_guntha": 31.55,
        "land_type": "जिरायत शेती (Jirayat - Rainfed Agricultural)",
        "source": "MahaBhuNaksha Official Live Cadastre",
        "status": "verified",
        "confidence_score": 98.8,
        "old_survey_area_acres": 0.79,
        "old_survey_area_sqm": 3192.19,
        "new_survey_area_acres": 0.79,
        "new_survey_area_sqm": 3192.19
      },
      "geometry": {
        "type": "Polygon",
        "coordinates": [
          [
            [
              74.9811177,
              18.4889098
            ],
            [
              74.9811386,
              18.4887142
            ],
            [
              74.9802829,
              18.4889235
            ],
            [
              74.9798677,
              18.4890138
            ],
            [
              74.979812,
              18.4890428
            ],
            [
              74.9798863,
              18.4892531
            ],
            [
              74.9808825,
              18.4889744
            ],
            [
              74.9811177,
              18.4889098
            ]
          ]
        ]
      }
    }
  ]
}