{
  "type": "FeatureCollection",
  "name": "Benwadi_Gat_33_Cadastre",
  "crs": {
    "type": "name",
    "properties": {
      "name": "urn:ogc:def:crs:OGC:1.3:CRS84"
    }
  },
  "features": [
    {
      "type": "Feature",
      "properties": {
        "parcel_id": "MH-AHM-KAR-BEN-33",
        "survey_no": "33",
        "gat_no": "33",
        "village": "Benwadi (बेनवडी)",
        "taluka": "Karjat (कर्जत)",
        "district": "Ahmednagar (अहमदनगर)",
        "state": "Maharashtra",
        "gis_code": "RVM2613272600130334420000",
        "owner_name": "काकासाहेब गोविंद दवने, महाराष्ट्र राज्याचे मा.राज्यपाल यांचे वतीने जलसंपदा विभाग महाराष्ट्र शासनाचे प्राधिकृत प्रतिनिधी – कार्यकारी अभियंता, कुकडी वितरण विभाग कोळवडी, ता.कर्जत यांचे कबुलीजबाबासाठी कुलमखत्यार म्हणून- कनिष्ठ लिपिक कुकडी वितरण बांधकाम विभाग कोळवडी ता कर्जत –",
        "all_owners": [
          "काकासाहेब गोविंद दवने",
          "महाराष्ट्र राज्याचे मा.राज्यपाल यांचे वतीने जलसंपदा विभाग महाराष्ट्र शासनाचे प्राधिकृत प्रतिनिधी – कार्यकारी अभियंता, कुकडी वितरण विभाग कोळवडी, ता.कर्जत यांचे कबुलीजबाबासाठी कुलमखत्यार म्हणून- कनिष्ठ लिपिक कुकडी वितरण बांधकाम विभाग कोळवडी ता कर्जत –",
          "लालासाहेब काकासाहेब दवणे",
          "सूभाष काकासाहेब दवणे",
          "बबन काकासाहेब दवणे",
          "बाळू काकासाहेब दवणे",
          "महाराष्ट्र राज्याचे मा.राज्यपाल यांचे वतीने जलसंपदा विभाग महाराष्ट्र शासनाचे प्राधिकृत प्रतिनिधी – कार्यकारी अभियंता, कुकडी वितरण विभाग कोळवडी, ता.कर्जत यांचे कबुलीजबाबासाठी कुलमखत्यार म्हणून- कनिष्ठ लिपिक कुकडी वितरण बांधकाम विभाग कोळवडी ता कर्जत – काेळवडी ता. कर्जत यांचे कबुलीजबाबासाठी कुलमुखत्यार म्हणून - कनिष्ठ लिपिक",
          "महाराष्ट्र राज्याचे मा.राज्यपाल यांचे वतीने जलसंपदा विभाग महाराष्ट्र शासनाचे प्राधिकृत प्रतिनिधी – कार्यकारी अभियंता, कुकडी वितरण विभाग कोळवडी, ता.कर्जत यांचे कबुलीजबाबासाठी कुलमखत्यार म्हणून- कनिष्ठ लिपिक कुकडी वितरण बांधकाम विभाग कोळवडी ता कर्जत –",
          "विनोद भाऊसाहेब दवणे",
          "बापू भाऊसाहेब दवणे"
        ],
        "khata_no": "31, 3179, 3258, 786, 787, 789, 3125, 3126, 790, 791",
        "area_sqm": 76878.18,
        "area_acres": 19.0,
        "area_guntha": 759.89,
        "land_type": "जिरायत शेती (Jirayat - Rainfed Agricultural)",
        "source": "MahaBhuNaksha Official Live Cadastre",
        "status": "verified",
        "confidence_score": 98.8,
        "old_survey_area_acres": 19.0,
        "old_survey_area_sqm": 76878.18,
        "new_survey_area_acres": 19.0,
        "new_survey_area_sqm": 76878.18
      },
      "geometry": {
        "type": "Polygon",
        "coordinates": [
          [
            [
              74.9906369,
              18.4861942
            ],
            [
              74.9906167,
              18.4858099
            ],
            [
              74.9908642,
              18.4856441
            ],
            [
              74.9908004,
              18.484749
            ],
            [
              74.9912821,
              18.4846908
            ],
            [
              74.9913196,
              18.4844872
            ],
            [
              74.9908924,
              18.4843991
            ],
            [
              74.9912522,
              18.4838041
            ],
            [
              74.9912455,
              18.4835257
            ],
            [
              74.9913621,
              18.4834335
            ],
            [
              74.991338,
              18.4831822
            ],
            [
              74.990939,
              18.4833127
            ],
            [
              74.9908137,
              18.483373
            ],
            [
              74.9908126,
              18.4835417
            ],
            [
              74.9901873,
              18.4839533
            ],
            [
              74.9901934,
              18.4843162
            ],
            [
              74.989579,
              18.4847919
            ],
            [
              74.9890245,
              18.4848291
            ],
            [
              74.9885988,
              18.4848751
            ],
            [
              74.9886607,
              18.4855715
            ],
            [
              74.9883797,
              18.48572
            ],
            [
              74.9881921,
              18.4858169
            ],
            [
              74.9882233,
              18.4864606
            ],
            [
              74.9883343,
              18.4868423
            ],
            [
              74.9884316,
              18.487212
            ],
            [
              74.9885909,
              18.4878113
            ],
            [
              74.9888698,
              18.4876593
            ],
            [
              74.9893909,
              18.4872323
            ],
            [
              74.9903107,
              18.4864546
            ],
            [
              74.9906369,
              18.4861942
            ]
          ]
        ]
      }
    }
  ]
}