{
  "type": "FeatureCollection",
  "name": "Benwadi_Gat_296_Cadastre",
  "crs": {
    "type": "name",
    "properties": {
      "name": "urn:ogc:def:crs:OGC:1.3:CRS84"
    }
  },
  "features": [
    {
      "type": "Feature",
      "properties": {
        "parcel_id": "MH-AHM-KAR-BEN-296",
        "survey_no": "296",
        "gat_no": "296",
        "village": "Benwadi (बेनवडी)",
        "taluka": "Karjat (कर्जत)",
        "district": "Ahmednagar (अहमदनगर)",
        "state": "Maharashtra",
        "gis_code": "RVM2613272600130334420000",
        "owner_name": "हरीचंद्र यमाजी धूमाळ",
        "all_owners": [
          "हरीचंद्र यमाजी धूमाळ"
        ],
        "khata_no": "371",
        "area_sqm": 2999.54,
        "area_acres": 0.74,
        "area_guntha": 29.65,
        "land_type": "जिरायत शेती (Jirayat - Rainfed Agricultural)",
        "source": "MahaBhuNaksha Official Live Cadastre",
        "status": "verified",
        "confidence_score": 98.8,
        "old_survey_area_acres": 0.74,
        "old_survey_area_sqm": 2999.54,
        "new_survey_area_acres": 0.74,
        "new_survey_area_sqm": 2999.54
      },
      "geometry": {
        "type": "Polygon",
        "coordinates": [
          [
            [
              74.9678905,
              18.5034392
            ],
            [
              74.9678839,
              18.5032202
            ],
            [
              74.9673996,
              18.5032862
            ],
            [
              74.9673268,
              18.5032868
            ],
            [
              74.966405,
              18.5034975
            ],
            [
              74.9664374,
              18.5035882
            ],
            [
              74.9678905,
              18.5034392
            ]
          ]
        ]
      }
    }
  ]
}