{
  "type": "FeatureCollection",
  "name": "Benwadi_Gat_418_Cadastre",
  "crs": {
    "type": "name",
    "properties": {
      "name": "urn:ogc:def:crs:OGC:1.3:CRS84"
    }
  },
  "features": [
    {
      "type": "Feature",
      "properties": {
        "parcel_id": "MH-AHM-KAR-BEN-418",
        "survey_no": "418",
        "gat_no": "418",
        "village": "Benwadi (बेनवडी)",
        "taluka": "Karjat (कर्जत)",
        "district": "Ahmednagar (अहमदनगर)",
        "state": "Maharashtra",
        "gis_code": "RVM2613272600130334420000",
        "owner_name": "नारायण दत्तात्रय कोहळे",
        "all_owners": [
          "नारायण दत्तात्रय कोहळे"
        ],
        "khata_no": "603",
        "area_sqm": 25976.82,
        "area_acres": 6.42,
        "area_guntha": 256.76,
        "land_type": "जिरायत शेती (Jirayat - Rainfed Agricultural)",
        "source": "MahaBhuNaksha Official Live Cadastre",
        "status": "verified",
        "confidence_score": 98.8,
        "old_survey_area_acres": 6.42,
        "old_survey_area_sqm": 25976.82,
        "new_survey_area_acres": 6.42,
        "new_survey_area_sqm": 25976.82
      },
      "geometry": {
        "type": "Polygon",
        "coordinates": [
          [
            [
              74.999259,
              18.4936309
            ],
            [
              75.0006425,
              18.4930275
            ],
            [
              75.0004267,
              18.4927273
            ],
            [
              74.9980565,
              18.4932615
            ],
            [
              74.997216,
              18.493475
            ],
            [
              74.997274,
              18.4936107
            ],
            [
              74.997556,
              18.4943942
            ],
            [
              74.999259,
              18.4936309
            ]
          ]
        ]
      }
    }
  ]
}