{
  "type": "FeatureCollection",
  "name": "Benwadi_Gat_529_Drone_Resurvey",
  "crs": {
    "type": "name",
    "properties": {
      "name": "urn:ogc:def:crs:OGC:1.3:CRS84"
    }
  },
  "features": [
    {
      "type": "Feature",
      "properties": {
        "parcel_id": "MH-AHM-KAR-BEN-529",
        "survey_no": "529",
        "gat_no": "529",
        "village": "Benwadi (बेनवडी)",
        "taluka": "Karjat (कर्जत)",
        "district": "Ahmednagar (अहमदनगर)",
        "state": "Maharashtra",
        "gis_code": "RVM2613272600130334420000",
        "owner_name": "नारायन बाबासाहेब गदादे, गोदड रामकृष्ण गदादे",
        "all_owners": [
          "नारायन बाबासाहेब गदादे",
          "गोदड रामकृष्ण गदादे"
        ],
        "khata_no": "2461, 2607",
        "area_sqm": 41149.42,
        "area_acres": 10.17,
        "area_guntha": 406.74,
        "land_type": "जिरायत शेती (Jirayat - Rainfed Agricultural)",
        "source": "MahaBhuNaksha Official Live Cadastre",
        "status": "needs_review",
        "confidence_score": 84.5,
        "old_survey_area_acres": 10.17,
        "old_survey_area_sqm": 41149.42,
        "new_survey_area_acres": 10.46,
        "new_survey_area_sqm": 42342.8,
        "area_diff_pct": 2.9,
        "mean_shift_m": 1.6,
        "iou_overlap_pct": 93.1,
        "review_reason": "Drone RTK photogrammetry detects a 2.9% area discrepancy (1193 m²) with a mean bund shift of 1.6m along the farm boundary. Verification recommended.",
        "bhunaksha_geometry": {
          "type": "Polygon",
          "coordinates": [
            [
              [
                74.9804547,
                18.4950051
              ],
              [
                74.9814523,
                18.4947836
              ],
              [
                74.9814332,
                18.4947031
              ],
              [
                74.9813899,
                18.494521
              ],
              [
                74.9813157,
                18.494209
              ],
              [
                74.9812792,
                18.4940553
              ],
              [
                74.9812402,
                18.4938911
              ],
              [
                74.9811972,
                18.4937103
              ],
              [
                74.9811318,
                18.4934352
              ],
              [
                74.9811059,
                18.4933246
              ],
              [
                74.9809666,
                18.4927289
              ],
              [
                74.9803692,
                18.4928693
              ],
              [
                74.9797922,
                18.4926106
              ],
              [
                74.9793542,
                18.4927565
              ],
              [
                74.9796857,
                18.4940645
              ],
              [
                74.9799456,
                18.4951038
              ],
              [
                74.9804547,
                18.4950051
              ]
            ]
          ]
        }
      },
      "geometry": {
        "type": "Polygon",
        "coordinates": [
          [
            [
              74.9804651,
              18.4950181
            ],
            [
              74.981477,
              18.4947934
            ],
            [
              74.9814577,
              18.4947117
            ],
            [
              74.9814137,
              18.494527
            ],
            [
              74.9813385,
              18.4942105
            ],
            [
              74.9813014,
              18.4940546
            ],
            [
              74.9812619,
              18.4938881
            ],
            [
              74.9812183,
              18.4937047
            ],
            [
              74.9811519,
              18.4934256
            ],
            [
              74.9811257,
              18.4933134
            ],
            [
              74.9809843,
              18.4927091
            ],
            [
              74.9803783,
              18.4928515
            ],
            [
              74.979793,
              18.4925891
            ],
            [
              74.9793487,
              18.4927371
            ],
            [
              74.979685,
              18.494064
            ],
            [
              74.9799486,
              18.4951182
            ],
            [
              74.9804651,
              18.4950181
            ]
          ]
        ]
      }
    }
  ]
}