{
  "type": "FeatureCollection",
  "name": "Benwadi_Gat_276_Cadastre",
  "crs": {
    "type": "name",
    "properties": {
      "name": "urn:ogc:def:crs:OGC:1.3:CRS84"
    }
  },
  "features": [
    {
      "type": "Feature",
      "properties": {
        "parcel_id": "MH-AHM-KAR-BEN-276",
        "survey_no": "276",
        "gat_no": "276",
        "village": "Benwadi (बेनवडी)",
        "taluka": "Karjat (कर्जत)",
        "district": "Ahmednagar (अहमदनगर)",
        "state": "Maharashtra",
        "gis_code": "RVM2613272600130334420000",
        "owner_name": "भाऊसाहेब माणिक गदादे, संपत  माणिक  गदादे",
        "all_owners": [
          "भाऊसाहेब माणिक गदादे",
          "संपत  माणिक  गदादे",
          "माधुरी  भाऊसो  गदादे",
          "संदीप  संपत  गदादे"
        ],
        "khata_no": "2435, 2615, 2623, 2616",
        "area_sqm": 48000.62,
        "area_acres": 11.86,
        "area_guntha": 474.46,
        "land_type": "जिरायत शेती (Jirayat - Rainfed Agricultural)",
        "source": "MahaBhuNaksha Official Live Cadastre",
        "status": "verified",
        "confidence_score": 98.8,
        "old_survey_area_acres": 11.86,
        "old_survey_area_sqm": 48000.62,
        "new_survey_area_acres": 11.86,
        "new_survey_area_sqm": 48000.62
      },
      "geometry": {
        "type": "Polygon",
        "coordinates": [
          [
            [
              74.9644405,
              18.4956598
            ],
            [
              74.9640231,
              18.4935572
            ],
            [
              74.9631394,
              18.494131
            ],
            [
              74.9620596,
              18.4948274
            ],
            [
              74.9619642,
              18.4949074
            ],
            [
              74.9624555,
              18.4963874
            ],
            [
              74.9644405,
              18.4956598
            ]
          ]
        ]
      }
    }
  ]
}