{
  "type": "FeatureCollection",
  "name": "Benwadi_Gat_382_Drone_Resurvey",
  "crs": {
    "type": "name",
    "properties": {
      "name": "urn:ogc:def:crs:OGC:1.3:CRS84"
    }
  },
  "features": [
    {
      "type": "Feature",
      "properties": {
        "parcel_id": "MH-AHM-KAR-BEN-382",
        "survey_no": "382",
        "gat_no": "382",
        "village": "Benwadi (बेनवडी)",
        "taluka": "Karjat (कर्जत)",
        "district": "Ahmednagar (अहमदनगर)",
        "state": "Maharashtra",
        "gis_code": "RVM2613272600130334420000",
        "owner_name": "हनुमंत दशरथ गदादे, उध्दव सिताराम गदादे",
        "all_owners": [
          "हनुमंत दशरथ गदादे",
          "उध्दव सिताराम गदादे",
          "सावता सहादू गदादे"
        ],
        "khata_no": "874, 4, 343",
        "area_sqm": 41506.16,
        "area_acres": 10.26,
        "area_guntha": 410.26,
        "land_type": "जिरायत शेती (Jirayat - Rainfed Agricultural)",
        "source": "MahaBhuNaksha Official Live Cadastre",
        "status": "needs_review",
        "confidence_score": 84.9,
        "old_survey_area_acres": 10.26,
        "old_survey_area_sqm": 41506.16,
        "new_survey_area_acres": 10.53,
        "new_survey_area_sqm": 42585.3,
        "area_diff_pct": 2.6,
        "mean_shift_m": 1.5,
        "iou_overlap_pct": 93.4,
        "review_reason": "Drone RTK photogrammetry detects a 2.6% area discrepancy (1079 m²) with a mean bund shift of 1.5m along the farm boundary. Verification recommended.",
        "bhunaksha_geometry": {
          "type": "Polygon",
          "coordinates": [
            [
              [
                74.9829494,
                18.5044427
              ],
              [
                74.9819465,
                18.5043945
              ],
              [
                74.9812282,
                18.5043456
              ],
              [
                74.9809632,
                18.5043366
              ],
              [
                74.9806295,
                18.5059296
              ],
              [
                74.9813932,
                18.5059597
              ],
              [
                74.9830748,
                18.5060542
              ],
              [
                74.98302,
                18.5052752
              ],
              [
                74.9829494,
                18.5044427
              ]
            ]
          ]
        }
      },
      "geometry": {
        "type": "Polygon",
        "coordinates": [
          [
            [
              74.9829569,
              18.5044221
            ],
            [
              74.9819411,
              18.5043733
            ],
            [
              74.9812135,
              18.5043237
            ],
            [
              74.9809451,
              18.5043146
            ],
            [
              74.9806071,
              18.5059282
            ],
            [
              74.9813806,
              18.5059587
            ],
            [
              74.983084,
              18.5060544
            ],
            [
              74.9830284,
              18.5052653
            ],
            [
              74.9829569,
              18.5044221
            ]
          ]
        ]
      }
    }
  ]
}