{
  "type": "FeatureCollection",
  "name": "Benwadi_Gat_157_Cadastre",
  "crs": {
    "type": "name",
    "properties": {
      "name": "urn:ogc:def:crs:OGC:1.3:CRS84"
    }
  },
  "features": [
    {
      "type": "Feature",
      "properties": {
        "parcel_id": "MH-AHM-KAR-BEN-157",
        "survey_no": "157",
        "gat_no": "157",
        "village": "Benwadi (बेनवडी)",
        "taluka": "Karjat (कर्जत)",
        "district": "Ahmednagar (अहमदनगर)",
        "state": "Maharashtra",
        "gis_code": "RVM2613272600130334420000",
        "owner_name": "फुलचंद  काशिनाथ  गदादे, सोमनाथ विश्वनाथ गदादे",
        "all_owners": [
          "फुलचंद  काशिनाथ  गदादे",
          "सोमनाथ विश्वनाथ गदादे",
          "फूलचंद काशिनाथ गदादे",
          "विश्वनाथ लक्ष्मण गदादे",
          "सुमन काशिनाथ गदादे, राजेंद्र विश्वनाथ गदादे"
        ],
        "khata_no": "3064, 53, 587, 588, 918",
        "area_sqm": 34325.62,
        "area_acres": 8.48,
        "area_guntha": 339.29,
        "land_type": "जिरायत शेती (Jirayat - Rainfed Agricultural)",
        "source": "MahaBhuNaksha Official Live Cadastre",
        "status": "verified",
        "confidence_score": 98.8,
        "old_survey_area_acres": 8.48,
        "old_survey_area_sqm": 34325.62,
        "new_survey_area_acres": 8.48,
        "new_survey_area_sqm": 34325.62
      },
      "geometry": {
        "type": "Polygon",
        "coordinates": [
          [
            [
              74.9708192,
              18.4811189
            ],
            [
              74.9693722,
              18.4811767
            ],
            [
              74.9695176,
              18.4823764
            ],
            [
              74.9695619,
              18.4824815
            ],
            [
              74.9699303,
              18.4835921
            ],
            [
              74.9707541,
              18.4836084
            ],
            [
              74.9707865,
              18.4822182
            ],
            [
              74.9708192,
              18.4811189
            ]
          ]
        ]
      }
    }
  ]
}