{
  "type": "FeatureCollection",
  "name": "Benwadi_Gat_167_Cadastre",
  "crs": {
    "type": "name",
    "properties": {
      "name": "urn:ogc:def:crs:OGC:1.3:CRS84"
    }
  },
  "features": [
    {
      "type": "Feature",
      "properties": {
        "parcel_id": "MH-AHM-KAR-BEN-167",
        "survey_no": "167",
        "gat_no": "167",
        "village": "Benwadi (बेनवडी)",
        "taluka": "Karjat (कर्जत)",
        "district": "Ahmednagar (अहमदनगर)",
        "state": "Maharashtra",
        "gis_code": "RVM2613272600130334420000",
        "owner_name": "दत्तात्रय रघुनाथ गदादे, राजेंद्र रघुनाथ गदादे",
        "all_owners": [
          "दत्तात्रय रघुनाथ गदादे",
          "राजेंद्र रघुनाथ गदादे",
          "महाराष्ट्र राज्याचे मा.राज्यपाल यांचे वतीने जलसंपदा विभाग महाराष्ट्र शासनाचे प्राधिकृत प्रतिनिधी – कार्यकारी अभियंता, कुकडी वितरण विभाग कोळवडी, ता.कर्जत यांचे कबुलीजबाबासाठी कुलमखत्यार म्हणून- कनिष्ठ लिपिक कुकडी वितरण बांधकाम विभाग कोळवडी ता कर्जत –",
          "महाराष्ट्र राज्याचे मा.राज्यपाल यांचे वतीने जलसंपदा विभाग महाराष्ट्र शासनाचे प्राधिकृत प्रतिनिधी – कार्यकारी अभियंता, कुकडी वितरण विभाग कोळवडी, ता.कर्जत यांचे कबुलीजबाबासाठी कुलमखत्यार म्हणून- कनिष्ठ लिपिक कुकडी वितरण बांधकाम विभाग कोळवडी ता कर्जत –",
          "महाराष्ट्र राज्याचे मा.राज्यपाल यांचे वतीने जलसंपदा विभाग महाराष्ट्र शासनाचे प्राधिकृत प्रतिनिधी – कार्यकारी अभियंता, कुकडी वितरण विभाग कोळवडी, ता.कर्जत यांचे कबुलीजबाबासाठी कुलमखत्यार म्हणून- कनिष्ठ लिपिक कुकडी वितरण बांधकाम विभाग कोळवडी ता कर्जत –",
          "हरिदास रघूनाथ गदादे"
        ],
        "khata_no": "2682, 2683, 3194, 3195, 3196, 988",
        "area_sqm": 13188.25,
        "area_acres": 3.26,
        "area_guntha": 130.36,
        "land_type": "जिरायत शेती (Jirayat - Rainfed Agricultural)",
        "source": "MahaBhuNaksha Official Live Cadastre",
        "status": "verified",
        "confidence_score": 98.8,
        "old_survey_area_acres": 3.26,
        "old_survey_area_sqm": 13188.25,
        "new_survey_area_acres": 3.26,
        "new_survey_area_sqm": 13188.25
      },
      "geometry": {
        "type": "Polygon",
        "coordinates": [
          [
            [
              74.9744231,
              18.4772513
            ],
            [
              74.9727456,
              18.4772399
            ],
            [
              74.9709059,
              18.4772398
            ],
            [
              74.9699347,
              18.4772464
            ],
            [
              74.9699096,
              18.4774301
            ],
            [
              74.9715821,
              18.47748
            ],
            [
              74.9743054,
              18.4775613
            ],
            [
              74.9744231,
              18.4772513
            ]
          ]
        ]
      }
    }
  ]
}