{
  "type": "FeatureCollection",
  "name": "Benwadi_Gat_10_Cadastre",
  "crs": {
    "type": "name",
    "properties": {
      "name": "urn:ogc:def:crs:OGC:1.3:CRS84"
    }
  },
  "features": [
    {
      "type": "Feature",
      "properties": {
        "parcel_id": "MH-AHM-KAR-BEN-10",
        "survey_no": "10",
        "gat_no": "10",
        "village": "Benwadi (बेनवडी)",
        "taluka": "Karjat (कर्जत)",
        "district": "Ahmednagar (अहमदनगर)",
        "state": "Maharashtra",
        "gis_code": "RVM2613272600130334420000",
        "owner_name": "लक्ष्मण बाबू बिबे, महाराष्ट्र राज्याचे मा.राज्यपाल यांचे वतीने जलसंपदा विभाग महाराष्ट्र शासनाचे प्राधिकृत प्रतिनिधी – कार्यकारी अभियंता, कुकडी वितरण विभाग कोळवडी, ता.कर्जत यांचे कबुलीजबाबासाठी कुलमखत्यार म्हणून- कनिष्ठ लिपिक कुकडी वितरण बांधकाम विभाग कोळवडी ता कर्जत –",
        "all_owners": [
          "लक्ष्मण बाबू बिबे",
          "महाराष्ट्र राज्याचे मा.राज्यपाल यांचे वतीने जलसंपदा विभाग महाराष्ट्र शासनाचे प्राधिकृत प्रतिनिधी – कार्यकारी अभियंता, कुकडी वितरण विभाग कोळवडी, ता.कर्जत यांचे कबुलीजबाबासाठी कुलमखत्यार म्हणून- कनिष्ठ लिपिक कुकडी वितरण बांधकाम विभाग कोळवडी ता कर्जत –",
          "महाराष्ट्र राज्याचे मा.राज्यपाल यांचे वतीने जलसंपदा विभाग महाराष्ट्र शासनाचे प्राधिकृत प्रतिनिधी – कार्यकारी अभियंता, कुकडी वितरण विभाग कोळवडी, ता.कर्जत यांचे कबुलीजबाबासाठी कुलमखत्यार म्हणून- कनिष्ठ लिपिक कुकडी वितरण बांधकाम विभाग कोळवडी ता कर्जत –",
          "शिवाजी लक्ष्मण बिबे",
          "अरुण शिवाजी बिबे",
          "सत्यशिला अरुण बिबे",
          "आप्पसाहेब लक्ष्मण बिबे"
        ],
        "khata_no": "278, 3168, 3169, 318, 3291, 3292, 6",
        "area_sqm": 61489.11,
        "area_acres": 15.19,
        "area_guntha": 607.78,
        "land_type": "जिरायत शेती (Jirayat - Rainfed Agricultural)",
        "source": "MahaBhuNaksha Official Live Cadastre",
        "status": "verified",
        "confidence_score": 98.8,
        "old_survey_area_acres": 15.19,
        "old_survey_area_sqm": 61489.11,
        "new_survey_area_acres": 15.19,
        "new_survey_area_sqm": 61489.11
      },
      "geometry": {
        "type": "Polygon",
        "coordinates": [
          [
            [
              74.9829727,
              18.4898898
            ],
            [
              74.9827802,
              18.4888084
            ],
            [
              74.9825224,
              18.4874659
            ],
            [
              74.9823707,
              18.4867343
            ],
            [
              74.9814959,
              18.4866372
            ],
            [
              74.9813697,
              18.4865978
            ],
            [
              74.9812195,
              18.4879588
            ],
            [
              74.9812057,
              18.4880883
            ],
            [
              74.9811386,
              18.4887142
            ],
            [
              74.9811177,
              18.4889098
            ],
            [
              74.9810915,
              18.4891539
            ],
            [
              74.9810786,
              18.4892752
            ],
            [
              74.9809918,
              18.4901607
            ],
            [
              74.9809596,
              18.4904346
            ],
            [
              74.9819748,
              18.4901246
            ],
            [
              74.98244,
              18.4899815
            ],
            [
              74.9829727,
              18.4898898
            ]
          ]
        ]
      }
    }
  ]
}