{
  "type": "FeatureCollection",
  "name": "Benwadi_Gat_350_Cadastre",
  "crs": {
    "type": "name",
    "properties": {
      "name": "urn:ogc:def:crs:OGC:1.3:CRS84"
    }
  },
  "features": [
    {
      "type": "Feature",
      "properties": {
        "parcel_id": "MH-AHM-KAR-BEN-350",
        "survey_no": "350",
        "gat_no": "350",
        "village": "Benwadi (बेनवडी)",
        "taluka": "Karjat (कर्जत)",
        "district": "Ahmednagar (अहमदनगर)",
        "state": "Maharashtra",
        "gis_code": "RVM2613272600130334420000",
        "owner_name": "मनीषा भिमराव जगताप, सुशांत संतोष भिताडे",
        "all_owners": [
          "मनीषा भिमराव जगताप",
          "सुशांत संतोष भिताडे",
          "संतोष लाला भिताडे"
        ],
        "khata_no": "3333, 3382, 622",
        "area_sqm": 38301.65,
        "area_acres": 9.46,
        "area_guntha": 378.59,
        "land_type": "जिरायत शेती (Jirayat - Rainfed Agricultural)",
        "source": "MahaBhuNaksha Official Live Cadastre",
        "status": "verified",
        "confidence_score": 98.8,
        "old_survey_area_acres": 9.46,
        "old_survey_area_sqm": 38301.65,
        "new_survey_area_acres": 9.46,
        "new_survey_area_sqm": 38301.65
      },
      "geometry": {
        "type": "Polygon",
        "coordinates": [
          [
            [
              74.9766597,
              18.502145
            ],
            [
              74.9762461,
              18.5015612
            ],
            [
              74.9752945,
              18.5002564
            ],
            [
              74.9752183,
              18.5002069
            ],
            [
              74.9746389,
              18.5000636
            ],
            [
              74.9744234,
              18.5001873
            ],
            [
              74.9742549,
              18.5002895
            ],
            [
              74.9740809,
              18.5003133
            ],
            [
              74.973802,
              18.5003428
            ],
            [
              74.973888,
              18.5004184
            ],
            [
              74.9743379,
              18.5010809
            ],
            [
              74.9752651,
              18.5024559
            ],
            [
              74.9766597,
              18.502145
            ]
          ]
        ]
      }
    }
  ]
}