{
  "type": "FeatureCollection",
  "name": "Benwadi_Gat_211_Cadastre",
  "crs": {
    "type": "name",
    "properties": {
      "name": "urn:ogc:def:crs:OGC:1.3:CRS84"
    }
  },
  "features": [
    {
      "type": "Feature",
      "properties": {
        "parcel_id": "MH-AHM-KAR-BEN-211",
        "survey_no": "211",
        "gat_no": "211",
        "village": "Benwadi (बेनवडी)",
        "taluka": "Karjat (कर्जत)",
        "district": "Ahmednagar (अहमदनगर)",
        "state": "Maharashtra",
        "gis_code": "RVM2613272600130334420000",
        "owner_name": "मनोज अजिनाथ गदादे, संजय आजिनाथ गदादे",
        "all_owners": [
          "मनोज अजिनाथ गदादे",
          "संजय आजिनाथ गदादे"
        ],
        "khata_no": "3238, 425",
        "area_sqm": 33239.1,
        "area_acres": 8.21,
        "area_guntha": 328.55,
        "land_type": "जिरायत शेती (Jirayat - Rainfed Agricultural)",
        "source": "MahaBhuNaksha Official Live Cadastre",
        "status": "verified",
        "confidence_score": 98.8,
        "old_survey_area_acres": 8.21,
        "old_survey_area_sqm": 33239.1,
        "new_survey_area_acres": 8.21,
        "new_survey_area_sqm": 33239.1
      },
      "geometry": {
        "type": "Polygon",
        "coordinates": [
          [
            [
              74.9547529,
              18.4853455
            ],
            [
              74.9544281,
              18.4840962
            ],
            [
              74.9540928,
              18.4828579
            ],
            [
              74.9531953,
              18.4835795
            ],
            [
              74.9530033,
              18.4837023
            ],
            [
              74.9533653,
              18.4851542
            ],
            [
              74.9537567,
              18.4849705
            ],
            [
              74.9537784,
              18.4858018
            ],
            [
              74.9547529,
              18.4853455
            ]
          ]
        ]
      }
    }
  ]
}