{
  "type": "FeatureCollection",
  "name": "Benwadi_Gat_187_Cadastre",
  "crs": {
    "type": "name",
    "properties": {
      "name": "urn:ogc:def:crs:OGC:1.3:CRS84"
    }
  },
  "features": [
    {
      "type": "Feature",
      "properties": {
        "parcel_id": "MH-AHM-KAR-BEN-187",
        "survey_no": "187",
        "gat_no": "187",
        "village": "Benwadi (बेनवडी)",
        "taluka": "Karjat (कर्जत)",
        "district": "Ahmednagar (अहमदनगर)",
        "state": "Maharashtra",
        "gis_code": "RVM2613272600130334420000",
        "owner_name": "विठ्ठल साहेबराव देशमूख",
        "all_owners": [
          "विठ्ठल साहेबराव देशमूख"
        ],
        "khata_no": "761",
        "area_sqm": 1719.71,
        "area_acres": 0.42,
        "area_guntha": 17.0,
        "land_type": "जिरायत शेती (Jirayat - Rainfed Agricultural)",
        "source": "MahaBhuNaksha Official Live Cadastre",
        "status": "verified",
        "confidence_score": 98.8,
        "old_survey_area_acres": 0.42,
        "old_survey_area_sqm": 1719.71,
        "new_survey_area_acres": 0.42,
        "new_survey_area_sqm": 1719.71
      },
      "geometry": {
        "type": "Polygon",
        "coordinates": [
          [
            [
              74.9619627,
              18.4839997
            ],
            [
              74.961814,
              18.4836349
            ],
            [
              74.9617593,
              18.4835009
            ],
            [
              74.9616457,
              18.4833593
            ],
            [
              74.9614631,
              18.4834828
            ],
            [
              74.9618417,
              18.4840957
            ],
            [
              74.9619627,
              18.4839997
            ]
          ]
        ]
      }
    }
  ]
}