{
  "type": "FeatureCollection",
  "name": "Benwadi_Gat_503_Cadastre",
  "crs": {
    "type": "name",
    "properties": {
      "name": "urn:ogc:def:crs:OGC:1.3:CRS84"
    }
  },
  "features": [
    {
      "type": "Feature",
      "properties": {
        "parcel_id": "MH-AHM-KAR-BEN-503",
        "survey_no": "503",
        "gat_no": "503",
        "village": "Benwadi (बेनवडी)",
        "taluka": "Karjat (कर्जत)",
        "district": "Ahmednagar (अहमदनगर)",
        "state": "Maharashtra",
        "gis_code": "RVM2613272600130334420000",
        "owner_name": "दशरथ नारायण गदादे, मारूती नारायण गदादे",
        "all_owners": [
          "दशरथ नारायण गदादे",
          "मारूती नारायण गदादे",
          "कोंडिबा नारायण गदादे",
          "बबन नारायण गदादे"
        ],
        "khata_no": "436, 437, 438, 439",
        "area_sqm": 2722.45,
        "area_acres": 0.67,
        "area_guntha": 26.91,
        "land_type": "जिरायत शेती (Jirayat - Rainfed Agricultural)",
        "source": "MahaBhuNaksha Official Live Cadastre",
        "status": "verified",
        "confidence_score": 98.8,
        "old_survey_area_acres": 0.67,
        "old_survey_area_sqm": 2722.45,
        "new_survey_area_acres": 0.67,
        "new_survey_area_sqm": 2722.45
      },
      "geometry": {
        "type": "Polygon",
        "coordinates": [
          [
            [
              74.9818073,
              18.4953922
            ],
            [
              74.9816302,
              18.4955157
            ],
            [
              74.9816521,
              18.4956059
            ],
            [
              74.9819102,
              18.4966955
            ],
            [
              74.9820849,
              18.4967637
            ],
            [
              74.9819803,
              18.4962461
            ],
            [
              74.9818584,
              18.4956312
            ],
            [
              74.9818073,
              18.4953922
            ]
          ]
        ]
      }
    }
  ]
}