{
  "type": "FeatureCollection",
  "name": "Benwadi_Gat_421_Cadastre",
  "crs": {
    "type": "name",
    "properties": {
      "name": "urn:ogc:def:crs:OGC:1.3:CRS84"
    }
  },
  "features": [
    {
      "type": "Feature",
      "properties": {
        "parcel_id": "MH-AHM-KAR-BEN-421",
        "survey_no": "421",
        "gat_no": "421",
        "village": "Benwadi (बेनवडी)",
        "taluka": "Karjat (कर्जत)",
        "district": "Ahmednagar (अहमदनगर)",
        "state": "Maharashtra",
        "gis_code": "RVM2613272600130334420000",
        "owner_name": "प्रसाद कांतीलाल शहा, महाराष्ट्र राज्याचे मा.राज्यपाल यांचे वतीने जलसंपदा विभाग महाराष्ट्र शासनाचे प्राधिकृत प्रतिनिधी – कार्यकारी अभियंता, कुकडी वितरण विभाग कोळवडी, ता.कर्जत यांचे कबुलीजबाबासाठी कुलमखत्यार म्हणून- कनिष्ठ लिपिक कुकडी वितरण बांधकाम विभाग कोळवडी ता कर्जत –",
        "all_owners": [
          "प्रसाद कांतीलाल शहा",
          "महाराष्ट्र राज्याचे मा.राज्यपाल यांचे वतीने जलसंपदा विभाग महाराष्ट्र शासनाचे प्राधिकृत प्रतिनिधी – कार्यकारी अभियंता, कुकडी वितरण विभाग कोळवडी, ता.कर्जत यांचे कबुलीजबाबासाठी कुलमखत्यार म्हणून- कनिष्ठ लिपिक कुकडी वितरण बांधकाम विभाग कोळवडी ता कर्जत –"
        ],
        "khata_no": "3189, 3192",
        "area_sqm": 25704.99,
        "area_acres": 6.35,
        "area_guntha": 254.08,
        "land_type": "जिरायत शेती (Jirayat - Rainfed Agricultural)",
        "source": "MahaBhuNaksha Official Live Cadastre",
        "status": "verified",
        "confidence_score": 98.8,
        "old_survey_area_acres": 6.35,
        "old_survey_area_sqm": 25704.99,
        "new_survey_area_acres": 6.35,
        "new_survey_area_sqm": 25704.99
      },
      "geometry": {
        "type": "Polygon",
        "coordinates": [
          [
            [
              74.996773,
              18.4904539
            ],
            [
              74.9977117,
              18.4900209
            ],
            [
              74.9970817,
              18.4887283
            ],
            [
              74.9958039,
              18.4893393
            ],
            [
              74.9961652,
              18.4906827
            ],
            [
              74.996773,
              18.4904539
            ]
          ]
        ]
      }
    }
  ]
}