{
  "type": "FeatureCollection",
  "name": "Benwadi_Gat_321_Cadastre",
  "crs": {
    "type": "name",
    "properties": {
      "name": "urn:ogc:def:crs:OGC:1.3:CRS84"
    }
  },
  "features": [
    {
      "type": "Feature",
      "properties": {
        "parcel_id": "MH-AHM-KAR-BEN-321",
        "survey_no": "321",
        "gat_no": "321",
        "village": "Benwadi (बेनवडी)",
        "taluka": "Karjat (कर्जत)",
        "district": "Ahmednagar (अहमदनगर)",
        "state": "Maharashtra",
        "gis_code": "RVM2613272600130334420000",
        "owner_name": "नवनाथ गोविंद गायकवाड, संजय गोविंद गायकवाड",
        "all_owners": [
          "नवनाथ गोविंद गायकवाड",
          "संजय गोविंद गायकवाड"
        ],
        "khata_no": "118, 804",
        "area_sqm": 11285.94,
        "area_acres": 2.79,
        "area_guntha": 111.55,
        "land_type": "जिरायत शेती (Jirayat - Rainfed Agricultural)",
        "source": "MahaBhuNaksha Official Live Cadastre",
        "status": "verified",
        "confidence_score": 98.8,
        "old_survey_area_acres": 2.79,
        "old_survey_area_sqm": 11285.94,
        "new_survey_area_acres": 2.79,
        "new_survey_area_sqm": 11285.94
      },
      "geometry": {
        "type": "Polygon",
        "coordinates": [
          [
            [
              74.9663715,
              18.50657
            ],
            [
              74.9657898,
              18.5047219
            ],
            [
              74.9656499,
              18.5042823
            ],
            [
              74.9655672,
              18.5040746
            ],
            [
              74.965519,
              18.5040778
            ],
            [
              74.9655667,
              18.5047368
            ],
            [
              74.9656968,
              18.5065667
            ],
            [
              74.9658906,
              18.5067022
            ],
            [
              74.9663715,
              18.50657
            ]
          ]
        ]
      }
    }
  ]
}