{
  "type": "FeatureCollection",
  "name": "Benwadi_Gat_353_Drone_Resurvey",
  "crs": {
    "type": "name",
    "properties": {
      "name": "urn:ogc:def:crs:OGC:1.3:CRS84"
    }
  },
  "features": [
    {
      "type": "Feature",
      "properties": {
        "parcel_id": "MH-AHM-KAR-BEN-353",
        "survey_no": "353",
        "gat_no": "353",
        "village": "Benwadi (बेनवडी)",
        "taluka": "Karjat (कर्जत)",
        "district": "Ahmednagar (अहमदनगर)",
        "state": "Maharashtra",
        "gis_code": "RVM2613272600130334420000",
        "owner_name": "नवनाथ कोंडिबा भिताडे",
        "all_owners": [
          "नवनाथ कोंडिबा भिताडे"
        ],
        "khata_no": "381",
        "area_sqm": 6751.76,
        "area_acres": 1.67,
        "area_guntha": 66.74,
        "land_type": "जिरायत शेती (Jirayat - Rainfed Agricultural)",
        "source": "MahaBhuNaksha Official Live Cadastre",
        "status": "needs_review",
        "confidence_score": 85.0,
        "old_survey_area_acres": 1.67,
        "old_survey_area_sqm": 6751.76,
        "new_survey_area_acres": 1.71,
        "new_survey_area_sqm": 6920.6,
        "area_diff_pct": 2.5,
        "mean_shift_m": 2.0,
        "iou_overlap_pct": 93.5,
        "review_reason": "Drone RTK photogrammetry detects a 2.5% area discrepancy (169 m²) with a mean bund shift of 2.0m along the farm boundary. Verification recommended.",
        "bhunaksha_geometry": {
          "type": "Polygon",
          "coordinates": [
            [
              [
                74.9747379,
                18.499672
              ],
              [
                74.9746339,
                18.4987781
              ],
              [
                74.9741463,
                18.4986722
              ],
              [
                74.9739562,
                18.4989025
              ],
              [
                74.9740795,
                18.499613
              ],
              [
                74.9743431,
                18.4995711
              ],
              [
                74.9745413,
                18.4995457
              ],
              [
                74.9745937,
                18.4996028
              ],
              [
                74.9745941,
                18.4996938
              ],
              [
                74.9747379,
                18.499672
              ]
            ]
          ]
        }
      },
      "geometry": {
        "type": "Polygon",
        "coordinates": [
          [
            [
              74.9747245,
              18.4996829
            ],
            [
              74.9746192,
              18.4987779
            ],
            [
              74.9741255,
              18.4986707
            ],
            [
              74.9739331,
              18.4989038
            ],
            [
              74.9740579,
              18.4996231
            ],
            [
              74.9743248,
              18.4995807
            ],
            [
              74.9745254,
              18.499555
            ],
            [
              74.9745785,
              18.4996128
            ],
            [
              74.9745789,
              18.4997049
            ],
            [
              74.9747245,
              18.4996829
            ]
          ]
        ]
      }
    }
  ]
}