{
  "type": "FeatureCollection",
  "name": "Benwadi_Gat_150_Cadastre",
  "crs": {
    "type": "name",
    "properties": {
      "name": "urn:ogc:def:crs:OGC:1.3:CRS84"
    }
  },
  "features": [
    {
      "type": "Feature",
      "properties": {
        "parcel_id": "MH-AHM-KAR-BEN-150",
        "survey_no": "150",
        "gat_no": "150",
        "village": "Benwadi (बेनवडी)",
        "taluka": "Karjat (कर्जत)",
        "district": "Ahmednagar (अहमदनगर)",
        "state": "Maharashtra",
        "gis_code": "RVM2613272600130334420000",
        "owner_name": "लतिफ बबन शेख, शब्बीर बबन शेख, शम्मा अकबर शेख`, बेबी बबन शेख, अकबर पिरखान शेख",
        "all_owners": [
          "लतिफ बबन शेख, शब्बीर बबन शेख, शम्मा अकबर शेख`, बेबी बबन शेख",
          "अकबर पिरखान शेख",
          "वजीर पिरखान शेख"
        ],
        "khata_no": "2679, 2478, 1041",
        "area_sqm": 27051.66,
        "area_acres": 6.68,
        "area_guntha": 267.39,
        "land_type": "जिरायत शेती (Jirayat - Rainfed Agricultural)",
        "source": "MahaBhuNaksha Official Live Cadastre",
        "status": "verified",
        "confidence_score": 98.8,
        "old_survey_area_acres": 6.68,
        "old_survey_area_sqm": 27051.66,
        "new_survey_area_acres": 6.68,
        "new_survey_area_sqm": 27051.66
      },
      "geometry": {
        "type": "Polygon",
        "coordinates": [
          [
            [
              74.9691585,
              18.4835789
            ],
            [
              74.9681914,
              18.4835528
            ],
            [
              74.9674057,
              18.4835418
            ],
            [
              74.9675846,
              18.4848276
            ],
            [
              74.9691853,
              18.4850559
            ],
            [
              74.9691778,
              18.484014
            ],
            [
              74.9691585,
              18.4835789
            ]
          ]
        ]
      }
    }
  ]
}