{
  "type": "FeatureCollection",
  "name": "Benwadi_Gat_310_Cadastre",
  "crs": {
    "type": "name",
    "properties": {
      "name": "urn:ogc:def:crs:OGC:1.3:CRS84"
    }
  },
  "features": [
    {
      "type": "Feature",
      "properties": {
        "parcel_id": "MH-AHM-KAR-BEN-310",
        "survey_no": "310",
        "gat_no": "310",
        "village": "Benwadi (बेनवडी)",
        "taluka": "Karjat (कर्जत)",
        "district": "Ahmednagar (अहमदनगर)",
        "state": "Maharashtra",
        "gis_code": "RVM2613272600130334420000",
        "owner_name": "अवदुत बाळासाहेब धुमाळ, अस्मिता पांडुरंग कवडे, किसन जगन्नाथ धुमाळ, पल्लवी बालाजी शिंदे, प्रवीण बाळासाहेब धुमाळ, बायडाबाई बबन शेटे, मंदा आजिनाथ गुंड, माधुरी भरत गुंड, लंका बाळासाहेब धुमाळ, श्रीपती जगन्नाथ धुमाळ, बाळासाहेब पांडुरंग धुमाळ",
        "all_owners": [
          "अवदुत बाळासाहेब धुमाळ, अस्मिता पांडुरंग कवडे, किसन जगन्नाथ धुमाळ, पल्लवी बालाजी शिंदे, प्रवीण बाळासाहेब धुमाळ, बायडाबाई बबन शेटे, मंदा आजिनाथ गुंड, माधुरी भरत गुंड, लंका बाळासाहेब धुमाळ, श्रीपती जगन्नाथ धुमाळ, बाळासाहेब पांडुरंग धुमाळ"
        ],
        "khata_no": "73",
        "area_sqm": 3307.11,
        "area_acres": 0.82,
        "area_guntha": 32.69,
        "land_type": "जिरायत शेती (Jirayat - Rainfed Agricultural)",
        "source": "MahaBhuNaksha Official Live Cadastre",
        "status": "verified",
        "confidence_score": 98.8,
        "old_survey_area_acres": 0.82,
        "old_survey_area_sqm": 3307.11,
        "new_survey_area_acres": 0.82,
        "new_survey_area_sqm": 3307.11
      },
      "geometry": {
        "type": "Polygon",
        "coordinates": [
          [
            [
              74.9693059,
              18.503786
            ],
            [
              74.9693081,
              18.5035513
            ],
            [
              74.9692951,
              18.503403
            ],
            [
              74.9692149,
              18.5034205
            ],
            [
              74.9685005,
              18.5034755
            ],
            [
              74.9685662,
              18.5038228
            ],
            [
              74.9686081,
              18.5038297
            ],
            [
              74.9693059,
              18.503786
            ]
          ]
        ]
      }
    }
  ]
}