{
  "type": "FeatureCollection",
  "name": "Benwadi_Gat_138_Cadastre",
  "crs": {
    "type": "name",
    "properties": {
      "name": "urn:ogc:def:crs:OGC:1.3:CRS84"
    }
  },
  "features": [
    {
      "type": "Feature",
      "properties": {
        "parcel_id": "MH-AHM-KAR-BEN-138",
        "survey_no": "138",
        "gat_no": "138",
        "village": "Benwadi (बेनवडी)",
        "taluka": "Karjat (कर्जत)",
        "district": "Ahmednagar (अहमदनगर)",
        "state": "Maharashtra",
        "gis_code": "RVM2613272600130334420000",
        "owner_name": "महादेव किसन गदादे, जिजाबाई बाळासाहेब होले, नंदाबाई बापूराव वाघ, प्रतिभा नितीन फरांडे, कावेरी दादासाहेब गदादे, प्रशांत दादासाहेब गदादे, पल्लवी बबन शेलार, विशाल दादासाहेब गदादे",
        "all_owners": [
          "महादेव किसन गदादे, जिजाबाई बाळासाहेब होले, नंदाबाई बापूराव वाघ",
          "प्रतिभा नितीन फरांडे, कावेरी दादासाहेब गदादे, प्रशांत दादासाहेब गदादे, पल्लवी बबन शेलार, विशाल दादासाहेब गदादे",
          "पांडुरंग मोहन गदादे",
          "खंडू मोहन गदादे",
          "जिजाबाई बाळासाहेब होले, लक्ष्मीबाई किसन गदादे, महादेव किसन गदादे"
        ],
        "khata_no": "37, 780, 3371, 3372, 355",
        "area_sqm": 53198.27,
        "area_acres": 13.15,
        "area_guntha": 525.83,
        "land_type": "जिरायत शेती (Jirayat - Rainfed Agricultural)",
        "source": "MahaBhuNaksha Official Live Cadastre",
        "status": "verified",
        "confidence_score": 98.8,
        "old_survey_area_acres": 13.15,
        "old_survey_area_sqm": 53198.27,
        "new_survey_area_acres": 13.15,
        "new_survey_area_sqm": 53198.27
      },
      "geometry": {
        "type": "Polygon",
        "coordinates": [
          [
            [
              74.972189,
              18.4857308
            ],
            [
              74.9731444,
              18.4856408
            ],
            [
              74.9746246,
              18.4854613
            ],
            [
              74.9744908,
              18.4848475
            ],
            [
              74.9739564,
              18.4848705
            ],
            [
              74.9737425,
              18.4846838
            ],
            [
              74.9738753,
              18.4845452
            ],
            [
              74.973985,
              18.484447
            ],
            [
              74.9736553,
              18.4844561
            ],
            [
              74.9735963,
              18.4840773
            ],
            [
              74.9727184,
              18.4842139
            ],
            [
              74.9711473,
              18.4844445
            ],
            [
              74.9709616,
              18.4851292
            ],
            [
              74.9709218,
              18.4853005
            ],
            [
              74.9708652,
              18.4858735
            ],
            [
              74.972189,
              18.4857308
            ]
          ]
        ]
      }
    }
  ]
}