{
  "type": "FeatureCollection",
  "name": "Benwadi_Gat_498_Drone_Resurvey",
  "crs": {
    "type": "name",
    "properties": {
      "name": "urn:ogc:def:crs:OGC:1.3:CRS84"
    }
  },
  "features": [
    {
      "type": "Feature",
      "properties": {
        "parcel_id": "MH-AHM-KAR-BEN-498",
        "survey_no": "498",
        "gat_no": "498",
        "village": "Benwadi (बेनवडी)",
        "taluka": "Karjat (कर्जत)",
        "district": "Ahmednagar (अहमदनगर)",
        "state": "Maharashtra",
        "gis_code": "RVM2613272600130334420000",
        "owner_name": "संभू हरी गदादे",
        "all_owners": [
          "संभू हरी गदादे"
        ],
        "khata_no": "336",
        "area_sqm": 17605.38,
        "area_acres": 4.35,
        "area_guntha": 174.02,
        "land_type": "जिरायत शेती (Jirayat - Rainfed Agricultural)",
        "source": "MahaBhuNaksha Official Live Cadastre",
        "status": "needs_review",
        "confidence_score": 84.4,
        "old_survey_area_acres": 4.35,
        "old_survey_area_sqm": 17605.38,
        "new_survey_area_acres": 4.48,
        "new_survey_area_sqm": 18133.5,
        "area_diff_pct": 3.0,
        "mean_shift_m": 1.9,
        "iou_overlap_pct": 93.0,
        "review_reason": "Drone RTK photogrammetry detects a 3.0% area discrepancy (528 m²) with a mean bund shift of 1.9m along the farm boundary. Verification recommended.",
        "bhunaksha_geometry": {
          "type": "Polygon",
          "coordinates": [
            [
              [
                74.9853809,
                18.4983024
              ],
              [
                74.9836645,
                18.4981136
              ],
              [
                74.9835655,
                18.4994607
              ],
              [
                74.9838891,
                18.499524
              ],
              [
                74.9844018,
                18.4996085
              ],
              [
                74.9844721,
                18.4985894
              ],
              [
                74.9854135,
                18.4986749
              ],
              [
                74.9853809,
                18.4983024
              ]
            ]
          ]
        }
      },
      "geometry": {
        "type": "Polygon",
        "coordinates": [
          [
            [
              74.9854107,
              18.4983029
            ],
            [
              74.9836687,
              18.4981113
            ],
            [
              74.9835682,
              18.4994784
            ],
            [
              74.9838966,
              18.4995427
            ],
            [
              74.984417,
              18.4996284
            ],
            [
              74.9844883,
              18.4985941
            ],
            [
              74.9854437,
              18.4986809
            ],
            [
              74.9854107,
              18.4983029
            ]
          ]
        ]
      }
    }
  ]
}