{
  "type": "FeatureCollection",
  "name": "Benwadi_Gat_201_Drone_Resurvey",
  "crs": {
    "type": "name",
    "properties": {
      "name": "urn:ogc:def:crs:OGC:1.3:CRS84"
    }
  },
  "features": [
    {
      "type": "Feature",
      "properties": {
        "parcel_id": "MH-AHM-KAR-BEN-201",
        "survey_no": "201",
        "gat_no": "201",
        "village": "Benwadi (बेनवडी)",
        "taluka": "Karjat (कर्जत)",
        "district": "Ahmednagar (अहमदनगर)",
        "state": "Maharashtra",
        "gis_code": "RVM2613272600130334420000",
        "owner_name": "रामदास  गुलाब गदादे, संतोष  देविदास  गदादे",
        "all_owners": [
          "रामदास  गुलाब गदादे",
          "संतोष  देविदास  गदादे"
        ],
        "khata_no": "3450, 3451",
        "area_sqm": 3180.78,
        "area_acres": 0.79,
        "area_guntha": 31.44,
        "land_type": "जिरायत शेती (Jirayat - Rainfed Agricultural)",
        "source": "MahaBhuNaksha Official Live Cadastre",
        "status": "needs_review",
        "confidence_score": 84.8,
        "old_survey_area_acres": 0.79,
        "old_survey_area_sqm": 3180.78,
        "new_survey_area_acres": 0.81,
        "new_survey_area_sqm": 3266.7,
        "area_diff_pct": 2.7,
        "mean_shift_m": 1.6,
        "iou_overlap_pct": 93.3,
        "review_reason": "Drone RTK photogrammetry detects a 2.7% area discrepancy (86 m²) with a mean bund shift of 1.6m along the farm boundary. Verification recommended.",
        "bhunaksha_geometry": {
          "type": "Polygon",
          "coordinates": [
            [
              [
                74.9600198,
                18.4840158
              ],
              [
                74.9597517,
                18.4826492
              ],
              [
                74.9596109,
                18.4825808
              ],
              [
                74.9595391,
                18.4825726
              ],
              [
                74.9598439,
                18.4840509
              ],
              [
                74.9600198,
                18.4840158
              ]
            ]
          ]
        }
      },
      "geometry": {
        "type": "Polygon",
        "coordinates": [
          [
            [
              74.9600163,
              18.4840144
            ],
            [
              74.9597446,
              18.4826295
            ],
            [
              74.9596019,
              18.4825601
            ],
            [
              74.9595291,
              18.4825518
            ],
            [
              74.959838,
              18.4840499
            ],
            [
              74.9600163,
              18.4840144
            ]
          ]
        ]
      }
    }
  ]
}