{
  "type": "FeatureCollection",
  "name": "Benwadi_Gat_441_Cadastre",
  "crs": {
    "type": "name",
    "properties": {
      "name": "urn:ogc:def:crs:OGC:1.3:CRS84"
    }
  },
  "features": [
    {
      "type": "Feature",
      "properties": {
        "parcel_id": "MH-AHM-KAR-BEN-441",
        "survey_no": "441",
        "gat_no": "441",
        "village": "Benwadi (बेनवडी)",
        "taluka": "Karjat (कर्जत)",
        "district": "Ahmednagar (अहमदनगर)",
        "state": "Maharashtra",
        "gis_code": "RVM2613272600130334420000",
        "owner_name": "नारायण दत्तात्रय कोहळे, वसंत काशिनाथ कोहळे, रोहिणी मधुकर कोहळे, बंडू मधुकर कोहळे, रविंद्र मधुकर कोहळे, राजश्री धनंजय काळे",
        "all_owners": [
          "नारायण दत्तात्रय कोहळे, वसंत काशिनाथ कोहळे",
          "रोहिणी मधुकर कोहळे, बंडू मधुकर कोहळे, रविंद्र मधुकर कोहळे, राजश्री धनंजय काळे",
          "संभू ज्ञानदेव गायकवाड",
          "दत्तात्रय काशिनाथ कोहळे"
        ],
        "khata_no": "2708, 2751, 716, 89",
        "area_sqm": 9452.07,
        "area_acres": 2.34,
        "area_guntha": 93.43,
        "land_type": "जिरायत शेती (Jirayat - Rainfed Agricultural)",
        "source": "MahaBhuNaksha Official Live Cadastre",
        "status": "verified",
        "confidence_score": 98.8,
        "old_survey_area_acres": 2.34,
        "old_survey_area_sqm": 9452.07,
        "new_survey_area_acres": 2.34,
        "new_survey_area_sqm": 9452.07
      },
      "geometry": {
        "type": "Polygon",
        "coordinates": [
          [
            [
              74.9960643,
              18.4945072
            ],
            [
              74.9960434,
              18.4944722
            ],
            [
              74.9965871,
              18.4941931
            ],
            [
              74.9970576,
              18.4939917
            ],
            [
              74.9971047,
              18.4942312
            ],
            [
              74.996658,
              18.49434
            ],
            [
              74.9968285,
              18.4946926
            ],
            [
              74.997556,
              18.4943942
            ],
            [
              74.997274,
              18.4936107
            ],
            [
              74.9970569,
              18.4938097
            ],
            [
              74.9966037,
              18.4939978
            ],
            [
              74.9956655,
              18.494352
            ],
            [
              74.9954113,
              18.4944418
            ],
            [
              74.9955517,
              18.4947114
            ],
            [
              74.9960643,
              18.4945072
            ]
          ]
        ]
      }
    }
  ]
}