{
  "type": "FeatureCollection",
  "name": "Benwadi_Gat_139_Drone_Resurvey",
  "crs": {
    "type": "name",
    "properties": {
      "name": "urn:ogc:def:crs:OGC:1.3:CRS84"
    }
  },
  "features": [
    {
      "type": "Feature",
      "properties": {
        "parcel_id": "MH-AHM-KAR-BEN-139",
        "survey_no": "139",
        "gat_no": "139",
        "village": "Benwadi (बेनवडी)",
        "taluka": "Karjat (कर्जत)",
        "district": "Ahmednagar (अहमदनगर)",
        "state": "Maharashtra",
        "gis_code": "RVM2613272600130334420000",
        "owner_name": "रेणुका बबन बांडे, सोमनाथ तूकाराम गायकवाड",
        "all_owners": [
          "रेणुका बबन बांडे",
          "सोमनाथ तूकाराम गायकवाड",
          "पुष्पलता सुवालालजी गांधी",
          "धूळा तूकाराम गायकवाड",
          "सिंधू अंकूश निकम",
          "सूभद्राबाई विठोबा गदादे",
          "अशोक अत्माराम गदादे",
          "संपत आत्माराम गदादे",
          "अंकुश लाला गायकवाड",
          "उषा गोरख गदादे",
          "दिपक नामदेव गायकवाड"
        ],
        "khata_no": "1046, 515, 1052, 2474, 636, 640, 1042, 2237, 2961, 2984, 514",
        "area_sqm": 69196.13,
        "area_acres": 17.1,
        "area_guntha": 683.96,
        "land_type": "जिरायत शेती (Jirayat - Rainfed Agricultural)",
        "source": "MahaBhuNaksha Official Live Cadastre",
        "status": "needs_review",
        "confidence_score": 84.5,
        "old_survey_area_acres": 17.1,
        "old_survey_area_sqm": 69196.13,
        "new_survey_area_acres": 17.6,
        "new_survey_area_sqm": 71202.8,
        "area_diff_pct": 2.9,
        "mean_shift_m": 1.4,
        "iou_overlap_pct": 93.1,
        "review_reason": "Drone RTK photogrammetry detects a 2.9% area discrepancy (2007 m²) with a mean bund shift of 1.4m along the farm boundary. Verification recommended.",
        "bhunaksha_geometry": {
          "type": "Polygon",
          "coordinates": [
            [
              [
                74.9708288,
                18.4870124
              ],
              [
                74.9708652,
                18.4858735
              ],
              [
                74.9709218,
                18.4853005
              ],
              [
                74.9709616,
                18.4851292
              ],
              [
                74.9711473,
                18.4844445
              ],
              [
                74.9711623,
                18.4843893
              ],
              [
                74.971473,
                18.4836444
              ],
              [
                74.9707541,
                18.4836084
              ],
              [
                74.9699303,
                18.4835921
              ],
              [
                74.9691585,
                18.4835789
              ],
              [
                74.9691778,
                18.484014
              ],
              [
                74.9691853,
                18.4850559
              ],
              [
                74.9692141,
                18.4865694
              ],
              [
                74.9692461,
                18.4865794
              ],
              [
                74.9708278,
                18.4870903
              ],
              [
                74.9708288,
                18.4870124
              ]
            ]
          ]
        }
      },
      "geometry": {
        "type": "Polygon",
        "coordinates": [
          [
            [
              74.9708482,
              18.4870354
            ],
            [
              74.9708851,
              18.4858801
            ],
            [
              74.9709425,
              18.4852989
            ],
            [
              74.9709829,
              18.4851251
            ],
            [
              74.9711713,
              18.4844305
            ],
            [
              74.9711865,
              18.4843745
            ],
            [
              74.9715017,
              18.4836189
            ],
            [
              74.9707724,
              18.4835824
            ],
            [
              74.9699368,
              18.4835659
            ],
            [
              74.9691539,
              18.4835525
            ],
            [
              74.9691734,
              18.4839938
            ],
            [
              74.969181,
              18.4850507
            ],
            [
              74.9692103,
              18.486586
            ],
            [
              74.9692427,
              18.4865962
            ],
            [
              74.9708472,
              18.4871144
            ],
            [
              74.9708482,
              18.4870354
            ]
          ]
        ]
      }
    }
  ]
}