{
  "type": "FeatureCollection",
  "name": "Benwadi_Gat_444_Cadastre",
  "crs": {
    "type": "name",
    "properties": {
      "name": "urn:ogc:def:crs:OGC:1.3:CRS84"
    }
  },
  "features": [
    {
      "type": "Feature",
      "properties": {
        "parcel_id": "MH-AHM-KAR-BEN-444",
        "survey_no": "444",
        "gat_no": "444",
        "village": "Benwadi (बेनवडी)",
        "taluka": "Karjat (कर्जत)",
        "district": "Ahmednagar (अहमदनगर)",
        "state": "Maharashtra",
        "gis_code": "RVM2613272600130334420000",
        "owner_name": "रोहित  नवनाथ  गायकवाड, चंद्रकांत बापू गायकवाड",
        "all_owners": [
          "रोहित  नवनाथ  गायकवाड",
          "चंद्रकांत बापू गायकवाड"
        ],
        "khata_no": "3011, 401",
        "area_sqm": 60912.12,
        "area_acres": 15.05,
        "area_guntha": 602.08,
        "land_type": "जिरायत शेती (Jirayat - Rainfed Agricultural)",
        "source": "MahaBhuNaksha Official Live Cadastre",
        "status": "verified",
        "confidence_score": 98.8,
        "old_survey_area_acres": 15.05,
        "old_survey_area_sqm": 60912.12,
        "new_survey_area_acres": 15.05,
        "new_survey_area_sqm": 60912.12
      },
      "geometry": {
        "type": "Polygon",
        "coordinates": [
          [
            [
              74.9963597,
              18.4963947
            ],
            [
              74.9962877,
              18.4959183
            ],
            [
              74.9952253,
              18.4954893
            ],
            [
              74.9947602,
              18.4950475
            ],
            [
              74.9938287,
              18.4941719
            ],
            [
              74.9937294,
              18.4940896
            ],
            [
              74.994081,
              18.4966879
            ],
            [
              74.9941866,
              18.4973212
            ],
            [
              74.9950516,
              18.4973785
            ],
            [
              74.9956381,
              18.4974107
            ],
            [
              74.9966969,
              18.4974793
            ],
            [
              74.9963597,
              18.4963947
            ]
          ]
        ]
      }
    }
  ]
}