{
  "type": "FeatureCollection",
  "name": "Benwadi_Gat_314_Drone_Resurvey",
  "crs": {
    "type": "name",
    "properties": {
      "name": "urn:ogc:def:crs:OGC:1.3:CRS84"
    }
  },
  "features": [
    {
      "type": "Feature",
      "properties": {
        "parcel_id": "MH-AHM-KAR-BEN-314",
        "survey_no": "314",
        "gat_no": "314",
        "village": "Benwadi (बेनवडी)",
        "taluka": "Karjat (कर्जत)",
        "district": "Ahmednagar (अहमदनगर)",
        "state": "Maharashtra",
        "gis_code": "RVM2613272600130334420000",
        "owner_name": "आशाबाई सुरेश धुमाळ, दत्तू बाबू धांडे",
        "all_owners": [
          "आशाबाई सुरेश धुमाळ",
          "दत्तू बाबू धांडे"
        ],
        "khata_no": "1026, 93",
        "area_sqm": 36269.61,
        "area_acres": 8.96,
        "area_guntha": 358.5,
        "land_type": "जिरायत शेती (Jirayat - Rainfed Agricultural)",
        "source": "MahaBhuNaksha Official Live Cadastre",
        "status": "needs_review",
        "confidence_score": 85.1,
        "old_survey_area_acres": 8.96,
        "old_survey_area_sqm": 36269.61,
        "new_survey_area_acres": 9.18,
        "new_survey_area_sqm": 37140.1,
        "area_diff_pct": 2.4,
        "mean_shift_m": 1.5,
        "iou_overlap_pct": 93.6,
        "review_reason": "Drone RTK photogrammetry detects a 2.4% area discrepancy (870 m²) with a mean bund shift of 1.5m along the farm boundary. Verification recommended.",
        "bhunaksha_geometry": {
          "type": "Polygon",
          "coordinates": [
            [
              [
                74.9673714,
                18.5052471
              ],
              [
                74.9678746,
                18.50508
              ],
              [
                74.9689589,
                18.5047042
              ],
              [
                74.9692131,
                18.5046144
              ],
              [
                74.9695685,
                18.5044997
              ],
              [
                74.9701876,
                18.5042785
              ],
              [
                74.9702835,
                18.5041752
              ],
              [
                74.9691683,
                18.5041439
              ],
              [
                74.9686299,
                18.5041204
              ],
              [
                74.9671388,
                18.5040552
              ],
              [
                74.9662925,
                18.5040274
              ],
              [
                74.9661573,
                18.504023
              ],
              [
                74.9666928,
                18.5055048
              ],
              [
                74.9673714,
                18.5052471
              ]
            ]
          ]
        }
      },
      "geometry": {
        "type": "Polygon",
        "coordinates": [
          [
            [
              74.9673464,
              18.5052558
            ],
            [
              74.9678556,
              18.5050867
            ],
            [
              74.9689529,
              18.5047064
            ],
            [
              74.9692101,
              18.5046156
            ],
            [
              74.9695697,
              18.5044995
            ],
            [
              74.9701962,
              18.5042756
            ],
            [
              74.9702933,
              18.5041711
            ],
            [
              74.9691648,
              18.5041394
            ],
            [
              74.9686199,
              18.5041157
            ],
            [
              74.9671111,
              18.5040497
            ],
            [
              74.9662547,
              18.5040216
            ],
            [
              74.9661178,
              18.5040171
            ],
            [
              74.9666597,
              18.5055166
            ],
            [
              74.9673464,
              18.5052558
            ]
          ]
        ]
      }
    }
  ]
}