{
  "type": "FeatureCollection",
  "name": "Benwadi_Gat_97_Cadastre",
  "crs": {
    "type": "name",
    "properties": {
      "name": "urn:ogc:def:crs:OGC:1.3:CRS84"
    }
  },
  "features": [
    {
      "type": "Feature",
      "properties": {
        "parcel_id": "MH-AHM-KAR-BEN-97",
        "survey_no": "97",
        "gat_no": "97",
        "village": "Benwadi (बेनवडी)",
        "taluka": "Karjat (कर्जत)",
        "district": "Ahmednagar (अहमदनगर)",
        "state": "Maharashtra",
        "gis_code": "RVM2613272600130334420000",
        "owner_name": "संजय शंकर पवार, मारुती शंकर पवार, शंकर यादव पवार, रमा दिलीप लांडगे, सोपान माधव खुडे",
        "all_owners": [
          "संजय शंकर पवार, मारुती शंकर पवार, शंकर यादव पवार, रमा दिलीप लांडगे",
          "सोपान माधव खुडे",
          "कचर गणपत खुडे",
          "कलावती बापूराव",
          "देवराव चंदर खुडे",
          "अजिनाथ बापू खुडे",
          "अलका भीमराव चांदणे, शकुंतला सुखदेव खुडे",
          "निलावती बाबूलाल भिसे",
          "यमुना साहेबराव दिवटे",
          "लाला माधव खूडे",
          "बबन भगवान खुडे",
          "आप्पा बाबू खुडे",
          "जमुनाबाई दत्तू पवार",
          "अनिल विजय खुडे, दिव्या विजय खुडे, मनिषा शशिकांत कांबळे, बबन विश्वनाथ  खुडे, सपना विजय खुडे, नर्मदा शिवाजी खुडे, सोमनाथ विजय खुडे, इंदू छगन खुडे, राजेंद्र शिवाजी खुडे, त्रिंबक विश्वनाथ खुडे, कांतीलाल छगन खुडे, निर्मला शिवाजी खुडे, संतोष छगन खुडे",
          "बाळासाहेब उद्धव सकट, कविता नवनाथ पवार, दादासाहेब उद्धव सकट, उद्धव यशवंत सकट, प्रमीला दुर्योधन पवार",
          "शालन प्रल्हाद वाघमारे, शालन जवान भिसे, वैजंताबाई साहेबराव भिसे, विनायक जयवंता खुडे, लाला दादा खुडे, लता नवनाथ खुडे, रावसाहेब जयवंता खुडे, रामदास हंबीराव खुडे, राजेंद्र कुंडलिक चांदणे, मीराबाई दादा खुडे, मिराबाई पंडित वेळेकर, मधुकर दादा खुडे, अलका संभाजी उल्हारे, ओंकार नवनाथ खुडे, छबुबाई गेना भवाळ, छाया नामदेव शिंदे, दत्तू धर्मा खुडे, धोंडीबा विठ्ठल खुडे, नाना दादा खुडे, पोपट हंबीराव खुडे, भाऊसाहेब जयवंता खुडे, भिमराव कुंडलिक चांदणे, महेश नवनाथ खुडे, मालन हनुमंत टावरे, माणिक जयवंता खुडे, हिराबाई दादू शिंदे, हरीबाई दशरथ लोंढे, सोजाबाई सिताराम भिसे, संगीता बाळू शिंदे",
          "आशा शिवलिंग कांबळे, हरी भानुदास खुडे, शिवाजी भानुदास खुडे, रोहित निलेश खुडे अ पा क आई मंगल, राजुबाई भानुदास खुडे, मंगल निलेश खुडे, रामा भानुदास खुडे, निलम भानुदास खुडे, तुषार निलेश खुडे, उषा मोहन भोसले",
          "नंदाबाई दादाराम खुडे, रेश्मा विजय पाथरे, बापू दादाराम खुडे, गोरख  साहेबराव  खुडे, मच्छिंद्र साहेबराव खुडे, साखरबाई बबन खवळे, दत्तू  साहेबराव  खुडे, शशिकला साहेबराव खुडे",
          "कविता संतोष जगताप, सविता संदीपान मोरे, राजूबाई कल्याण खुडे, अविनाश कल्याण खुडे, रेखा जालिंदर डाडर, निता मच्छिंद्र लोखंडे",
          "केशरबाई संभाजी वाल्हेकर",
          "सिताराम बाबू खुडे"
        ],
        "khata_no": "2346, 2349, 25, 2648, 2649, 2651, 2652, 2659, 2754, 282, 2892, 2893, 2894, 290, 2962, 3237, 3247, 561, 694, 695, 723",
        "area_sqm": 24699.41,
        "area_acres": 6.1,
        "area_guntha": 244.14,
        "land_type": "जिरायत शेती (Jirayat - Rainfed Agricultural)",
        "source": "MahaBhuNaksha Official Live Cadastre",
        "status": "verified",
        "confidence_score": 98.8,
        "old_survey_area_acres": 6.1,
        "old_survey_area_sqm": 24699.41,
        "new_survey_area_acres": 6.1,
        "new_survey_area_sqm": 24699.41
      },
      "geometry": {
        "type": "Polygon",
        "coordinates": [
          [
            [
              74.9804275,
              18.4871011
            ],
            [
              74.9813697,
              18.4865978
            ],
            [
              74.9807571,
              18.485348
            ],
            [
              74.9805198,
              18.4856083
            ],
            [
              74.9805194,
              18.4858839
            ],
            [
              74.9796689,
              18.4864722
            ],
            [
              74.9795353,
              18.486493
            ],
            [
              74.9794981,
              18.4865252
            ],
            [
              74.9792609,
              18.4867086
            ],
            [
              74.9793546,
              18.4871757
            ],
            [
              74.9794403,
              18.4876268
            ],
            [
              74.9804275,
              18.4871011
            ]
          ]
        ]
      }
    }
  ]
}