{
  "type": "FeatureCollection",
  "name": "Benwadi_Gat_511_Cadastre",
  "crs": {
    "type": "name",
    "properties": {
      "name": "urn:ogc:def:crs:OGC:1.3:CRS84"
    }
  },
  "features": [
    {
      "type": "Feature",
      "properties": {
        "parcel_id": "MH-AHM-KAR-BEN-511",
        "survey_no": "511",
        "gat_no": "511",
        "village": "Benwadi (बेनवडी)",
        "taluka": "Karjat (कर्जत)",
        "district": "Ahmednagar (अहमदनगर)",
        "state": "Maharashtra",
        "gis_code": "RVM2613272600130334420000",
        "owner_name": "सूनीता बबनराव गदादे",
        "all_owners": [
          "सूनीता बबनराव गदादे"
        ],
        "khata_no": "731",
        "area_sqm": 5445.18,
        "area_acres": 1.35,
        "area_guntha": 53.82,
        "land_type": "जिरायत शेती (Jirayat - Rainfed Agricultural)",
        "source": "MahaBhuNaksha Official Live Cadastre",
        "status": "verified",
        "confidence_score": 98.8,
        "old_survey_area_acres": 1.35,
        "old_survey_area_sqm": 5445.18,
        "new_survey_area_acres": 1.35,
        "new_survey_area_sqm": 5445.18
      },
      "geometry": {
        "type": "Polygon",
        "coordinates": [
          [
            [
              74.9817953,
              18.4953304
            ],
            [
              74.9819333,
              18.495236
            ],
            [
              74.9819061,
              18.4949782
            ],
            [
              74.9818906,
              18.4947991
            ],
            [
              74.9821344,
              18.4947765
            ],
            [
              74.9825873,
              18.4947268
            ],
            [
              74.9830946,
              18.4946797
            ],
            [
              74.9833908,
              18.4946469
            ],
            [
              74.9833702,
              18.4945043
            ],
            [
              74.9831187,
              18.4945354
            ],
            [
              74.9827686,
              18.4945721
            ],
            [
              74.9822576,
              18.4946223
            ],
            [
              74.9817741,
              18.4946701
            ],
            [
              74.9814332,
              18.4947031
            ],
            [
              74.9814523,
              18.4947836
            ],
            [
              74.981588,
              18.4953422
            ],
            [
              74.9817953,
              18.4953304
            ]
          ]
        ]
      }
    }
  ]
}