{
  "type": "FeatureCollection",
  "name": "Benwadi_Gat_212_Drone_Resurvey",
  "crs": {
    "type": "name",
    "properties": {
      "name": "urn:ogc:def:crs:OGC:1.3:CRS84"
    }
  },
  "features": [
    {
      "type": "Feature",
      "properties": {
        "parcel_id": "MH-AHM-KAR-BEN-212",
        "survey_no": "212",
        "gat_no": "212",
        "village": "Benwadi (बेनवडी)",
        "taluka": "Karjat (कर्जत)",
        "district": "Ahmednagar (अहमदनगर)",
        "state": "Maharashtra",
        "gis_code": "RVM2613272600130334420000",
        "owner_name": "महाराष्ट्र राज्याचे मा.राज्यपाल यांचे वतीने जलसंपदा विभाग महाराष्ट्र शासनाचे प्राधिकृत प्रतिनिधी – कार्यकारी अभियंता, कुकडी वितरण विभाग कोळवडी, ता.कर्जत यांचे कबुलीजबाबासाठी कुलमखत्यार म्हणून- कनिष्ठ लिपिक कुकडी वितरण बांधकाम विभाग कोळवडी ता कर्जत –, महाराष्ट्र राज्याचे मा.राज्यपाल यांचे वतीने जलसंपदा विभाग महाराष्ट्र शासनाचे प्राधिकृत प्रतिनिधी – कार्यकारी अभियंता, कुकडी वितरण विभाग कोळवडी, ता.कर्जत यांचे कबुलीजबाबासाठी कुलमखत्यार म्हणून- कनिष्ठ लिपिक कुकडी वितरण बांधकाम विभाग कोळवडी ता कर्जत –",
        "all_owners": [
          "महाराष्ट्र राज्याचे मा.राज्यपाल यांचे वतीने जलसंपदा विभाग महाराष्ट्र शासनाचे प्राधिकृत प्रतिनिधी – कार्यकारी अभियंता, कुकडी वितरण विभाग कोळवडी, ता.कर्जत यांचे कबुलीजबाबासाठी कुलमखत्यार म्हणून- कनिष्ठ लिपिक कुकडी वितरण बांधकाम विभाग कोळवडी ता कर्जत –",
          "महाराष्ट्र राज्याचे मा.राज्यपाल यांचे वतीने जलसंपदा विभाग महाराष्ट्र शासनाचे प्राधिकृत प्रतिनिधी – कार्यकारी अभियंता, कुकडी वितरण विभाग कोळवडी, ता.कर्जत यांचे कबुलीजबाबासाठी कुलमखत्यार म्हणून- कनिष्ठ लिपिक कुकडी वितरण बांधकाम विभाग कोळवडी ता कर्जत –",
          "दादा माणिक गदादे",
          "ज्ञानदेव माणिक गदादे"
        ],
        "khata_no": "3151, 3152, 419, 420",
        "area_sqm": 41366.55,
        "area_acres": 10.22,
        "area_guntha": 408.88,
        "land_type": "जिरायत शेती (Jirayat - Rainfed Agricultural)",
        "source": "MahaBhuNaksha Official Live Cadastre",
        "status": "needs_review",
        "confidence_score": 84.9,
        "old_survey_area_acres": 10.22,
        "old_survey_area_sqm": 41366.55,
        "new_survey_area_acres": 10.49,
        "new_survey_area_sqm": 42442.1,
        "area_diff_pct": 2.6,
        "mean_shift_m": 1.7,
        "iou_overlap_pct": 93.4,
        "review_reason": "Drone RTK photogrammetry detects a 2.6% area discrepancy (1076 m²) with a mean bund shift of 1.7m along the farm boundary. Verification recommended.",
        "bhunaksha_geometry": {
          "type": "Polygon",
          "coordinates": [
            [
              [
                74.9537784,
                18.4858018
              ],
              [
                74.9537567,
                18.4849705
              ],
              [
                74.9533653,
                18.4851542
              ],
              [
                74.9528069,
                18.4854389
              ],
              [
                74.9522376,
                18.4838504
              ],
              [
                74.9521673,
                18.4839135
              ],
              [
                74.9514321,
                18.4844224
              ],
              [
                74.9510871,
                18.4846579
              ],
              [
                74.9512451,
                18.4850258
              ],
              [
                74.9518167,
                18.4863732
              ],
              [
                74.9519291,
                18.4864556
              ],
              [
                74.9530327,
                18.4861384
              ],
              [
                74.9537784,
                18.4858018
              ]
            ]
          ]
        }
      },
      "geometry": {
        "type": "Polygon",
        "coordinates": [
          [
            [
              74.9537831,
              18.485801
            ],
            [
              74.9537612,
              18.484959
            ],
            [
              74.9533647,
              18.485145
            ],
            [
              74.9527991,
              18.4854334
            ],
            [
              74.9522224,
              18.4838244
            ],
            [
              74.9521512,
              18.4838883
            ],
            [
              74.9514065,
              18.4844038
            ],
            [
              74.9510571,
              18.4846423
            ],
            [
              74.9512171,
              18.485015
            ],
            [
              74.9517961,
              18.4863798
            ],
            [
              74.95191,
              18.4864633
            ],
            [
              74.9530278,
              18.486142
            ],
            [
              74.9537831,
              18.485801
            ]
          ]
        ]
      }
    }
  ]
}