{
  "type": "FeatureCollection",
  "name": "Benwadi_Gat_480_Cadastre",
  "crs": {
    "type": "name",
    "properties": {
      "name": "urn:ogc:def:crs:OGC:1.3:CRS84"
    }
  },
  "features": [
    {
      "type": "Feature",
      "properties": {
        "parcel_id": "MH-AHM-KAR-BEN-480",
        "survey_no": "480",
        "gat_no": "480",
        "village": "Benwadi (बेनवडी)",
        "taluka": "Karjat (कर्जत)",
        "district": "Ahmednagar (अहमदनगर)",
        "state": "Maharashtra",
        "gis_code": "RVM2613272600130334420000",
        "owner_name": "किसन अर्जुन गदादे, आण्णा अर्जुन गदादे",
        "all_owners": [
          "किसन अर्जुन गदादे",
          "आण्णा अर्जुन गदादे",
          "भानूदास अर्जून गदादे",
          "शिवदास अर्जून गदादे",
          "सूखदेव अर्जून गदादे",
          "नवनाथ भानूदास गदादे",
          "चंद्रकांत भानूदास गदादे",
          "गोरख आण्णा गदादे",
          "हनूमंत आण्णा गदादे"
        ],
        "khata_no": "2803, 464, 550, 551, 552, 792, 793, 796, 797",
        "area_sqm": 28849.85,
        "area_acres": 7.13,
        "area_guntha": 285.16,
        "land_type": "जिरायत शेती (Jirayat - Rainfed Agricultural)",
        "source": "MahaBhuNaksha Official Live Cadastre",
        "status": "verified",
        "confidence_score": 98.8,
        "old_survey_area_acres": 7.13,
        "old_survey_area_sqm": 28849.85,
        "new_survey_area_acres": 7.13,
        "new_survey_area_sqm": 28849.85
      },
      "geometry": {
        "type": "Polygon",
        "coordinates": [
          [
            [
              74.9865005,
              18.4945687
            ],
            [
              74.9858279,
              18.4943197
            ],
            [
              74.9852899,
              18.4939163
            ],
            [
              74.9842818,
              18.4931568
            ],
            [
              74.984202,
              18.4931234
            ],
            [
              74.9831817,
              18.4931949
            ],
            [
              74.983191,
              18.4932601
            ],
            [
              74.9832127,
              18.4934104
            ],
            [
              74.9832214,
              18.4934711
            ],
            [
              74.9832407,
              18.4936053
            ],
            [
              74.983253,
              18.4936907
            ],
            [
              74.9832731,
              18.4938302
            ],
            [
              74.9832906,
              18.4939519
            ],
            [
              74.9833445,
              18.4943266
            ],
            [
              74.9833456,
              18.4943341
            ],
            [
              74.9852033,
              18.4944935
            ],
            [
              74.986462,
              18.4945966
            ],
            [
              74.9865005,
              18.4945687
            ]
          ]
        ]
      }
    }
  ]
}