{
  "type": "FeatureCollection",
  "name": "Benwadi_Gat_485_Drone_Resurvey",
  "crs": {
    "type": "name",
    "properties": {
      "name": "urn:ogc:def:crs:OGC:1.3:CRS84"
    }
  },
  "features": [
    {
      "type": "Feature",
      "properties": {
        "parcel_id": "MH-AHM-KAR-BEN-485",
        "survey_no": "485",
        "gat_no": "485",
        "village": "Benwadi (बेनवडी)",
        "taluka": "Karjat (कर्जत)",
        "district": "Ahmednagar (अहमदनगर)",
        "state": "Maharashtra",
        "gis_code": "RVM2613272600130334420000",
        "owner_name": "युवराज शिवाजी गदादे, गणेश शिवाजी गदादे",
        "all_owners": [
          "युवराज शिवाजी गदादे",
          "गणेश शिवाजी गदादे",
          "विठठल बाबूराव गदादे",
          "आबासाहेब बाबूराव गदादे"
        ],
        "khata_no": "3485, 3486, 412, 413",
        "area_sqm": 57808.84,
        "area_acres": 14.28,
        "area_guntha": 571.4,
        "land_type": "जिरायत शेती (Jirayat - Rainfed Agricultural)",
        "source": "MahaBhuNaksha Official Live Cadastre",
        "status": "needs_review",
        "confidence_score": 85.2,
        "old_survey_area_acres": 14.28,
        "old_survey_area_sqm": 57808.84,
        "new_survey_area_acres": 14.61,
        "new_survey_area_sqm": 59138.4,
        "area_diff_pct": 2.3,
        "mean_shift_m": 2.0,
        "iou_overlap_pct": 93.7,
        "review_reason": "Drone RTK photogrammetry detects a 2.3% area discrepancy (1330 m²) with a mean bund shift of 2.0m along the farm boundary. Verification recommended.",
        "bhunaksha_geometry": {
          "type": "Polygon",
          "coordinates": [
            [
              [
                74.9876079,
                18.4959904
              ],
              [
                74.9874375,
                18.4957692
              ],
              [
                74.9869392,
                18.4951047
              ],
              [
                74.9865742,
                18.494609
              ],
              [
                74.9865005,
                18.4945687
              ],
              [
                74.986462,
                18.4945966
              ],
              [
                74.9852033,
                18.4944935
              ],
              [
                74.9833456,
                18.4943341
              ],
              [
                74.9833702,
                18.4945043
              ],
              [
                74.9833908,
                18.4946469
              ],
              [
                74.9834174,
                18.4948307
              ],
              [
                74.9835355,
                18.4956471
              ],
              [
                74.9835589,
                18.4958091
              ],
              [
                74.9847467,
                18.495709
              ],
              [
                74.9853952,
                18.4956656
              ],
              [
                74.9853481,
                18.4950872
              ],
              [
                74.9856219,
                18.495127
              ],
              [
                74.9856607,
                18.4957705
              ],
              [
                74.9854295,
                18.495786
              ],
              [
                74.9854572,
                18.4961551
              ],
              [
                74.9865424,
                18.4960824
              ],
              [
                74.9876079,
                18.4959904
              ]
            ]
          ]
        }
      },
      "geometry": {
        "type": "Polygon",
        "coordinates": [
          [
            [
              74.9876328,
              18.4960168
            ],
            [
              74.9874605,
              18.4957931
            ],
            [
              74.9869565,
              18.495121
            ],
            [
              74.9865873,
              18.4946196
            ],
            [
              74.9865128,
              18.4945788
            ],
            [
              74.9864738,
              18.4946071
            ],
            [
              74.9852007,
              18.4945028
            ],
            [
              74.9833218,
              18.4943416
            ],
            [
              74.9833467,
              18.4945137
            ],
            [
              74.9833675,
              18.4946579
            ],
            [
              74.9833944,
              18.4948438
            ],
            [
              74.9835139,
              18.4956696
            ],
            [
              74.9835375,
              18.4958334
            ],
            [
              74.9847389,
              18.4957322
            ],
            [
              74.9853948,
              18.4956883
            ],
            [
              74.9853472,
              18.4951033
            ],
            [
              74.9856241,
              18.4951435
            ],
            [
              74.9856634,
              18.4957944
            ],
            [
              74.9854295,
              18.4958101
            ],
            [
              74.9854575,
              18.4961834
            ],
            [
              74.9865551,
              18.4961098
            ],
            [
              74.9876328,
              18.4960168
            ]
          ]
        ]
      }
    }
  ]
}