{
  "type": "FeatureCollection",
  "name": "Benwadi_Gat_16_Drone_Resurvey",
  "crs": {
    "type": "name",
    "properties": {
      "name": "urn:ogc:def:crs:OGC:1.3:CRS84"
    }
  },
  "features": [
    {
      "type": "Feature",
      "properties": {
        "parcel_id": "MH-AHM-KAR-BEN-16",
        "survey_no": "16",
        "gat_no": "16",
        "village": "Benwadi (बेनवडी)",
        "taluka": "Karjat (कर्जत)",
        "district": "Ahmednagar (अहमदनगर)",
        "state": "Maharashtra",
        "gis_code": "RVM2613272600130334420000",
        "owner_name": "लहू भिमराव दवणे, लताबाई सोपान सातव, मच्छिंद्र भिमराव दवणे, मालन अंकुश सातव, दत्तू भिमराव दवणे, शालन शहाजी भोसले, विजय सिताराम घंटे, राजेंद्र सिताराम घंटे, शांताबाई सिताराम घंटे",
        "all_owners": [
          "लहू भिमराव दवणे, लताबाई सोपान सातव, मच्छिंद्र भिमराव दवणे, मालन अंकुश सातव, दत्तू भिमराव दवणे, शालन शहाजी भोसले",
          "विजय सिताराम घंटे, राजेंद्र सिताराम घंटे, शांताबाई सिताराम घंटे",
          "चांगुणा चंदर होलम, अरुण रामभाऊ दवणे, अंकुश रामभाऊ दवणे, अंजना दिलीप बोरगे, गोरख रामभाऊ दवणे",
          "धनाबाई यशवंत कचरे, नर्मदा दत्तू भोसले, चंदूबाई पांडुरंग काळे, कमल त्रिंबक भोसले, पांडुरंग गणपती बांगर"
        ],
        "khata_no": "210, 2645, 272, 942",
        "area_sqm": 817.35,
        "area_acres": 0.2,
        "area_guntha": 8.08,
        "land_type": "जिरायत शेती (Jirayat - Rainfed Agricultural)",
        "source": "MahaBhuNaksha Official Live Cadastre",
        "status": "needs_review",
        "confidence_score": 85.4,
        "old_survey_area_acres": 0.2,
        "old_survey_area_sqm": 817.35,
        "new_survey_area_acres": 0.2,
        "new_survey_area_sqm": 835.3,
        "area_diff_pct": 2.2,
        "mean_shift_m": 1.7,
        "iou_overlap_pct": 93.8,
        "review_reason": "Drone RTK photogrammetry detects a 2.2% area discrepancy (18 m²) with a mean bund shift of 1.7m along the farm boundary. Verification recommended.",
        "bhunaksha_geometry": {
          "type": "Polygon",
          "coordinates": [
            [
              [
                74.9838102,
                18.4911359
              ],
              [
                74.9838404,
                18.4908427
              ],
              [
                74.9835503,
                18.4908529
              ],
              [
                74.9836264,
                18.4911482
              ],
              [
                74.9838102,
                18.4911359
              ]
            ]
          ]
        }
      },
      "geometry": {
        "type": "Polygon",
        "coordinates": [
          [
            [
              74.9838223,
              18.4911486
            ],
            [
              74.9838529,
              18.4908522
            ],
            [
              74.9835596,
              18.4908625
            ],
            [
              74.9836365,
              18.4911611
            ],
            [
              74.9838223,
              18.4911486
            ]
          ]
        ]
      }
    }
  ]
}