{
  "type": "FeatureCollection",
  "name": "Benwadi_Gat_329_Cadastre",
  "crs": {
    "type": "name",
    "properties": {
      "name": "urn:ogc:def:crs:OGC:1.3:CRS84"
    }
  },
  "features": [
    {
      "type": "Feature",
      "properties": {
        "parcel_id": "MH-AHM-KAR-BEN-329",
        "survey_no": "329",
        "gat_no": "329",
        "village": "Benwadi (बेनवडी)",
        "taluka": "Karjat (कर्जत)",
        "district": "Ahmednagar (अहमदनगर)",
        "state": "Maharashtra",
        "gis_code": "RVM2613272600130334420000",
        "owner_name": "मिरा बाळू भिताडे, संतोष देविदास कवडे, लिलावती देविदास कवडे, कुसुम लक्ष्मण जगताप, चंदकांत रोहिदास कवडे, ललिता वैजिनाथ कचरे, सुनिता सुभाष थोरात, रेऊबाई रोहिदास कवडे",
        "all_owners": [
          "मिरा बाळू भिताडे, संतोष देविदास कवडे, लिलावती देविदास कवडे",
          "कुसुम लक्ष्मण जगताप, चंदकांत रोहिदास कवडे, ललिता वैजिनाथ कचरे, सुनिता सुभाष थोरात, रेऊबाई रोहिदास कवडे",
          "संपत अंबादास कवडे",
          "उध्दव अंबादास कवडे"
        ],
        "khata_no": "589, 590, 591, 592",
        "area_sqm": 31896.14,
        "area_acres": 7.88,
        "area_guntha": 315.27,
        "land_type": "जिरायत शेती (Jirayat - Rainfed Agricultural)",
        "source": "MahaBhuNaksha Official Live Cadastre",
        "status": "verified",
        "confidence_score": 98.8,
        "old_survey_area_acres": 7.88,
        "old_survey_area_sqm": 31896.14,
        "new_survey_area_acres": 7.88,
        "new_survey_area_sqm": 31896.14
      },
      "geometry": {
        "type": "Polygon",
        "coordinates": [
          [
            [
              74.9688904,
              18.5058252
            ],
            [
              74.9684481,
              18.506056
            ],
            [
              74.9683772,
              18.5061191
            ],
            [
              74.9675924,
              18.5067546
            ],
            [
              74.9674886,
              18.5068183
            ],
            [
              74.9663006,
              18.5070233
            ],
            [
              74.9661426,
              18.5070649
            ],
            [
              74.9661514,
              18.5072196
            ],
            [
              74.9661612,
              18.5073928
            ],
            [
              74.9676282,
              18.50751
            ],
            [
              74.9679386,
              18.5075349
            ],
            [
              74.9681744,
              18.5075538
            ],
            [
              74.9690594,
              18.5075664
            ],
            [
              74.9692242,
              18.5075757
            ],
            [
              74.9690869,
              18.5068582
            ],
            [
              74.9688904,
              18.5058252
            ]
          ]
        ]
      }
    }
  ]
}