{
  "type": "FeatureCollection",
  "name": "Benwadi_Gat_20_Cadastre",
  "crs": {
    "type": "name",
    "properties": {
      "name": "urn:ogc:def:crs:OGC:1.3:CRS84"
    }
  },
  "features": [
    {
      "type": "Feature",
      "properties": {
        "parcel_id": "MH-AHM-KAR-BEN-20",
        "survey_no": "20",
        "gat_no": "20",
        "village": "Benwadi (बेनवडी)",
        "taluka": "Karjat (कर्जत)",
        "district": "Ahmednagar (अहमदनगर)",
        "state": "Maharashtra",
        "gis_code": "RVM2613272600130334420000",
        "owner_name": "दत्तू भिमराव दवणे, मच्छिंद्र भिमराव दवणे, मालन अंकुश सातव, लताबाई सोपान सातव, लहू भिमराव दवणे, शालन शहाजी भोसले, अंजना दिलीप बोरगे, गोरख रामभाऊ दवणे, चांगुणा चंदर होलम, अरुण रामभाऊ दवणे, अंकुश रामभाऊ दवणे",
        "all_owners": [
          "दत्तू भिमराव दवणे, मच्छिंद्र भिमराव दवणे, मालन अंकुश सातव, लताबाई सोपान सातव, लहू भिमराव दवणे, शालन शहाजी भोसले",
          "अंजना दिलीप बोरगे, गोरख रामभाऊ दवणे, चांगुणा चंदर होलम, अरुण रामभाऊ दवणे, अंकुश रामभाऊ दवणे",
          "सूरेश भिमा बिबे"
        ],
        "khata_no": "210, 272, 353",
        "area_sqm": 4256.55,
        "area_acres": 1.05,
        "area_guntha": 42.07,
        "land_type": "जिरायत शेती (Jirayat - Rainfed Agricultural)",
        "source": "MahaBhuNaksha Official Live Cadastre",
        "status": "verified",
        "confidence_score": 98.8,
        "old_survey_area_acres": 1.05,
        "old_survey_area_sqm": 4256.55,
        "new_survey_area_acres": 1.05,
        "new_survey_area_sqm": 4256.55
      },
      "geometry": {
        "type": "Polygon",
        "coordinates": [
          [
            [
              74.9871632,
              18.4900046
            ],
            [
              74.9868809,
              18.4892743
            ],
            [
              74.9868331,
              18.4891873
            ],
            [
              74.9864915,
              18.4904328
            ],
            [
              74.9863883,
              18.4908082
            ],
            [
              74.9864459,
              18.490734
            ],
            [
              74.9868321,
              18.4901064
            ],
            [
              74.9871632,
              18.4900046
            ]
          ]
        ]
      }
    }
  ]
}