{
  "type": "FeatureCollection",
  "name": "Benwadi_Gat_270_Cadastre",
  "crs": {
    "type": "name",
    "properties": {
      "name": "urn:ogc:def:crs:OGC:1.3:CRS84"
    }
  },
  "features": [
    {
      "type": "Feature",
      "properties": {
        "parcel_id": "MH-AHM-KAR-BEN-270",
        "survey_no": "270",
        "gat_no": "270",
        "village": "Benwadi (बेनवडी)",
        "taluka": "Karjat (कर्जत)",
        "district": "Ahmednagar (अहमदनगर)",
        "state": "Maharashtra",
        "gis_code": "RVM2613272600130334420000",
        "owner_name": "सिताबाई राजाराम कांबळे, भालचंद्र भिवाजी कांबळे",
        "all_owners": [
          "सिताबाई राजाराम कांबळे",
          "भालचंद्र भिवाजी कांबळे"
        ],
        "khata_no": "2950, 2951",
        "area_sqm": 5259.52,
        "area_acres": 1.3,
        "area_guntha": 51.99,
        "land_type": "जिरायत शेती (Jirayat - Rainfed Agricultural)",
        "source": "MahaBhuNaksha Official Live Cadastre",
        "status": "verified",
        "confidence_score": 98.8,
        "old_survey_area_acres": 1.3,
        "old_survey_area_sqm": 5259.52,
        "new_survey_area_acres": 1.3,
        "new_survey_area_sqm": 5259.52
      },
      "geometry": {
        "type": "Polygon",
        "coordinates": [
          [
            [
              74.966391,
              18.4952529
            ],
            [
              74.9670896,
              18.4950428
            ],
            [
              74.9670229,
              18.4947323
            ],
            [
              74.965626,
              18.4951563
            ],
            [
              74.9657365,
              18.4954452
            ],
            [
              74.966391,
              18.4952529
            ]
          ]
        ]
      }
    }
  ]
}