{
  "type": "FeatureCollection",
  "name": "Benwadi_Gat_401_Drone_Resurvey",
  "crs": {
    "type": "name",
    "properties": {
      "name": "urn:ogc:def:crs:OGC:1.3:CRS84"
    }
  },
  "features": [
    {
      "type": "Feature",
      "properties": {
        "parcel_id": "MH-AHM-KAR-BEN-401",
        "survey_no": "401",
        "gat_no": "401",
        "village": "Benwadi (बेनवडी)",
        "taluka": "Karjat (कर्जत)",
        "district": "Ahmednagar (अहमदनगर)",
        "state": "Maharashtra",
        "gis_code": "RVM2613272600130334420000",
        "owner_name": "भरत बबनराव गायकवाड, उदय भरत गायकवाड, दिपाली राहुल यादव, जयदिप भरत गायकवाड, विलास माणिक गायकवाड",
        "all_owners": [
          "भरत बबनराव गायकवाड, उदय भरत गायकवाड, दिपाली राहुल यादव, जयदिप भरत गायकवाड",
          "विलास माणिक गायकवाड",
          "मंगल  कल्याण  गायकवाड",
          "तुषार दत्तू दवणे",
          "कूंडलिक तूळशीराम दवणे",
          "गोविंद बबन गायकवाड",
          "शारदा संपत गायकवाड",
          "गणेश दादासाहेब गायकवाड",
          "बाळासाहेब भाऊसाहेब रणदिवे",
          "हनूमंत महादेव दवणे",
          "शोभा विठठल दवणे"
        ],
        "khata_no": "2404, 288, 3062, 3209, 499, 61, 799, 803, 890, 965, 984",
        "area_sqm": 133005.93,
        "area_acres": 32.87,
        "area_guntha": 1314.68,
        "land_type": "जिरायत शेती (Jirayat - Rainfed Agricultural)",
        "source": "MahaBhuNaksha Official Live Cadastre",
        "status": "needs_review",
        "confidence_score": 84.8,
        "old_survey_area_acres": 32.87,
        "old_survey_area_sqm": 133005.93,
        "new_survey_area_acres": 33.76,
        "new_survey_area_sqm": 136597.1,
        "area_diff_pct": 2.7,
        "mean_shift_m": 1.6,
        "iou_overlap_pct": 93.3,
        "review_reason": "Drone RTK photogrammetry detects a 2.7% area discrepancy (3591 m²) with a mean bund shift of 1.6m along the farm boundary. Verification recommended.",
        "bhunaksha_geometry": {
          "type": "Polygon",
          "coordinates": [
            [
              [
                74.9981807,
                18.5040241
              ],
              [
                74.9980699,
                18.5037404
              ],
              [
                74.9974098,
                18.5020889
              ],
              [
                74.9968421,
                18.5006553
              ],
              [
                74.9967174,
                18.500341
              ],
              [
                74.9965255,
                18.4998575
              ],
              [
                74.9964842,
                18.4997966
              ],
              [
                74.9962923,
                18.5000777
              ],
              [
                74.9960607,
                18.5004169
              ],
              [
                74.9945377,
                18.501156
              ],
              [
                74.9942344,
                18.5012856
              ],
              [
                74.9944574,
                18.502296
              ],
              [
                74.994831,
                18.5039423
              ],
              [
                74.9949924,
                18.5047413
              ],
              [
                74.9950665,
                18.5047061
              ],
              [
                74.9970591,
                18.5042692
              ],
              [
                74.9981807,
                18.5040241
              ]
            ]
          ]
        }
      },
      "geometry": {
        "type": "Polygon",
        "coordinates": [
          [
            [
              74.9982013,
              18.5040374
            ],
            [
              74.9980891,
              18.5037499
            ],
            [
              74.9974201,
              18.5020762
            ],
            [
              74.9968448,
              18.5006234
            ],
            [
              74.9967184,
              18.5003049
            ],
            [
              74.9965239,
              18.4998149
            ],
            [
              74.9964821,
              18.4997532
            ],
            [
              74.9962876,
              18.500038
            ],
            [
              74.9960529,
              18.5003818
            ],
            [
              74.9945095,
              18.5011308
            ],
            [
              74.9942021,
              18.5012621
            ],
            [
              74.9944281,
              18.5022861
            ],
            [
              74.9948067,
              18.5039545
            ],
            [
              74.9949703,
              18.5047642
            ],
            [
              74.9950454,
              18.5047285
            ],
            [
              74.9970647,
              18.5042857
            ],
            [
              74.9982013,
              18.5040374
            ]
          ]
        ]
      }
    }
  ]
}