{
  "type": "FeatureCollection",
  "name": "Benwadi_Gat_475_Cadastre",
  "crs": {
    "type": "name",
    "properties": {
      "name": "urn:ogc:def:crs:OGC:1.3:CRS84"
    }
  },
  "features": [
    {
      "type": "Feature",
      "properties": {
        "parcel_id": "MH-AHM-KAR-BEN-475",
        "survey_no": "475",
        "gat_no": "475",
        "village": "Benwadi (बेनवडी)",
        "taluka": "Karjat (कर्जत)",
        "district": "Ahmednagar (अहमदनगर)",
        "state": "Maharashtra",
        "gis_code": "RVM2613272600130334420000",
        "owner_name": "शिवराम धोंडिबा गदादे, नवनाथ शिवराम गदादे",
        "all_owners": [
          "शिवराम धोंडिबा गदादे",
          "नवनाथ शिवराम गदादे"
        ],
        "khata_no": "314, 3336",
        "area_sqm": 10265.8,
        "area_acres": 2.54,
        "area_guntha": 101.47,
        "land_type": "जिरायत शेती (Jirayat - Rainfed Agricultural)",
        "source": "MahaBhuNaksha Official Live Cadastre",
        "status": "verified",
        "confidence_score": 98.8,
        "old_survey_area_acres": 2.54,
        "old_survey_area_sqm": 10265.8,
        "new_survey_area_acres": 2.54,
        "new_survey_area_sqm": 10265.8
      },
      "geometry": {
        "type": "MultiPolygon",
        "coordinates": [
          [
            [
              [
                74.9862512,
                18.4922006
              ],
              [
                74.986185,
                18.4912004
              ],
              [
                74.9859785,
                18.4913142
              ],
              [
                74.9854856,
                18.491087
              ],
              [
                74.9854125,
                18.4918594
              ],
              [
                74.9853687,
                18.4923169
              ],
              [
                74.9857888,
                18.4924554
              ],
              [
                74.9862512,
                18.4922006
              ]
            ]
          ],
          [
            [
              [
                74.9860405,
                18.4917446
              ],
              [
                74.9860528,
                18.4919197
              ],
              [
                74.985834,
                18.4919101
              ],
              [
                74.9858398,
                18.4917338
              ],
              [
                74.9860405,
                18.4917446
              ]
            ]
          ]
        ]
      }
    }
  ]
}