{
  "type": "FeatureCollection",
  "name": "Benwadi_Gat_360_Cadastre",
  "crs": {
    "type": "name",
    "properties": {
      "name": "urn:ogc:def:crs:OGC:1.3:CRS84"
    }
  },
  "features": [
    {
      "type": "Feature",
      "properties": {
        "parcel_id": "MH-AHM-KAR-BEN-360",
        "survey_no": "360",
        "gat_no": "360",
        "village": "Benwadi (बेनवडी)",
        "taluka": "Karjat (कर्जत)",
        "district": "Ahmednagar (अहमदनगर)",
        "state": "Maharashtra",
        "gis_code": "RVM2613272600130334420000",
        "owner_name": "उत्तम दत्तू भिताडे, मिराबाई नामदेव ढवळे, हिराबाई विष्णू धुमाळ, सखुबाई दत्तू भिताडे, नवनाथ कोंडिबा भिताडे",
        "all_owners": [
          "उत्तम दत्तू भिताडे, मिराबाई नामदेव ढवळे, हिराबाई विष्णू धुमाळ, सखुबाई दत्तू भिताडे",
          "नवनाथ कोंडिबा भिताडे"
        ],
        "khata_no": "380, 381",
        "area_sqm": 5490.37,
        "area_acres": 1.36,
        "area_guntha": 54.27,
        "land_type": "जिरायत शेती (Jirayat - Rainfed Agricultural)",
        "source": "MahaBhuNaksha Official Live Cadastre",
        "status": "verified",
        "confidence_score": 98.8,
        "old_survey_area_acres": 1.36,
        "old_survey_area_sqm": 5490.37,
        "new_survey_area_acres": 1.36,
        "new_survey_area_sqm": 5490.37
      },
      "geometry": {
        "type": "Polygon",
        "coordinates": [
          [
            [
              74.9756247,
              18.4995069
            ],
            [
              74.9758035,
              18.4994646
            ],
            [
              74.9760852,
              18.4994215
            ],
            [
              74.9757448,
              18.4987884
            ],
            [
              74.9753201,
              18.4985937
            ],
            [
              74.9752538,
              18.4986805
            ],
            [
              74.9753892,
              18.4995435
            ],
            [
              74.9756247,
              18.4995069
            ]
          ]
        ]
      }
    }
  ]
}