{
  "type": "FeatureCollection",
  "name": "Benwadi_Gat_261_Cadastre",
  "crs": {
    "type": "name",
    "properties": {
      "name": "urn:ogc:def:crs:OGC:1.3:CRS84"
    }
  },
  "features": [
    {
      "type": "Feature",
      "properties": {
        "parcel_id": "MH-AHM-KAR-BEN-261",
        "survey_no": "261",
        "gat_no": "261",
        "village": "Benwadi (बेनवडी)",
        "taluka": "Karjat (कर्जत)",
        "district": "Ahmednagar (अहमदनगर)",
        "state": "Maharashtra",
        "gis_code": "RVM2613272600130334420000",
        "owner_name": "पांडूरंग तात्याबा फरांडे, माणिक भगवान फरांडे, विनायक भगवान फरांडे, सखुबाई बाळू गदादे, नवनाथ भगवान फरांडे",
        "all_owners": [
          "पांडूरंग तात्याबा फरांडे",
          "माणिक भगवान फरांडे, विनायक भगवान फरांडे, सखुबाई बाळू गदादे, नवनाथ भगवान फरांडे",
          "बाळू बयाजी फरांडे, शहादेव बयाजी फरांडे, हरी बयाजी फरांडे",
          "मारुती तात्याबा  फरांडे",
          "मंगल सुखदेव सायकर, संगीता रमेश जाधव, सिताबाई शंकर फरांडे, हिराबाई राजाराम फरांडे, तुकाराम शंकर फरांडे, छबाबाई आनंदा रासकर, संतोष राजाराम फरांडे",
          "बाळू गणपत फरांडे, दत्तात्रय गणपत फरांडे, रुक्मिणी विठ्ठल फरांडे, रविंद्र विठ्ठल फरांडे, किरण विठ्ठल फरांडे, गंगुबाई गणपत फरांडे"
        ],
        "khata_no": "144, 191, 2858, 2870, 311, 48",
        "area_sqm": 6672.42,
        "area_acres": 1.65,
        "area_guntha": 65.95,
        "land_type": "जिरायत शेती (Jirayat - Rainfed Agricultural)",
        "source": "MahaBhuNaksha Official Live Cadastre",
        "status": "verified",
        "confidence_score": 98.8,
        "old_survey_area_acres": 1.65,
        "old_survey_area_sqm": 6672.42,
        "new_survey_area_acres": 1.65,
        "new_survey_area_sqm": 6672.42
      },
      "geometry": {
        "type": "Polygon",
        "coordinates": [
          [
            [
              74.9663211,
              18.4907165
            ],
            [
              74.9662812,
              18.4907476
            ],
            [
              74.966744,
              18.4917402
            ],
            [
              74.9669072,
              18.4920667
            ],
            [
              74.9669606,
              18.4921869
            ],
            [
              74.9670192,
              18.4923011
            ],
            [
              74.9673369,
              18.4929645
            ],
            [
              74.9674023,
              18.4930405
            ],
            [
              74.9673435,
              18.4920763
            ],
            [
              74.9672813,
              18.4919655
            ],
            [
              74.9663211,
              18.4907165
            ]
          ]
        ]
      }
    }
  ]
}