{
  "type": "FeatureCollection",
  "name": "Benwadi_Gat_311_Cadastre",
  "crs": {
    "type": "name",
    "properties": {
      "name": "urn:ogc:def:crs:OGC:1.3:CRS84"
    }
  },
  "features": [
    {
      "type": "Feature",
      "properties": {
        "parcel_id": "MH-AHM-KAR-BEN-311",
        "survey_no": "311",
        "gat_no": "311",
        "village": "Benwadi (बेनवडी)",
        "taluka": "Karjat (कर्जत)",
        "district": "Ahmednagar (अहमदनगर)",
        "state": "Maharashtra",
        "gis_code": "RVM2613272600130334420000",
        "owner_name": "हरीचंद्र यमाजी धूमाळ",
        "all_owners": [
          "हरीचंद्र यमाजी धूमाळ"
        ],
        "khata_no": "371",
        "area_sqm": 5178.26,
        "area_acres": 1.28,
        "area_guntha": 51.18,
        "land_type": "जिरायत शेती (Jirayat - Rainfed Agricultural)",
        "source": "MahaBhuNaksha Official Live Cadastre",
        "status": "verified",
        "confidence_score": 98.8,
        "old_survey_area_acres": 1.28,
        "old_survey_area_sqm": 5178.26,
        "new_survey_area_acres": 1.28,
        "new_survey_area_sqm": 5178.26
      },
      "geometry": {
        "type": "Polygon",
        "coordinates": [
          [
            [
              74.9703337,
              18.50352
            ],
            [
              74.970382,
              18.5028407
            ],
            [
              74.969784,
              18.502897
            ],
            [
              74.9698308,
              18.5033638
            ],
            [
              74.9692951,
              18.503403
            ],
            [
              74.9693081,
              18.5035513
            ],
            [
              74.9703337,
              18.50352
            ]
          ]
        ]
      }
    }
  ]
}