{
  "type": "FeatureCollection",
  "name": "Benwadi_Gat_460_Cadastre",
  "crs": {
    "type": "name",
    "properties": {
      "name": "urn:ogc:def:crs:OGC:1.3:CRS84"
    }
  },
  "features": [
    {
      "type": "Feature",
      "properties": {
        "parcel_id": "MH-AHM-KAR-BEN-460",
        "survey_no": "460",
        "gat_no": "460",
        "village": "Benwadi (बेनवडी)",
        "taluka": "Karjat (कर्जत)",
        "district": "Ahmednagar (अहमदनगर)",
        "state": "Maharashtra",
        "gis_code": "RVM2613272600130334420000",
        "owner_name": "कांताबाई दादा गायकवाड, संपत बबन गायकवाड",
        "all_owners": [
          "कांताबाई दादा गायकवाड",
          "संपत बबन गायकवाड",
          "भरत बबन गायकवाड"
        ],
        "khata_no": "3294, 334, 185",
        "area_sqm": 10582.46,
        "area_acres": 2.61,
        "area_guntha": 104.6,
        "land_type": "जिरायत शेती (Jirayat - Rainfed Agricultural)",
        "source": "MahaBhuNaksha Official Live Cadastre",
        "status": "verified",
        "confidence_score": 98.8,
        "old_survey_area_acres": 2.61,
        "old_survey_area_sqm": 10582.46,
        "new_survey_area_acres": 2.61,
        "new_survey_area_sqm": 10582.46
      },
      "geometry": {
        "type": "Polygon",
        "coordinates": [
          [
            [
              74.9883594,
              18.4929853
            ],
            [
              74.9880671,
              18.4916687
            ],
            [
              74.9878694,
              18.4917002
            ],
            [
              74.9874973,
              18.4917494
            ],
            [
              74.987192,
              18.4918002
            ],
            [
              74.9872627,
              18.4919824
            ],
            [
              74.9873938,
              18.4920069
            ],
            [
              74.9874926,
              18.4923077
            ],
            [
              74.9875976,
              18.4925919
            ],
            [
              74.9878185,
              18.4927882
            ],
            [
              74.9880717,
              18.4931823
            ],
            [
              74.9883594,
              18.4929853
            ]
          ]
        ]
      }
    }
  ]
}