{
  "type": "FeatureCollection",
  "name": "Benwadi_Gat_172_Cadastre",
  "crs": {
    "type": "name",
    "properties": {
      "name": "urn:ogc:def:crs:OGC:1.3:CRS84"
    }
  },
  "features": [
    {
      "type": "Feature",
      "properties": {
        "parcel_id": "MH-AHM-KAR-BEN-172",
        "survey_no": "172",
        "gat_no": "172",
        "village": "Benwadi (बेनवडी)",
        "taluka": "Karjat (कर्जत)",
        "district": "Ahmednagar (अहमदनगर)",
        "state": "Maharashtra",
        "gis_code": "RVM2613272600130334420000",
        "owner_name": "शिवाजी शंकर गदादे, रामदास शिवाजी गदादे",
        "all_owners": [
          "शिवाजी शंकर गदादे",
          "रामदास शिवाजी गदादे",
          "ऋतुजा लक्ष्मण गदादे, तुळसाबाई शिवाजी गदादे, स्वाती लक्ष्मण गदादे, सुरज लक्ष्मण गदादे"
        ],
        "khata_no": "3014, 3114, 3115",
        "area_sqm": 21778.47,
        "area_acres": 5.38,
        "area_guntha": 215.27,
        "land_type": "जिरायत शेती (Jirayat - Rainfed Agricultural)",
        "source": "MahaBhuNaksha Official Live Cadastre",
        "status": "verified",
        "confidence_score": 98.8,
        "old_survey_area_acres": 5.38,
        "old_survey_area_sqm": 21778.47,
        "new_survey_area_acres": 5.38,
        "new_survey_area_sqm": 21778.47
      },
      "geometry": {
        "type": "Polygon",
        "coordinates": [
          [
            [
              74.9679909,
              18.4786191
            ],
            [
              74.9687344,
              18.4784524
            ],
            [
              74.968765,
              18.47693
            ],
            [
              74.9687734,
              18.4763702
            ],
            [
              74.968515,
              18.4764038
            ],
            [
              74.9682565,
              18.4764317
            ],
            [
              74.9680946,
              18.4764491
            ],
            [
              74.9679651,
              18.4764943
            ],
            [
              74.9678264,
              18.4765427
            ],
            [
              74.9679209,
              18.4786368
            ],
            [
              74.9679909,
              18.4786191
            ]
          ]
        ]
      }
    }
  ]
}