{
  "type": "FeatureCollection",
  "name": "Benwadi_Gat_98_Cadastre",
  "crs": {
    "type": "name",
    "properties": {
      "name": "urn:ogc:def:crs:OGC:1.3:CRS84"
    }
  },
  "features": [
    {
      "type": "Feature",
      "properties": {
        "parcel_id": "MH-AHM-KAR-BEN-98",
        "survey_no": "98",
        "gat_no": "98",
        "village": "Benwadi (बेनवडी)",
        "taluka": "Karjat (कर्जत)",
        "district": "Ahmednagar (अहमदनगर)",
        "state": "Maharashtra",
        "gis_code": "RVM2613272600130334420000",
        "owner_name": "शालन जपान भिसे, सोजाबाई संतराम भिसे, धोंडीबा विठ्ठल खुडे, मंगल हनुमंत टापरे, वैजाबाई साहेबराव भिसे, विनायक जयंवता खुडे",
        "all_owners": [
          "शालन जपान भिसे, सोजाबाई संतराम भिसे, धोंडीबा विठ्ठल खुडे, मंगल हनुमंत टापरे, वैजाबाई साहेबराव भिसे",
          "विनायक जयंवता खुडे",
          "भाऊसाहेब जयंवता खुडे",
          "रावसाहेब जयवता खुडे",
          "अविनाश कल्याण खुडे, रेखा जालिंदर डाडर, कविता संतोष जगताप, राजूबाई कल्याण खुडे, सविता संदीपान मोरे, निता मच्छिंद्र लोखंडे",
          "माणिक जयवंता खुडे",
          "केशरबाई संभाजी वाल्हेकर"
        ],
        "khata_no": "2755, 2756, 2757, 2758, 2817, 690, 695",
        "area_sqm": 8349.84,
        "area_acres": 2.06,
        "area_guntha": 82.53,
        "land_type": "जिरायत शेती (Jirayat - Rainfed Agricultural)",
        "source": "MahaBhuNaksha Official Live Cadastre",
        "status": "verified",
        "confidence_score": 98.8,
        "old_survey_area_acres": 2.06,
        "old_survey_area_sqm": 8349.84,
        "new_survey_area_acres": 2.06,
        "new_survey_area_sqm": 8349.84
      },
      "geometry": {
        "type": "Polygon",
        "coordinates": [
          [
            [
              74.9807571,
              18.485348
            ],
            [
              74.9799014,
              18.4856577
            ],
            [
              74.9792989,
              18.4858866
            ],
            [
              74.9793739,
              18.4861353
            ],
            [
              74.9794419,
              18.4863289
            ],
            [
              74.9794613,
              18.4864192
            ],
            [
              74.9794981,
              18.4865252
            ],
            [
              74.9795353,
              18.486493
            ],
            [
              74.9796689,
              18.4864722
            ],
            [
              74.9805194,
              18.4858839
            ],
            [
              74.9805198,
              18.4856083
            ],
            [
              74.9807571,
              18.485348
            ]
          ]
        ]
      }
    }
  ]
}