{
  "type": "FeatureCollection",
  "name": "Benwadi_Gat_67_Cadastre",
  "crs": {
    "type": "name",
    "properties": {
      "name": "urn:ogc:def:crs:OGC:1.3:CRS84"
    }
  },
  "features": [
    {
      "type": "Feature",
      "properties": {
        "parcel_id": "MH-AHM-KAR-BEN-67",
        "survey_no": "67",
        "gat_no": "67",
        "village": "Benwadi (बेनवडी)",
        "taluka": "Karjat (कर्जत)",
        "district": "Ahmednagar (अहमदनगर)",
        "state": "Maharashtra",
        "gis_code": "RVM2613272600130334420000",
        "owner_name": "सर्जेराव शिवराम खूडे",
        "all_owners": [
          "सर्जेराव शिवराम खूडे"
        ],
        "khata_no": "328",
        "area_sqm": 583.49,
        "area_acres": 0.14,
        "area_guntha": 5.77,
        "land_type": "जिरायत शेती (Jirayat - Rainfed Agricultural)",
        "source": "MahaBhuNaksha Official Live Cadastre",
        "status": "verified",
        "confidence_score": 98.8,
        "old_survey_area_acres": 0.14,
        "old_survey_area_sqm": 583.49,
        "new_survey_area_acres": 0.14,
        "new_survey_area_sqm": 583.49
      },
      "geometry": {
        "type": "Polygon",
        "coordinates": [
          [
            [
              74.9760154,
              18.4898543
            ],
            [
              74.9759661,
              18.4897095
            ],
            [
              74.9759431,
              18.4896363
            ],
            [
              74.9756971,
              18.4897924
            ],
            [
              74.9757631,
              18.4899164
            ],
            [
              74.9759468,
              18.4898707
            ],
            [
              74.9760154,
              18.4898543
            ]
          ]
        ]
      }
    }
  ]
}