{
  "type": "FeatureCollection",
  "name": "Benwadi_Gat_133_Cadastre",
  "crs": {
    "type": "name",
    "properties": {
      "name": "urn:ogc:def:crs:OGC:1.3:CRS84"
    }
  },
  "features": [
    {
      "type": "Feature",
      "properties": {
        "parcel_id": "MH-AHM-KAR-BEN-133",
        "survey_no": "133",
        "gat_no": "133",
        "village": "Benwadi (बेनवडी)",
        "taluka": "Karjat (कर्जत)",
        "district": "Ahmednagar (अहमदनगर)",
        "state": "Maharashtra",
        "gis_code": "RVM2613272600130334420000",
        "owner_name": "अशोक आत्माराम गदादे, कैलास बबन गदादे, खंडू मोहन गदादे, जिजाबाई बाळासाहेब होले, दादा भगवान गदादे, नंदाबाई बापूराव वाघ, महादेव किसन गदादे, माणिक दगडू गदादे, विलास बबन गदादे, हरिबा दगडू गदादे, पांडुरंग मोहन गदादे",
        "all_owners": [
          "अशोक आत्माराम गदादे, कैलास बबन गदादे, खंडू मोहन गदादे, जिजाबाई बाळासाहेब होले, दादा भगवान गदादे, नंदाबाई बापूराव वाघ, महादेव किसन गदादे, माणिक दगडू गदादे, विलास बबन गदादे, हरिबा दगडू गदादे, पांडुरंग मोहन गदादे"
        ],
        "khata_no": "3096",
        "area_sqm": 2188.88,
        "area_acres": 0.54,
        "area_guntha": 21.64,
        "land_type": "जिरायत शेती (Jirayat - Rainfed Agricultural)",
        "source": "MahaBhuNaksha Official Live Cadastre",
        "status": "verified",
        "confidence_score": 98.8,
        "old_survey_area_acres": 0.54,
        "old_survey_area_sqm": 2188.88,
        "new_survey_area_acres": 0.54,
        "new_survey_area_sqm": 2188.88
      },
      "geometry": {
        "type": "Polygon",
        "coordinates": [
          [
            [
              74.9744908,
              18.4848475
            ],
            [
              74.9744276,
              18.4845923
            ],
            [
              74.9741593,
              18.4846234
            ],
            [
              74.973985,
              18.484447
            ],
            [
              74.9738753,
              18.4845452
            ],
            [
              74.9737425,
              18.4846838
            ],
            [
              74.9739564,
              18.4848705
            ],
            [
              74.9744908,
              18.4848475
            ]
          ]
        ]
      }
    }
  ]
}