{
  "type": "FeatureCollection",
  "name": "Benwadi_Gat_501_Cadastre",
  "crs": {
    "type": "name",
    "properties": {
      "name": "urn:ogc:def:crs:OGC:1.3:CRS84"
    }
  },
  "features": [
    {
      "type": "Feature",
      "properties": {
        "parcel_id": "MH-AHM-KAR-BEN-501",
        "survey_no": "501",
        "gat_no": "501",
        "village": "Benwadi (बेनवडी)",
        "taluka": "Karjat (कर्जत)",
        "district": "Ahmednagar (अहमदनगर)",
        "state": "Maharashtra",
        "gis_code": "RVM2613272600130334420000",
        "owner_name": "आदित्य सुनिल गदादे, अनिल नवनाथ गदादे",
        "all_owners": [
          "आदित्य सुनिल गदादे",
          "अनिल नवनाथ गदादे"
        ],
        "khata_no": "3466, 3467",
        "area_sqm": 10800.07,
        "area_acres": 2.67,
        "area_guntha": 106.75,
        "land_type": "जिरायत शेती (Jirayat - Rainfed Agricultural)",
        "source": "MahaBhuNaksha Official Live Cadastre",
        "status": "verified",
        "confidence_score": 98.8,
        "old_survey_area_acres": 2.67,
        "old_survey_area_sqm": 10800.07,
        "new_survey_area_acres": 2.67,
        "new_survey_area_sqm": 10800.07
      },
      "geometry": {
        "type": "Polygon",
        "coordinates": [
          [
            [
              74.9853196,
              18.4976122
            ],
            [
              74.9851849,
              18.4975574
            ],
            [
              74.9852631,
              18.4972671
            ],
            [
              74.983801,
              18.4973004
            ],
            [
              74.9831591,
              18.4971625
            ],
            [
              74.9831283,
              18.4975055
            ],
            [
              74.9844223,
              18.497742
            ],
            [
              74.9853142,
              18.4979033
            ],
            [
              74.9853196,
              18.4976122
            ]
          ]
        ]
      }
    }
  ]
}