{
  "type": "FeatureCollection",
  "name": "Benwadi_Gat_82_Cadastre",
  "crs": {
    "type": "name",
    "properties": {
      "name": "urn:ogc:def:crs:OGC:1.3:CRS84"
    }
  },
  "features": [
    {
      "type": "Feature",
      "properties": {
        "parcel_id": "MH-AHM-KAR-BEN-82",
        "survey_no": "82",
        "gat_no": "82",
        "village": "Benwadi (बेनवडी)",
        "taluka": "Karjat (कर्जत)",
        "district": "Ahmednagar (अहमदनगर)",
        "state": "Maharashtra",
        "gis_code": "RVM2613272600130334420000",
        "owner_name": "अनिल विजय खुडे, दिव्या विजय खुडे, निर्मला शिवाजी खुडे, मा मुख्य कार्यकारी अधिकारी  जि प अहमदनगर करिता विद्यमान  ग्रामसेवक, सपना विजय खुडे, सोमनाथ विजय खुडे, राजेंद्र शिवाजी खुडे",
        "all_owners": [
          "अनिल विजय खुडे, दिव्या विजय खुडे, निर्मला शिवाजी खुडे, मा मुख्य कार्यकारी अधिकारी  जि प अहमदनगर करिता विद्यमान  ग्रामसेवक, सपना विजय खुडे, सोमनाथ विजय खुडे, राजेंद्र शिवाजी खुडे"
        ],
        "khata_no": "3028",
        "area_sqm": 649.47,
        "area_acres": 0.16,
        "area_guntha": 6.42,
        "land_type": "जिरायत शेती (Jirayat - Rainfed Agricultural)",
        "source": "MahaBhuNaksha Official Live Cadastre",
        "status": "verified",
        "confidence_score": 98.8,
        "old_survey_area_acres": 0.16,
        "old_survey_area_sqm": 649.47,
        "new_survey_area_acres": 0.16,
        "new_survey_area_sqm": 649.47
      },
      "geometry": {
        "type": "Polygon",
        "coordinates": [
          [
            [
              74.9789475,
              18.4895541
            ],
            [
              74.9788198,
              18.4894283
            ],
            [
              74.9785162,
              18.4895105
            ],
            [
              74.9785677,
              18.4896607
            ],
            [
              74.9789475,
              18.4895541
            ]
          ]
        ]
      }
    }
  ]
}