{
  "type": "FeatureCollection",
  "name": "Benwadi_Gat_247_Cadastre",
  "crs": {
    "type": "name",
    "properties": {
      "name": "urn:ogc:def:crs:OGC:1.3:CRS84"
    }
  },
  "features": [
    {
      "type": "Feature",
      "properties": {
        "parcel_id": "MH-AHM-KAR-BEN-247",
        "survey_no": "247",
        "gat_no": "247",
        "village": "Benwadi (बेनवडी)",
        "taluka": "Karjat (कर्जत)",
        "district": "Ahmednagar (अहमदनगर)",
        "state": "Maharashtra",
        "gis_code": "RVM2613272600130334420000",
        "owner_name": "खंडु रामभाऊ भिताडे, लक्ष्मण अंकुश भिताडे",
        "all_owners": [
          "खंडु रामभाऊ भिताडे",
          "लक्ष्मण अंकुश भिताडे",
          "शत्रुघ्न अंकुश भिताडे",
          "गणेश खंडू भिताडे",
          "लहू रामभाऊ भिताडे",
          "सिंधूबाई लहू भिताडे"
        ],
        "khata_no": "45, 2324, 2942, 49, 273, 274",
        "area_sqm": 83513.79,
        "area_acres": 20.64,
        "area_guntha": 825.48,
        "land_type": "जिरायत शेती (Jirayat - Rainfed Agricultural)",
        "source": "MahaBhuNaksha Official Live Cadastre",
        "status": "verified",
        "confidence_score": 98.8,
        "old_survey_area_acres": 20.64,
        "old_survey_area_sqm": 83513.79,
        "new_survey_area_acres": 20.64,
        "new_survey_area_sqm": 83513.79
      },
      "geometry": {
        "type": "Polygon",
        "coordinates": [
          [
            [
              74.9635278,
              18.4915505
            ],
            [
              74.9634385,
              18.491139
            ],
            [
              74.9631443,
              18.489747
            ],
            [
              74.9629844,
              18.4890001
            ],
            [
              74.9629385,
              18.4889863
            ],
            [
              74.9616421,
              18.4892361
            ],
            [
              74.9600656,
              18.4895563
            ],
            [
              74.960629,
              18.4903037
            ],
            [
              74.9608776,
              18.490647
            ],
            [
              74.9606316,
              18.4907422
            ],
            [
              74.9613014,
              18.4922694
            ],
            [
              74.962108,
              18.4920018
            ],
            [
              74.9634004,
              18.4915759
            ],
            [
              74.9635278,
              18.4915505
            ]
          ]
        ]
      }
    }
  ]
}