{
  "type": "FeatureCollection",
  "name": "Benwadi_Gat_447_Cadastre",
  "crs": {
    "type": "name",
    "properties": {
      "name": "urn:ogc:def:crs:OGC:1.3:CRS84"
    }
  },
  "features": [
    {
      "type": "Feature",
      "properties": {
        "parcel_id": "MH-AHM-KAR-BEN-447",
        "survey_no": "447",
        "gat_no": "447",
        "village": "Benwadi (बेनवडी)",
        "taluka": "Karjat (कर्जत)",
        "district": "Ahmednagar (अहमदनगर)",
        "state": "Maharashtra",
        "gis_code": "RVM2613272600130334420000",
        "owner_name": "लता मल्हारी कांबळे, संतोष बाळासाहेब डमरे, सिमा उर्फ  लक्ष्मी ज्ञानदेव कांबळे, मंगल बाळासाहेब डमरे, राणी महादेव माने, संतोष बाळासाहेब डमरे",
        "all_owners": [
          "लता मल्हारी कांबळे, संतोष बाळासाहेब डमरे, सिमा उर्फ  लक्ष्मी ज्ञानदेव कांबळे, मंगल बाळासाहेब डमरे, राणी महादेव माने",
          "संतोष बाळासाहेब डमरे",
          "गोविंद हरीबा डमरे",
          "संतोष गोविंद डमरे, भुजंग गोविंद डमरे",
          "दत्तू हरीबा डमरे",
          "मोहन रामा गदादे",
          "राणी महादेव माने, मंगल बाळासाहेब डमरे, सिमा उर्फ  लक्ष्मी ज्ञानदेव कांबळे, संतोष बाळासाहेब डमरे, लता मल्हारी कांबळे",
          "संतोष बाळासाहेब डमरे"
        ],
        "khata_no": "488, 930, 490, 2898, 489, 931, 488, 930",
        "area_sqm": 41320.11,
        "area_acres": 10.21,
        "area_guntha": 408.42,
        "land_type": "जिरायत शेती (Jirayat - Rainfed Agricultural)",
        "source": "MahaBhuNaksha Official Live Cadastre",
        "status": "verified",
        "confidence_score": 98.8,
        "old_survey_area_acres": 10.21,
        "old_survey_area_sqm": 41320.11,
        "new_survey_area_acres": 10.21,
        "new_survey_area_sqm": 41320.11
      },
      "geometry": {
        "type": "Polygon",
        "coordinates": [
          [
            [
              74.9959569,
              18.4982424
            ],
            [
              74.9959285,
              18.4981836
            ],
            [
              74.9956381,
              18.4974107
            ],
            [
              74.9950516,
              18.4973785
            ],
            [
              74.9941866,
              18.4973212
            ],
            [
              74.9931866,
              18.4973882
            ],
            [
              74.9933734,
              18.4983221
            ],
            [
              74.9930365,
              18.4983764
            ],
            [
              74.9925349,
              18.4984572
            ],
            [
              74.9926503,
              18.4992304
            ],
            [
              74.9935495,
              18.4990036
            ],
            [
              74.9935196,
              18.4987508
            ],
            [
              74.9937817,
              18.498694
            ],
            [
              74.9945339,
              18.4985311
            ],
            [
              74.9959569,
              18.4982424
            ]
          ]
        ]
      }
    }
  ]
}