{
  "type": "FeatureCollection",
  "name": "Benwadi_Gat_35_Cadastre",
  "crs": {
    "type": "name",
    "properties": {
      "name": "urn:ogc:def:crs:OGC:1.3:CRS84"
    }
  },
  "features": [
    {
      "type": "Feature",
      "properties": {
        "parcel_id": "MH-AHM-KAR-BEN-35",
        "survey_no": "35",
        "gat_no": "35",
        "village": "Benwadi (बेनवडी)",
        "taluka": "Karjat (कर्जत)",
        "district": "Ahmednagar (अहमदनगर)",
        "state": "Maharashtra",
        "gis_code": "RVM2613272600130334420000",
        "owner_name": "महाराष्ट्र राज्याचे मा. राज्यपाल यांचे वतीने जलसंपदा विभाग महाराष्ट्र शासनाचे प्राधिकृत प्रतिनिधि - कार्यकारी अभियंता, कुकडी वितरण बांधकाम विभाग काेळवडी ता. कर्जत यांचे कबुलीजबाबासाठी कुलमुखत्यार म्हणून - कनिष्ठ लिपिक कुकडी वितरण बांधकाम विभाग काेळवडी ता. कर्जत - - -, दादा साहेबराव धुमाळ",
        "all_owners": [
          "महाराष्ट्र राज्याचे मा. राज्यपाल यांचे वतीने जलसंपदा विभाग महाराष्ट्र शासनाचे प्राधिकृत प्रतिनिधि - कार्यकारी अभियंता, कुकडी वितरण बांधकाम विभाग काेळवडी ता. कर्जत यांचे कबुलीजबाबासाठी कुलमुखत्यार म्हणून - कनिष्ठ लिपिक कुकडी वितरण बांधकाम विभाग काेळवडी ता. कर्जत - - -",
          "दादा साहेबराव धुमाळ",
          "गोरख  साहेबराव धुमाळ",
          "हरीचंद्र दशरथ धूमाळ",
          "गोविंद दशरथ धूमाळ",
          "विष्णू दशरथ धूमाळ"
        ],
        "khata_no": "3205, 3309, 3310, 394, 395, 396",
        "area_sqm": 21130.28,
        "area_acres": 5.22,
        "area_guntha": 208.86,
        "land_type": "जिरायत शेती (Jirayat - Rainfed Agricultural)",
        "source": "MahaBhuNaksha Official Live Cadastre",
        "status": "verified",
        "confidence_score": 98.8,
        "old_survey_area_acres": 5.22,
        "old_survey_area_sqm": 21130.28,
        "new_survey_area_acres": 5.22,
        "new_survey_area_sqm": 21130.28
      },
      "geometry": {
        "type": "Polygon",
        "coordinates": [
          [
            [
              74.9885988,
              18.4848751
            ],
            [
              74.9887232,
              18.4846176
            ],
            [
              74.9885686,
              18.4845372
            ],
            [
              74.9886783,
              18.4839785
            ],
            [
              74.9885206,
              18.483762
            ],
            [
              74.9884505,
              18.4834071
            ],
            [
              74.9884025,
              18.4830925
            ],
            [
              74.9880301,
              18.4828645
            ],
            [
              74.9881551,
              18.4823622
            ],
            [
              74.9878281,
              18.4823192
            ],
            [
              74.9876978,
              18.482769
            ],
            [
              74.9877423,
              18.4831019
            ],
            [
              74.9878689,
              18.4846274
            ],
            [
              74.9882639,
              18.4848086
            ],
            [
              74.9883797,
              18.48572
            ],
            [
              74.9886607,
              18.4855715
            ],
            [
              74.9885988,
              18.4848751
            ]
          ]
        ]
      }
    }
  ]
}