{
  "type": "FeatureCollection",
  "name": "Benwadi_Gat_302_Drone_Resurvey",
  "crs": {
    "type": "name",
    "properties": {
      "name": "urn:ogc:def:crs:OGC:1.3:CRS84"
    }
  },
  "features": [
    {
      "type": "Feature",
      "properties": {
        "parcel_id": "MH-AHM-KAR-BEN-302",
        "survey_no": "302",
        "gat_no": "302",
        "village": "Benwadi (बेनवडी)",
        "taluka": "Karjat (कर्जत)",
        "district": "Ahmednagar (अहमदनगर)",
        "state": "Maharashtra",
        "gis_code": "RVM2613272600130334420000",
        "owner_name": "भाऊसाहेब  रघुनाथ  धुमाळ, बबन रघुनाथ  धुमाळ",
        "all_owners": [
          "भाऊसाहेब  रघुनाथ  धुमाळ",
          "बबन रघुनाथ  धुमाळ"
        ],
        "khata_no": "2934, 2935",
        "area_sqm": 16236.51,
        "area_acres": 4.01,
        "area_guntha": 160.49,
        "land_type": "जिरायत शेती (Jirayat - Rainfed Agricultural)",
        "source": "MahaBhuNaksha Official Live Cadastre",
        "status": "needs_review",
        "confidence_score": 84.9,
        "old_survey_area_acres": 4.01,
        "old_survey_area_sqm": 16236.51,
        "new_survey_area_acres": 4.11,
        "new_survey_area_sqm": 16658.7,
        "area_diff_pct": 2.6,
        "mean_shift_m": 1.9,
        "iou_overlap_pct": 93.4,
        "review_reason": "Drone RTK photogrammetry detects a 2.6% area discrepancy (422 m²) with a mean bund shift of 1.9m along the farm boundary. Verification recommended.",
        "bhunaksha_geometry": {
          "type": "Polygon",
          "coordinates": [
            [
              [
                74.9656556,
                18.5031901
              ],
              [
                74.9655776,
                18.5026188
              ],
              [
                74.9646307,
                18.5028591
              ],
              [
                74.9639106,
                18.5030434
              ],
              [
                74.963018,
                18.5032695
              ],
              [
                74.9629174,
                18.503295
              ],
              [
                74.9629367,
                18.5037088
              ],
              [
                74.9629378,
                18.5037325
              ],
              [
                74.9630289,
                18.5037151
              ],
              [
                74.9639533,
                18.5035381
              ],
              [
                74.9642312,
                18.5034744
              ],
              [
                74.9651414,
                18.5032911
              ],
              [
                74.9656556,
                18.5031901
              ]
            ]
          ]
        }
      },
      "geometry": {
        "type": "Polygon",
        "coordinates": [
          [
            [
              74.9656643,
              18.5031764
            ],
            [
              74.9655853,
              18.5025978
            ],
            [
              74.9646262,
              18.5028412
            ],
            [
              74.9638968,
              18.5030279
            ],
            [
              74.9629926,
              18.5032569
            ],
            [
              74.9628907,
              18.5032827
            ],
            [
              74.9629103,
              18.5037018
            ],
            [
              74.9629114,
              18.5037259
            ],
            [
              74.9630037,
              18.5037082
            ],
            [
              74.96394,
              18.5035289
            ],
            [
              74.9642215,
              18.5034644
            ],
            [
              74.9651435,
              18.5032788
            ],
            [
              74.9656643,
              18.5031764
            ]
          ]
        ]
      }
    }
  ]
}