{
  "type": "FeatureCollection",
  "name": "Benwadi_Gat_132_Drone_Resurvey",
  "crs": {
    "type": "name",
    "properties": {
      "name": "urn:ogc:def:crs:OGC:1.3:CRS84"
    }
  },
  "features": [
    {
      "type": "Feature",
      "properties": {
        "parcel_id": "MH-AHM-KAR-BEN-132",
        "survey_no": "132",
        "gat_no": "132",
        "village": "Benwadi (बेनवडी)",
        "taluka": "Karjat (कर्जत)",
        "district": "Ahmednagar (अहमदनगर)",
        "state": "Maharashtra",
        "gis_code": "RVM2613272600130334420000",
        "owner_name": "अशोक सोनबा गदादे, दत्तू सोनबा गदादे, जगन्नाथ लक्ष्मण शिंदे",
        "all_owners": [
          "अशोक सोनबा गदादे, दत्तू सोनबा गदादे",
          "जगन्नाथ लक्ष्मण शिंदे"
        ],
        "khata_no": "3111, 76",
        "area_sqm": 17792.11,
        "area_acres": 4.4,
        "area_guntha": 175.86,
        "land_type": "जिरायत शेती (Jirayat - Rainfed Agricultural)",
        "source": "MahaBhuNaksha Official Live Cadastre",
        "status": "needs_review",
        "confidence_score": 84.9,
        "old_survey_area_acres": 4.4,
        "old_survey_area_sqm": 17792.11,
        "new_survey_area_acres": 4.51,
        "new_survey_area_sqm": 18254.7,
        "area_diff_pct": 2.6,
        "mean_shift_m": 2.1,
        "iou_overlap_pct": 93.4,
        "review_reason": "Drone RTK photogrammetry detects a 2.6% area discrepancy (463 m²) with a mean bund shift of 2.1m along the farm boundary. Verification recommended.",
        "bhunaksha_geometry": {
          "type": "Polygon",
          "coordinates": [
            [
              [
                74.9766046,
                18.4832362
              ],
              [
                74.9742772,
                18.4839498
              ],
              [
                74.9743831,
                18.4844201
              ],
              [
                74.9767269,
                18.4840087
              ],
              [
                74.9766411,
                18.4833399
              ],
              [
                74.9766046,
                18.4832362
              ]
            ]
          ]
        }
      },
      "geometry": {
        "type": "Polygon",
        "coordinates": [
          [
            [
              74.9765967,
              18.4832241
            ],
            [
              74.9742392,
              18.483947
            ],
            [
              74.9743465,
              18.4844233
            ],
            [
              74.9767206,
              18.4840066
            ],
            [
              74.9766337,
              18.4833292
            ],
            [
              74.9765967,
              18.4832241
            ]
          ]
        ]
      }
    }
  ]
}