{
  "type": "FeatureCollection",
  "name": "Benwadi_Gat_130_Drone_Resurvey",
  "crs": {
    "type": "name",
    "properties": {
      "name": "urn:ogc:def:crs:OGC:1.3:CRS84"
    }
  },
  "features": [
    {
      "type": "Feature",
      "properties": {
        "parcel_id": "MH-AHM-KAR-BEN-130",
        "survey_no": "130",
        "gat_no": "130",
        "village": "Benwadi (बेनवडी)",
        "taluka": "Karjat (कर्जत)",
        "district": "Ahmednagar (अहमदनगर)",
        "state": "Maharashtra",
        "gis_code": "RVM2613272600130334420000",
        "owner_name": "भाऊसाहेब रामभाऊ क्षिरसागर, महाराष्ट्र राज्याचे मा.राज्यपाल यांचे वतीने जलसंपदा विभाग महाराष्ट्र शासनाचे प्राधिकृत प्रतिनिधी – कार्यकारी अभियंता, कुकडी वितरण विभाग कोळवडी, ता.कर्जत यांचे कबुलीजबाबासाठी कुलमखत्यार म्हणून- कनिष्ठ लिपिक कुकडी वितरण बांधकाम विभाग कोळवडी ता कर्जत –",
        "all_owners": [
          "भाऊसाहेब रामभाऊ क्षिरसागर",
          "महाराष्ट्र राज्याचे मा.राज्यपाल यांचे वतीने जलसंपदा विभाग महाराष्ट्र शासनाचे प्राधिकृत प्रतिनिधी – कार्यकारी अभियंता, कुकडी वितरण विभाग कोळवडी, ता.कर्जत यांचे कबुलीजबाबासाठी कुलमखत्यार म्हणून- कनिष्ठ लिपिक कुकडी वितरण बांधकाम विभाग कोळवडी ता कर्जत –",
          "महाराष्ट्र राज्याचे मा.राज्यपाल यांचे वतीने जलसंपदा विभाग महाराष्ट्र शासनाचे प्राधिकृत प्रतिनिधी – कार्यकारी अभियंता, कुकडी वितरण विभाग कोळवडी, ता.कर्जत यांचे कबुलीजबाबासाठी कुलमखत्यार म्हणून- कनिष्ठ लिपिक कुकडी वितरण बांधकाम विभाग कोळवडी ता कर्जत –",
          "ताराबाई बबन क्षिरसागर, विलास बबन क्षिरसागर, दिलीप बबन क्षिरसागर",
          "गूलाब रामभाऊ क्षिरसागर"
        ],
        "khata_no": "264, 3138, 3139, 479, 480",
        "area_sqm": 26644.45,
        "area_acres": 6.58,
        "area_guntha": 263.36,
        "land_type": "जिरायत शेती (Jirayat - Rainfed Agricultural)",
        "source": "MahaBhuNaksha Official Live Cadastre",
        "status": "needs_review",
        "confidence_score": 84.6,
        "old_survey_area_acres": 6.58,
        "old_survey_area_sqm": 26644.45,
        "new_survey_area_acres": 6.76,
        "new_survey_area_sqm": 27390.5,
        "area_diff_pct": 2.8,
        "mean_shift_m": 1.9,
        "iou_overlap_pct": 93.2,
        "review_reason": "Drone RTK photogrammetry detects a 2.8% area discrepancy (746 m²) with a mean bund shift of 1.9m along the farm boundary. Verification recommended.",
        "bhunaksha_geometry": {
          "type": "Polygon",
          "coordinates": [
            [
              [
                74.9782187,
                18.4827455
              ],
              [
                74.9780935,
                18.4816697
              ],
              [
                74.978008,
                18.4816879
              ],
              [
                74.9763936,
                18.4815755
              ],
              [
                74.9766046,
                18.4832362
              ],
              [
                74.9782187,
                18.4827455
              ]
            ]
          ]
        }
      },
      "geometry": {
        "type": "Polygon",
        "coordinates": [
          [
            [
              74.9782446,
              18.4827445
            ],
            [
              74.9781177,
              18.4816538
            ],
            [
              74.978031,
              18.4816722
            ],
            [
              74.9763942,
              18.4815582
            ],
            [
              74.9766081,
              18.483242
            ],
            [
              74.9782446,
              18.4827445
            ]
          ]
        ]
      }
    }
  ]
}