{
  "type": "FeatureCollection",
  "name": "Benwadi_Gat_371_Drone_Resurvey",
  "crs": {
    "type": "name",
    "properties": {
      "name": "urn:ogc:def:crs:OGC:1.3:CRS84"
    }
  },
  "features": [
    {
      "type": "Feature",
      "properties": {
        "parcel_id": "MH-AHM-KAR-BEN-371",
        "survey_no": "371",
        "gat_no": "371",
        "village": "Benwadi (बेनवडी)",
        "taluka": "Karjat (कर्जत)",
        "district": "Ahmednagar (अहमदनगर)",
        "state": "Maharashtra",
        "gis_code": "RVM2613272600130334420000",
        "owner_name": "भागवत पांडूरंग गदादे, महादू पांडूरंग गदादे",
        "all_owners": [
          "भागवत पांडूरंग गदादे",
          "महादू पांडूरंग गदादे",
          "सुरेखा मच्छिंद्र गदादे",
          "सिमिला भागवत गदादे",
          "मच्छिंद्र तात्याराम गदादे",
          "राजेंद्र लक्ष्मण गदादे",
          "बाळासाहेब लक्ष्मण गदादे",
          "सोमनाथ भागवत गदादे"
        ],
        "khata_no": "196, 219, 2254, 316, 3432, 3473, 3474, 809",
        "area_sqm": 95434.73,
        "area_acres": 23.58,
        "area_guntha": 943.31,
        "land_type": "जिरायत शेती (Jirayat - Rainfed Agricultural)",
        "source": "MahaBhuNaksha Official Live Cadastre",
        "status": "needs_review",
        "confidence_score": 84.8,
        "old_survey_area_acres": 23.58,
        "old_survey_area_sqm": 95434.73,
        "new_survey_area_acres": 24.22,
        "new_survey_area_sqm": 98011.5,
        "area_diff_pct": 2.7,
        "mean_shift_m": 1.4,
        "iou_overlap_pct": 93.3,
        "review_reason": "Drone RTK photogrammetry detects a 2.7% area discrepancy (2577 m²) with a mean bund shift of 1.4m along the farm boundary. Verification recommended.",
        "bhunaksha_geometry": {
          "type": "Polygon",
          "coordinates": [
            [
              [
                74.9813077,
                18.5007899
              ],
              [
                74.9812828,
                18.500207
              ],
              [
                74.9812428,
                18.4993785
              ],
              [
                74.9811531,
                18.4991358
              ],
              [
                74.9809821,
                18.4986862
              ],
              [
                74.9806405,
                18.4978936
              ],
              [
                74.9803041,
                18.4971578
              ],
              [
                74.9794489,
                18.4971422
              ],
              [
                74.9780302,
                18.4979406
              ],
              [
                74.977955,
                18.4980068
              ],
              [
                74.9781005,
                18.49844
              ],
              [
                74.9783263,
                18.499068
              ],
              [
                74.9785564,
                18.4997563
              ],
              [
                74.9788706,
                18.4997275
              ],
              [
                74.9796032,
                18.499636
              ],
              [
                74.979669,
                18.5009178
              ],
              [
                74.9807775,
                18.5008314
              ],
              [
                74.9813077,
                18.5007899
              ]
            ]
          ]
        }
      },
      "geometry": {
        "type": "Polygon",
        "coordinates": [
          [
            [
              74.9813287,
              18.5008
            ],
            [
              74.9813034,
              18.5002092
            ],
            [
              74.9812629,
              18.4993696
            ],
            [
              74.981172,
              18.4991237
            ],
            [
              74.9809987,
              18.498668
            ],
            [
              74.9806525,
              18.4978648
            ],
            [
              74.9803116,
              18.4971192
            ],
            [
              74.9794449,
              18.4971033
            ],
            [
              74.9780072,
              18.4979125
            ],
            [
              74.977931,
              18.4979795
            ],
            [
              74.9780784,
              18.4984185
            ],
            [
              74.9783073,
              18.499055
            ],
            [
              74.9785405,
              18.4997525
            ],
            [
              74.9788589,
              18.4997233
            ],
            [
              74.9796013,
              18.4996306
            ],
            [
              74.979668,
              18.5009296
            ],
            [
              74.9807913,
              18.500842
            ],
            [
              74.9813287,
              18.5008
            ]
          ]
        ]
      }
    }
  ]
}