{
  "type": "FeatureCollection",
  "name": "Benwadi_Gat_260_Cadastre",
  "crs": {
    "type": "name",
    "properties": {
      "name": "urn:ogc:def:crs:OGC:1.3:CRS84"
    }
  },
  "features": [
    {
      "type": "Feature",
      "properties": {
        "parcel_id": "MH-AHM-KAR-BEN-260",
        "survey_no": "260",
        "gat_no": "260",
        "village": "Benwadi (बेनवडी)",
        "taluka": "Karjat (कर्जत)",
        "district": "Ahmednagar (अहमदनगर)",
        "state": "Maharashtra",
        "gis_code": "RVM2613272600130334420000",
        "owner_name": "पोपट भगवान गदादे, सोपान भगवान गदादे",
        "all_owners": [
          "पोपट भगवान गदादे",
          "सोपान भगवान गदादे",
          "गणेश पोपट गदादे",
          "भालचंद्र भिवा कांबळे",
          "अण्णा  चिमाजी ससाणे, आशाबाई भालचंद्र कांबळे",
          "राजाराम भिवा कांबळे",
          "दादा भिवा कांबळे",
          "अश्विनी बाळासाहेब गदादे, तान्हाजी शिवाजी दुधे",
          "आजीनाथ साहेबराव राऊत, रुक्मिणी विठ्ठल राऊत, नारायण साहेबराव राऊत",
          "दादा आप्पा कवडे, हनुमान सखाराम भोसले, शारदा कल्याण धुमाळ, आश्रू भाऊसाहेब धुमाळ",
          "मधुकर  भगवान  गदादे, उत्तम  सुखदेव  गदादे",
          "राजू  खंडू  भिताडे, पोपट  दिगंबर  धुमाळ, दत्तात्रय  दादाराम  गदादे"
        ],
        "khata_no": "2252, 2253, 1121, 2741, 2743, 583, 584, 2914, 2915, 2882, 3446, 3447",
        "area_sqm": 44702.99,
        "area_acres": 11.05,
        "area_guntha": 441.86,
        "land_type": "जिरायत शेती (Jirayat - Rainfed Agricultural)",
        "source": "MahaBhuNaksha Official Live Cadastre",
        "status": "verified",
        "confidence_score": 98.8,
        "old_survey_area_acres": 11.05,
        "old_survey_area_sqm": 44702.99,
        "new_survey_area_acres": 11.05,
        "new_survey_area_sqm": 44702.99
      },
      "geometry": {
        "type": "Polygon",
        "coordinates": [
          [
            [
              74.968735,
              18.496101
            ],
            [
              74.9683579,
              18.4951169
            ],
            [
              74.9678957,
              18.4939034
            ],
            [
              74.9675642,
              18.4935615
            ],
            [
              74.9674657,
              18.4931796
            ],
            [
              74.9674023,
              18.4930405
            ],
            [
              74.9673369,
              18.4929645
            ],
            [
              74.9667056,
              18.493136
            ],
            [
              74.966804,
              18.4936131
            ],
            [
              74.9668965,
              18.4940512
            ],
            [
              74.9670229,
              18.4947323
            ],
            [
              74.9670896,
              18.4950428
            ],
            [
              74.9672952,
              18.4960526
            ],
            [
              74.9674296,
              18.4967133
            ],
            [
              74.9675875,
              18.4966293
            ],
            [
              74.9682932,
              18.4962908
            ],
            [
              74.968735,
              18.496101
            ]
          ]
        ]
      }
    }
  ]
}