{
  "type": "FeatureCollection",
  "name": "Benwadi_Gat_71_Cadastre",
  "crs": {
    "type": "name",
    "properties": {
      "name": "urn:ogc:def:crs:OGC:1.3:CRS84"
    }
  },
  "features": [
    {
      "type": "Feature",
      "properties": {
        "parcel_id": "MH-AHM-KAR-BEN-71",
        "survey_no": "71",
        "gat_no": "71",
        "village": "Benwadi (बेनवडी)",
        "taluka": "Karjat (कर्जत)",
        "district": "Ahmednagar (अहमदनगर)",
        "state": "Maharashtra",
        "gis_code": "RVM2613272600130334420000",
        "owner_name": "सर्जेराव शिवराम खूडे",
        "all_owners": [
          "सर्जेराव शिवराम खूडे"
        ],
        "khata_no": "328",
        "area_sqm": 2373.24,
        "area_acres": 0.59,
        "area_guntha": 23.46,
        "land_type": "जिरायत शेती (Jirayat - Rainfed Agricultural)",
        "source": "MahaBhuNaksha Official Live Cadastre",
        "status": "verified",
        "confidence_score": 98.8,
        "old_survey_area_acres": 0.59,
        "old_survey_area_sqm": 2373.24,
        "new_survey_area_acres": 0.59,
        "new_survey_area_sqm": 2373.24
      },
      "geometry": {
        "type": "Polygon",
        "coordinates": [
          [
            [
              74.9767622,
              18.4895213
            ],
            [
              74.9767444,
              18.4894548
            ],
            [
              74.9767182,
              18.4893667
            ],
            [
              74.9766724,
              18.4891935
            ],
            [
              74.9764091,
              18.4893529
            ],
            [
              74.9762198,
              18.4894674
            ],
            [
              74.9762757,
              18.4896246
            ],
            [
              74.976327,
              18.489773
            ],
            [
              74.9763634,
              18.4897704
            ],
            [
              74.9765762,
              18.489718
            ],
            [
              74.9767986,
              18.4896652
            ],
            [
              74.9767622,
              18.4895213
            ]
          ]
        ]
      }
    }
  ]
}