{
  "type": "FeatureCollection",
  "name": "Benwadi_Gat_358_Cadastre",
  "crs": {
    "type": "name",
    "properties": {
      "name": "urn:ogc:def:crs:OGC:1.3:CRS84"
    }
  },
  "features": [
    {
      "type": "Feature",
      "properties": {
        "parcel_id": "MH-AHM-KAR-BEN-358",
        "survey_no": "358",
        "gat_no": "358",
        "village": "Benwadi (बेनवडी)",
        "taluka": "Karjat (कर्जत)",
        "district": "Ahmednagar (अहमदनगर)",
        "state": "Maharashtra",
        "gis_code": "RVM2613272600130334420000",
        "owner_name": "दादा मारुती भिताडे, चंद्रकांत मारुती भिताडे",
        "all_owners": [
          "दादा मारुती भिताडे",
          "चंद्रकांत मारुती भिताडे",
          "शालन विलास पठाडे",
          "कौशल्या मारुती भिताडे"
        ],
        "khata_no": "2618, 2619, 2620, 2989",
        "area_sqm": 5158.22,
        "area_acres": 1.27,
        "area_guntha": 50.99,
        "land_type": "जिरायत शेती (Jirayat - Rainfed Agricultural)",
        "source": "MahaBhuNaksha Official Live Cadastre",
        "status": "verified",
        "confidence_score": 98.8,
        "old_survey_area_acres": 1.27,
        "old_survey_area_sqm": 5158.22,
        "new_survey_area_acres": 1.27,
        "new_survey_area_sqm": 5158.22
      },
      "geometry": {
        "type": "Polygon",
        "coordinates": [
          [
            [
              74.9757839,
              18.5000484
            ],
            [
              74.9756247,
              18.4995069
            ],
            [
              74.9753892,
              18.4995435
            ],
            [
              74.9752538,
              18.4986805
            ],
            [
              74.9750332,
              18.4987206
            ],
            [
              74.9752013,
              18.499602
            ],
            [
              74.9752916,
              18.5001116
            ],
            [
              74.9756284,
              18.500077
            ],
            [
              74.9757839,
              18.5000484
            ]
          ]
        ]
      }
    }
  ]
}