{
  "type": "FeatureCollection",
  "name": "Benwadi_Gat_127_Drone_Resurvey",
  "crs": {
    "type": "name",
    "properties": {
      "name": "urn:ogc:def:crs:OGC:1.3:CRS84"
    }
  },
  "features": [
    {
      "type": "Feature",
      "properties": {
        "parcel_id": "MH-AHM-KAR-BEN-127",
        "survey_no": "127",
        "gat_no": "127",
        "village": "Benwadi (बेनवडी)",
        "taluka": "Karjat (कर्जत)",
        "district": "Ahmednagar (अहमदनगर)",
        "state": "Maharashtra",
        "gis_code": "RVM2613272600130334420000",
        "owner_name": "बापू कृष्णा गदादे, सहदेव निवृत्ती धूमाळ",
        "all_owners": [
          "बापू कृष्णा गदादे",
          "सहदेव निवृत्ती धूमाळ",
          "महाराष्ट्र राज्याचे मा.राज्यपाल यांचे वतीने जलसंपदा विभाग महाराष्ट्र शासनाचे प्राधिकृत प्रतिनिधी – कार्यकारी अभियंता, कुकडी वितरण विभाग कोळवडी, ता.कर्जत यांचे कबुलीजबाबासाठी कुलमखत्यार म्हणून- कनिष्ठ लिपिक कुकडी वितरण बांधकाम विभाग कोळवडी ता कर्जत –",
          "महाराष्ट्र राज्याचे मा.राज्यपाल यांचे वतीने जलसंपदा विभाग महाराष्ट्र शासनाचे प्राधिकृत प्रतिनिधी – कार्यकारी अभियंता, कुकडी वितरण विभाग कोळवडी, ता.कर्जत यांचे कबुलीजबाबासाठी कुलमखत्यार म्हणून- कनिष्ठ लिपिक कुकडी वितरण बांधकाम विभाग कोळवडी ता कर्जत –",
          "महाराष्ट्र राज्याचे मा.राज्यपाल यांचे वतीने जलसंपदा विभाग महाराष्ट्र शासनाचे प्राधिकृत प्रतिनिधी – कार्यकारी अभियंता, कुकडी वितरण विभाग कोळवडी, ता.कर्जत यांचे कबुलीजबाबासाठी कुलमखत्यार म्हणून- कनिष्ठ लिपिक कुकडी वितरण बांधकाम विभाग कोळवडी ता कर्जत –",
          "सतिष दत्तू धुमाळ",
          "प्रतिभा रवींद्र गदादे",
          "अजिनाथ  नाना गदादे",
          "अजीनाथ दत्तु धूमाळ",
          "नाना बापू गदादे",
          "अनिता सावता गदादे, प्रमोद सावता गदादे, प्रीती अमोल हजारे",
          "नाना बापू गदादे",
          "प्रशांत दादासाहेब गदादे",
          "प्रमोद सावता गदादे"
        ],
        "khata_no": "162, 2277, 3197, 3198, 3199, 330, 3385, 3444, 9, 567, 568, 567, 2931, 3328",
        "area_sqm": 61846.81,
        "area_acres": 15.28,
        "area_guntha": 611.32,
        "land_type": "जिरायत शेती (Jirayat - Rainfed Agricultural)",
        "source": "MahaBhuNaksha Official Live Cadastre",
        "status": "needs_review",
        "confidence_score": 85.5,
        "old_survey_area_acres": 15.28,
        "old_survey_area_sqm": 61846.81,
        "new_survey_area_acres": 15.6,
        "new_survey_area_sqm": 63145.6,
        "area_diff_pct": 2.1,
        "mean_shift_m": 1.8,
        "iou_overlap_pct": 93.9,
        "review_reason": "Drone RTK photogrammetry detects a 2.1% area discrepancy (1299 m²) with a mean bund shift of 1.8m along the farm boundary. Verification recommended.",
        "bhunaksha_geometry": {
          "type": "Polygon",
          "coordinates": [
            [
              [
                74.9750987,
                18.4852803
              ],
              [
                74.9777312,
                18.4842673
              ],
              [
                74.9792142,
                18.4837075
              ],
              [
                74.9791433,
                18.4836012
              ],
              [
                74.9793498,
                18.4826179
              ],
              [
                74.9782187,
                18.4827455
              ],
              [
                74.9766046,
                18.4832362
              ],
              [
                74.9766411,
                18.4833399
              ],
              [
                74.9767269,
                18.4840087
              ],
              [
                74.9743831,
                18.4844201
              ],
              [
                74.9744276,
                18.4845923
              ],
              [
                74.9744908,
                18.4848475
              ],
              [
                74.9746246,
                18.4854613
              ],
              [
                74.9750987,
                18.4852803
              ]
            ]
          ]
        }
      },
      "geometry": {
        "type": "Polygon",
        "coordinates": [
          [
            [
              74.9750984,
              18.4852991
            ],
            [
              74.9777584,
              18.4842755
            ],
            [
              74.9792569,
              18.4837099
            ],
            [
              74.9791852,
              18.4836025
            ],
            [
              74.9793939,
              18.4826089
            ],
            [
              74.978251,
              18.4827378
            ],
            [
              74.97662,
              18.4832337
            ],
            [
              74.9766569,
              18.4833384
            ],
            [
              74.9767436,
              18.4840142
            ],
            [
              74.9743753,
              18.4844299
            ],
            [
              74.9744203,
              18.4846039
            ],
            [
              74.9744841,
              18.4848618
            ],
            [
              74.9746193,
              18.485482
            ],
            [
              74.9750984,
              18.4852991
            ]
          ]
        ]
      }
    }
  ]
}