{
  "type": "FeatureCollection",
  "name": "Benwadi_Gat_106_Cadastre",
  "crs": {
    "type": "name",
    "properties": {
      "name": "urn:ogc:def:crs:OGC:1.3:CRS84"
    }
  },
  "features": [
    {
      "type": "Feature",
      "properties": {
        "parcel_id": "MH-AHM-KAR-BEN-106",
        "survey_no": "106",
        "gat_no": "106",
        "village": "Benwadi (बेनवडी)",
        "taluka": "Karjat (कर्जत)",
        "district": "Ahmednagar (अहमदनगर)",
        "state": "Maharashtra",
        "gis_code": "RVM2613272600130334420000",
        "owner_name": "बबन भगवान खुडे, लाला महादेव खुडे",
        "all_owners": [
          "बबन भगवान खुडे",
          "लाला महादेव खुडे",
          "सोपान माधव खुडे",
          "दत्तु महादेव खुडे",
          "रामु धोंडीबा शिंदे",
          "बतासी शिवाजी दिवटे",
          "पदमीन रामा गायकवाड",
          "धोंडाबाई निवृत्ती",
          "कचर गणपत खुडे",
          "हरिबाई दशरथ लोंढे, शामराव हंबीरराव खुडे, शालन प्रल्हाद वाघमारे, भामाबाई कुंडलीक चांदणे, छबुबाई गेना भवाळ, पोपट हंबीरराव खुडे",
          "पांडुरंग प्रकाश राऊत",
          "सचिन दत्तू नेटके",
          "मंगल निलेश खुडे, राजुबाई भानुदास खुडे, शिवाजी भानुदास खुडे, रोहित निलेश खुडे अ पा क आई मंगल, रामा भानुदास खुडे, तुषार निलेश खुडे, उषा मोहन भोसले, हरी भानुदास खुडे, आशा शिवलिंग कांबळे",
          "सागर नरहरी खुडे",
          "माणिक जयवंता खुडे",
          "विनायक जयवंता खुडे",
          "भाऊसाहेब जयवंता खुडे",
          "रावसाहेब जयवंता खुडे",
          "निता मच्छिंद्र लोखंडे, सविता संदीपान मोरे, रेखा जालिंदर डाडर, अविनाश कल्याण खुडे, कविता संतोष जगताप, राजूबाई कल्याण खुडे",
          "केशरबाई संभाजी वाल्हेकर",
          "आप्पा बाबू खुडे",
          "उद्धव यशवंत सकट, दादासाहेब उद्धव सकट, बाळासाहेब उद्धव सकट, प्रमिला दुर्योधन पवार, कविता नवनाथ पवार"
        ],
        "khata_no": "2292, 2348, 2349, 2350, 2351, 2352, 2353, 2354, 25, 2856, 2964, 3084, 3248, 3399, 690, 691, 692, 693, 694, 695, 724, 727",
        "area_sqm": 34103.11,
        "area_acres": 8.43,
        "area_guntha": 337.09,
        "land_type": "जिरायत शेती (Jirayat - Rainfed Agricultural)",
        "source": "MahaBhuNaksha Official Live Cadastre",
        "status": "verified",
        "confidence_score": 98.8,
        "old_survey_area_acres": 8.43,
        "old_survey_area_sqm": 34103.11,
        "new_survey_area_acres": 8.43,
        "new_survey_area_sqm": 34103.11
      },
      "geometry": {
        "type": "Polygon",
        "coordinates": [
          [
            [
              74.9762175,
              18.4893367
            ],
            [
              74.9762988,
              18.4890233
            ],
            [
              74.9763471,
              18.4888402
            ],
            [
              74.9763898,
              18.488685
            ],
            [
              74.9765101,
              18.4885669
            ],
            [
              74.9765259,
              18.4886473
            ],
            [
              74.9765363,
              18.4887118
            ],
            [
              74.9766241,
              18.4887395
            ],
            [
              74.9766639,
              18.4888036
            ],
            [
              74.9768299,
              18.4890982
            ],
            [
              74.9768371,
              18.4890939
            ],
            [
              74.9770688,
              18.4889515
            ],
            [
              74.9772754,
              18.4888245
            ],
            [
              74.9770868,
              18.4884251
            ],
            [
              74.976946,
              18.4881314
            ],
            [
              74.9768911,
              18.4880542
            ],
            [
              74.9767316,
              18.4878395
            ],
            [
              74.9767043,
              18.4878074
            ],
            [
              74.976617,
              18.487592
            ],
            [
              74.9764221,
              18.4871025
            ],
            [
              74.9763666,
              18.4869802
            ],
            [
              74.9757123,
              18.4872312
            ],
            [
              74.9754259,
              18.4873313
            ],
            [
              74.9754752,
              18.4875517
            ],
            [
              74.9755454,
              18.4879327
            ],
            [
              74.9755834,
              18.4881077
            ],
            [
              74.9754445,
              18.4881804
            ],
            [
              74.9754967,
              18.4883589
            ],
            [
              74.9755439,
              18.4885307
            ],
            [
              74.9754346,
              18.4885562
            ],
            [
              74.9754987,
              18.4887692
            ],
            [
              74.9755513,
              18.4889481
            ],
            [
              74.975412,
              18.4889809
            ],
            [
              74.9753685,
              18.48882
            ],
            [
              74.9753088,
              18.4885904
            ],
            [
              74.9752739,
              18.4884074
            ],
            [
              74.9752572,
              18.4883332
            ],
            [
              74.9752395,
              18.488243
            ],
            [
              74.9750877,
              18.488245
            ],
            [
              74.9751096,
              18.4884882
            ],
            [
              74.975147,
              18.488898
            ],
            [
              74.9751725,
              18.4892128
            ],
            [
              74.9751885,
              18.489397
            ],
            [
              74.9756338,
              18.4891525
            ],
            [
              74.97577,
              18.4890763
            ],
            [
              74.9758077,
              18.4892417
            ],
            [
              74.9758247,
              18.4893084
            ],
            [
              74.9758455,
              18.4894204
            ],
            [
              74.976043,
              18.4893765
            ],
            [
              74.9762175,
              18.4893367
            ]
          ]
        ]
      }
    }
  ]
}