{
  "type": "FeatureCollection",
  "name": "Benwadi_Gat_264_Cadastre",
  "crs": {
    "type": "name",
    "properties": {
      "name": "urn:ogc:def:crs:OGC:1.3:CRS84"
    }
  },
  "features": [
    {
      "type": "Feature",
      "properties": {
        "parcel_id": "MH-AHM-KAR-BEN-264",
        "survey_no": "264",
        "gat_no": "264",
        "village": "Benwadi (बेनवडी)",
        "taluka": "Karjat (कर्जत)",
        "district": "Ahmednagar (अहमदनगर)",
        "state": "Maharashtra",
        "gis_code": "RVM2613272600130334420000",
        "owner_name": "छगन नामदेव गदादे, जनाबाई बळिराम रसाळ, ज्ञानदेव नामदेव गदादे, लक्ष्मीबाई नामदेव गदादे, संपत नामदेव गदादे",
        "all_owners": [
          "छगन नामदेव गदादे, जनाबाई बळिराम रसाळ, ज्ञानदेव नामदेव गदादे, लक्ष्मीबाई नामदेव गदादे, संपत नामदेव गदादे"
        ],
        "khata_no": "129",
        "area_sqm": 6643.57,
        "area_acres": 1.64,
        "area_guntha": 65.67,
        "land_type": "जिरायत शेती (Jirayat - Rainfed Agricultural)",
        "source": "MahaBhuNaksha Official Live Cadastre",
        "status": "verified",
        "confidence_score": 98.8,
        "old_survey_area_acres": 1.64,
        "old_survey_area_sqm": 6643.57,
        "new_survey_area_acres": 1.64,
        "new_survey_area_sqm": 6643.57
      },
      "geometry": {
        "type": "Polygon",
        "coordinates": [
          [
            [
              74.9669606,
              18.4921869
            ],
            [
              74.9669072,
              18.4920667
            ],
            [
              74.9661981,
              18.4922957
            ],
            [
              74.965407,
              18.4925454
            ],
            [
              74.9638434,
              18.492826
            ],
            [
              74.9638954,
              18.4930081
            ],
            [
              74.9654048,
              18.4927537
            ],
            [
              74.9669606,
              18.4921869
            ]
          ]
        ]
      }
    }
  ]
}