{
  "type": "FeatureCollection",
  "name": "Benwadi_Gat_510_Drone_Resurvey",
  "crs": {
    "type": "name",
    "properties": {
      "name": "urn:ogc:def:crs:OGC:1.3:CRS84"
    }
  },
  "features": [
    {
      "type": "Feature",
      "properties": {
        "parcel_id": "MH-AHM-KAR-BEN-510",
        "survey_no": "510",
        "gat_no": "510",
        "village": "Benwadi (बेनवडी)",
        "taluka": "Karjat (कर्जत)",
        "district": "Ahmednagar (अहमदनगर)",
        "state": "Maharashtra",
        "gis_code": "RVM2613272600130334420000",
        "owner_name": "गणेश  भागवत  गदादे, विष्णू महादेव गदादे",
        "all_owners": [
          "गणेश  भागवत  गदादे, विष्णू महादेव गदादे"
        ],
        "khata_no": "1036",
        "area_sqm": 18589.91,
        "area_acres": 4.59,
        "area_guntha": 183.75,
        "land_type": "जिरायत शेती (Jirayat - Rainfed Agricultural)",
        "source": "MahaBhuNaksha Official Live Cadastre",
        "status": "needs_review",
        "confidence_score": 84.6,
        "old_survey_area_acres": 4.59,
        "old_survey_area_sqm": 18589.91,
        "new_survey_area_acres": 4.72,
        "new_survey_area_sqm": 19110.4,
        "area_diff_pct": 2.8,
        "mean_shift_m": 1.5,
        "iou_overlap_pct": 93.2,
        "review_reason": "Drone RTK photogrammetry detects a 2.8% area discrepancy (520 m²) with a mean bund shift of 1.5m along the farm boundary. Verification recommended.",
        "bhunaksha_geometry": {
          "type": "Polygon",
          "coordinates": [
            [
              [
                74.9836828,
                18.4966536
              ],
              [
                74.9835658,
                18.4958557
              ],
              [
                74.9834304,
                18.4958929
              ],
              [
                74.983445,
                18.4956703
              ],
              [
                74.9835355,
                18.4956471
              ],
              [
                74.9834174,
                18.4948307
              ],
              [
                74.9831049,
                18.4948627
              ],
              [
                74.9826062,
                18.4949078
              ],
              [
                74.9824996,
                18.4949181
              ],
              [
                74.9822746,
                18.4949442
              ],
              [
                74.9819061,
                18.4949782
              ],
              [
                74.9819333,
                18.495236
              ],
              [
                74.9819456,
                18.4952243
              ],
              [
                74.9819853,
                18.4952197
              ],
              [
                74.9822108,
                18.4951858
              ],
              [
                74.9824358,
                18.495152
              ],
              [
                74.9828063,
                18.4950921
              ],
              [
                74.98287,
                18.4950781
              ],
              [
                74.9828916,
                18.4952169
              ],
              [
                74.9829002,
                18.495274
              ],
              [
                74.9829469,
                18.4956403
              ],
              [
                74.9829691,
                18.4957943
              ],
              [
                74.9829916,
                18.4959594
              ],
              [
                74.9830076,
                18.4960781
              ],
              [
                74.9830363,
                18.496235
              ],
              [
                74.9830932,
                18.4966952
              ],
              [
                74.9831591,
                18.4971625
              ],
              [
                74.983801,
                18.4973004
              ],
              [
                74.9836828,
                18.4966536
              ]
            ]
          ]
        }
      },
      "geometry": {
        "type": "Polygon",
        "coordinates": [
          [
            [
              74.983708,
              18.4966657
            ],
            [
              74.9835894,
              18.4958567
            ],
            [
              74.9834521,
              18.4958944
            ],
            [
              74.9834669,
              18.4956687
            ],
            [
              74.9835587,
              18.4956452
            ],
            [
              74.9834389,
              18.4948175
            ],
            [
              74.9831221,
              18.4948499
            ],
            [
              74.9826165,
              18.4948956
            ],
            [
              74.9825084,
              18.4949061
            ],
            [
              74.9822802,
              18.4949326
            ],
            [
              74.9819066,
              18.494967
            ],
            [
              74.9819342,
              18.4952284
            ],
            [
              74.9819467,
              18.4952165
            ],
            [
              74.9819869,
              18.4952119
            ],
            [
              74.9822156,
              18.4951775
            ],
            [
              74.9824437,
              18.4951432
            ],
            [
              74.9828193,
              18.4950825
            ],
            [
              74.9828839,
              18.4950683
            ],
            [
              74.9829058,
              18.495209
            ],
            [
              74.9829145,
              18.4952669
            ],
            [
              74.9829619,
              18.4956383
            ],
            [
              74.9829844,
              18.4957945
            ],
            [
              74.9830072,
              18.4959619
            ],
            [
              74.9830234,
              18.4960822
            ],
            [
              74.9830525,
              18.4962413
            ],
            [
              74.9831102,
              18.4967079
            ],
            [
              74.983177,
              18.4971817
            ],
            [
              74.9838279,
              18.4973215
            ],
            [
              74.983708,
              18.4966657
            ]
          ]
        ]
      }
    }
  ]
}