{
  "type": "FeatureCollection",
  "name": "Benwadi_Gat_376_Cadastre",
  "crs": {
    "type": "name",
    "properties": {
      "name": "urn:ogc:def:crs:OGC:1.3:CRS84"
    }
  },
  "features": [
    {
      "type": "Feature",
      "properties": {
        "parcel_id": "MH-AHM-KAR-BEN-376",
        "survey_no": "376",
        "gat_no": "376",
        "village": "Benwadi (बेनवडी)",
        "taluka": "Karjat (कर्जत)",
        "district": "Ahmednagar (अहमदनगर)",
        "state": "Maharashtra",
        "gis_code": "RVM2613272600130334420000",
        "owner_name": "मच्छिंद्र अप्पा गदादे, अशोक  संभाजी गदादे",
        "all_owners": [
          "मच्छिंद्र अप्पा गदादे",
          "अशोक  संभाजी गदादे",
          "भिमराव संभाजी  गदादे",
          "दादा गेणा गदादे",
          "बाळू गेना गदादे"
        ],
        "khata_no": "3420, 2549, 2550, 545, 542",
        "area_sqm": 13039.39,
        "area_acres": 3.22,
        "area_guntha": 128.89,
        "land_type": "जिरायत शेती (Jirayat - Rainfed Agricultural)",
        "source": "MahaBhuNaksha Official Live Cadastre",
        "status": "verified",
        "confidence_score": 98.8,
        "old_survey_area_acres": 3.22,
        "old_survey_area_sqm": 13039.39,
        "new_survey_area_acres": 3.22,
        "new_survey_area_sqm": 13039.39
      },
      "geometry": {
        "type": "Polygon",
        "coordinates": [
          [
            [
              74.9813511,
              18.50154
            ],
            [
              74.9813423,
              18.5013282
            ],
            [
              74.9805843,
              18.5014032
            ],
            [
              74.9801493,
              18.5015052
            ],
            [
              74.9799146,
              18.501442
            ],
            [
              74.9797195,
              18.5015097
            ],
            [
              74.9796806,
              18.5013417
            ],
            [
              74.9793798,
              18.5017703
            ],
            [
              74.980482,
              18.5020241
            ],
            [
              74.9813841,
              18.5022448
            ],
            [
              74.9813511,
              18.50154
            ]
          ]
        ]
      }
    }
  ]
}