{
  "type": "FeatureCollection",
  "name": "Benwadi_Gat_365_Cadastre",
  "crs": {
    "type": "name",
    "properties": {
      "name": "urn:ogc:def:crs:OGC:1.3:CRS84"
    }
  },
  "features": [
    {
      "type": "Feature",
      "properties": {
        "parcel_id": "MH-AHM-KAR-BEN-365",
        "survey_no": "365",
        "gat_no": "365",
        "village": "Benwadi (बेनवडी)",
        "taluka": "Karjat (कर्जत)",
        "district": "Ahmednagar (अहमदनगर)",
        "state": "Maharashtra",
        "gis_code": "RVM2613272600130334420000",
        "owner_name": "रामदास अंकुश गदादे, काका भगवान गदादे",
        "all_owners": [
          "रामदास अंकुश गदादे",
          "काका भगवान गदादे"
        ],
        "khata_no": "3352, 547",
        "area_sqm": 5429.78,
        "area_acres": 1.34,
        "area_guntha": 53.67,
        "land_type": "जिरायत शेती (Jirayat - Rainfed Agricultural)",
        "source": "MahaBhuNaksha Official Live Cadastre",
        "status": "verified",
        "confidence_score": 98.8,
        "old_survey_area_acres": 1.34,
        "old_survey_area_sqm": 5429.78,
        "new_survey_area_acres": 1.34,
        "new_survey_area_sqm": 5429.78
      },
      "geometry": {
        "type": "Polygon",
        "coordinates": [
          [
            [
              74.9776333,
              18.4991749
            ],
            [
              74.9773588,
              18.4992172
            ],
            [
              74.9775564,
              18.499997
            ],
            [
              74.9779461,
              18.5011933
            ],
            [
              74.97811,
              18.5013082
            ],
            [
              74.9776333,
              18.4991749
            ]
          ]
        ]
      }
    }
  ]
}