{
  "type": "FeatureCollection",
  "name": "Benwadi_Gat_86_Cadastre",
  "crs": {
    "type": "name",
    "properties": {
      "name": "urn:ogc:def:crs:OGC:1.3:CRS84"
    }
  },
  "features": [
    {
      "type": "Feature",
      "properties": {
        "parcel_id": "MH-AHM-KAR-BEN-86",
        "survey_no": "86",
        "gat_no": "86",
        "village": "Benwadi (बेनवडी)",
        "taluka": "Karjat (कर्जत)",
        "district": "Ahmednagar (अहमदनगर)",
        "state": "Maharashtra",
        "gis_code": "RVM2613272600130334420000",
        "owner_name": "रेश्मा नवनाथ धुमाळ",
        "all_owners": [
          "रेश्मा नवनाथ धुमाळ"
        ],
        "khata_no": "3109",
        "area_sqm": 2778.76,
        "area_acres": 0.69,
        "area_guntha": 27.47,
        "land_type": "जिरायत शेती (Jirayat - Rainfed Agricultural)",
        "source": "MahaBhuNaksha Official Live Cadastre",
        "status": "verified",
        "confidence_score": 98.8,
        "old_survey_area_acres": 0.69,
        "old_survey_area_sqm": 2778.76,
        "new_survey_area_acres": 0.69,
        "new_survey_area_sqm": 2778.76
      },
      "geometry": {
        "type": "Polygon",
        "coordinates": [
          [
            [
              74.9796294,
              18.490226
            ],
            [
              74.979348,
              18.4899487
            ],
            [
              74.9791014,
              18.4897057
            ],
            [
              74.9788675,
              18.4897699
            ],
            [
              74.9789861,
              18.4902612
            ],
            [
              74.9796294,
              18.490226
            ]
          ]
        ]
      }
    }
  ]
}