{
  "type": "FeatureCollection",
  "name": "Benwadi_Gat_496_Cadastre",
  "crs": {
    "type": "name",
    "properties": {
      "name": "urn:ogc:def:crs:OGC:1.3:CRS84"
    }
  },
  "features": [
    {
      "type": "Feature",
      "properties": {
        "parcel_id": "MH-AHM-KAR-BEN-496",
        "survey_no": "496",
        "gat_no": "496",
        "village": "Benwadi (बेनवडी)",
        "taluka": "Karjat (कर्जत)",
        "district": "Ahmednagar (अहमदनगर)",
        "state": "Maharashtra",
        "gis_code": "RVM2613272600130334420000",
        "owner_name": "दत्तात्रय संभाजी गदादे, बाबूराव मारूती गदादे",
        "all_owners": [
          "दत्तात्रय संभाजी गदादे",
          "बाबूराव मारूती गदादे",
          "युवराज शिवाजी गदादे",
          "गणेश शिवाजी गदादे",
          "विठठल बाबूराव गदादे",
          "आबासाहेब बाबूराव गदादे"
        ],
        "khata_no": "91, 182, 3485, 3486, 412, 413",
        "area_sqm": 46041.34,
        "area_acres": 11.38,
        "area_guntha": 455.09,
        "land_type": "जिरायत शेती (Jirayat - Rainfed Agricultural)",
        "source": "MahaBhuNaksha Official Live Cadastre",
        "status": "verified",
        "confidence_score": 98.8,
        "old_survey_area_acres": 11.38,
        "old_survey_area_sqm": 46041.34,
        "new_survey_area_acres": 11.38,
        "new_survey_area_sqm": 46041.34
      },
      "geometry": {
        "type": "Polygon",
        "coordinates": [
          [
            [
              74.9864397,
              18.4998939
            ],
            [
              74.9864086,
              18.4992479
            ],
            [
              74.9863846,
              18.4989071
            ],
            [
              74.9865765,
              18.4987004
            ],
            [
              74.9867978,
              18.498453
            ],
            [
              74.9868588,
              18.4980354
            ],
            [
              74.9867945,
              18.4976714
            ],
            [
              74.9866847,
              18.4972811
            ],
            [
              74.9856006,
              18.4972762
            ],
            [
              74.9855487,
              18.4969049
            ],
            [
              74.9855009,
              18.4965011
            ],
            [
              74.98547,
              18.4962447
            ],
            [
              74.9848268,
              18.4963885
            ],
            [
              74.9836828,
              18.4966536
            ],
            [
              74.983801,
              18.4973004
            ],
            [
              74.9852631,
              18.4972671
            ],
            [
              74.9853149,
              18.4972701
            ],
            [
              74.9853196,
              18.4976122
            ],
            [
              74.9853142,
              18.4979033
            ],
            [
              74.9853809,
              18.4983024
            ],
            [
              74.9857656,
              18.4983606
            ],
            [
              74.9861327,
              18.4999125
            ],
            [
              74.9862505,
              18.4999603
            ],
            [
              74.9864397,
              18.4998939
            ]
          ]
        ]
      }
    }
  ]
}