{
  "type": "FeatureCollection",
  "name": "Benwadi_Gat_128_Cadastre",
  "crs": {
    "type": "name",
    "properties": {
      "name": "urn:ogc:def:crs:OGC:1.3:CRS84"
    }
  },
  "features": [
    {
      "type": "Feature",
      "properties": {
        "parcel_id": "MH-AHM-KAR-BEN-128",
        "survey_no": "128",
        "gat_no": "128",
        "village": "Benwadi (बेनवडी)",
        "taluka": "Karjat (कर्जत)",
        "district": "Ahmednagar (अहमदनगर)",
        "state": "Maharashtra",
        "gis_code": "RVM2613272600130334420000",
        "owner_name": "सतिष दत्तू धुमाळ, अर्जुन  जनार्धन  काळे",
        "all_owners": [
          "सतिष दत्तू धुमाळ",
          "अर्जुन  जनार्धन  काळे",
          "अजीनाथ दत्तु धूमाळ",
          "सहदेव निवृत्ती धूमाळ",
          "ज्ञानेश्वर सहदेव धुमाळ",
          "अजीनाथ दत्तु धूमाळ",
          "सतिष दत्तू धुमाळ",
          "शकुंतला  सहदेव  धुमाळ",
          "रुपाली पांडुरंग गदादे",
          "शकुंतला  सहदेव  धुमाळ",
          "प्रतिभा रवींद्र गदादे"
        ],
        "khata_no": "330, 2736, 9, 2277, 2303, 9, 330, 2604, 3384, 2604, 3385",
        "area_sqm": 64056.54,
        "area_acres": 15.83,
        "area_guntha": 633.16,
        "land_type": "जिरायत शेती (Jirayat - Rainfed Agricultural)",
        "source": "MahaBhuNaksha Official Live Cadastre",
        "status": "verified",
        "confidence_score": 98.8,
        "old_survey_area_acres": 15.83,
        "old_survey_area_sqm": 64056.54,
        "new_survey_area_acres": 15.83,
        "new_survey_area_sqm": 64056.54
      },
      "geometry": {
        "type": "Polygon",
        "coordinates": [
          [
            [
              74.9795601,
              18.481553
            ],
            [
              74.9793498,
              18.4826179
            ],
            [
              74.9791433,
              18.4836012
            ],
            [
              74.9795609,
              18.4836495
            ],
            [
              74.9815711,
              18.4838079
            ],
            [
              74.9814531,
              18.4819683
            ],
            [
              74.981367,
              18.4806508
            ],
            [
              74.9795601,
              18.481553
            ]
          ]
        ]
      }
    }
  ]
}