{
  "type": "FeatureCollection",
  "name": "Benwadi_Gat_206_Cadastre",
  "crs": {
    "type": "name",
    "properties": {
      "name": "urn:ogc:def:crs:OGC:1.3:CRS84"
    }
  },
  "features": [
    {
      "type": "Feature",
      "properties": {
        "parcel_id": "MH-AHM-KAR-BEN-206",
        "survey_no": "206",
        "gat_no": "206",
        "village": "Benwadi (बेनवडी)",
        "taluka": "Karjat (कर्जत)",
        "district": "Ahmednagar (अहमदनगर)",
        "state": "Maharashtra",
        "gis_code": "RVM2613272600130334420000",
        "owner_name": "बापू विठोबा गदादे",
        "all_owners": [
          "बापू विठोबा गदादे"
        ],
        "khata_no": "165",
        "area_sqm": 5708.22,
        "area_acres": 1.41,
        "area_guntha": 56.42,
        "land_type": "जिरायत शेती (Jirayat - Rainfed Agricultural)",
        "source": "MahaBhuNaksha Official Live Cadastre",
        "status": "verified",
        "confidence_score": 98.8,
        "old_survey_area_acres": 1.41,
        "old_survey_area_sqm": 5708.22,
        "new_survey_area_acres": 1.41,
        "new_survey_area_sqm": 5708.22
      },
      "geometry": {
        "type": "Polygon",
        "coordinates": [
          [
            [
              74.958803,
              18.4841984
            ],
            [
              74.9589351,
              18.4841848
            ],
            [
              74.9584846,
              18.4825004
            ],
            [
              74.9582192,
              18.4825959
            ],
            [
              74.9586526,
              18.4842441
            ],
            [
              74.958803,
              18.4841984
            ]
          ]
        ]
      }
    }
  ]
}