{
  "type": "FeatureCollection",
  "name": "Benwadi_Gat_290_Cadastre",
  "crs": {
    "type": "name",
    "properties": {
      "name": "urn:ogc:def:crs:OGC:1.3:CRS84"
    }
  },
  "features": [
    {
      "type": "Feature",
      "properties": {
        "parcel_id": "MH-AHM-KAR-BEN-290",
        "survey_no": "290",
        "gat_no": "290",
        "village": "Benwadi (बेनवडी)",
        "taluka": "Karjat (कर्जत)",
        "district": "Ahmednagar (अहमदनगर)",
        "state": "Maharashtra",
        "gis_code": "RVM2613272600130334420000",
        "owner_name": "जनाबाई नामदेव धुमाळ, संतोष नामदेव धुमाळ, संपत नामदेव धुमाळ",
        "all_owners": [
          "जनाबाई नामदेव धुमाळ, संतोष नामदेव धुमाळ, संपत नामदेव धुमाळ"
        ],
        "khata_no": "130",
        "area_sqm": 3020.01,
        "area_acres": 0.75,
        "area_guntha": 29.85,
        "land_type": "जिरायत शेती (Jirayat - Rainfed Agricultural)",
        "source": "MahaBhuNaksha Official Live Cadastre",
        "status": "verified",
        "confidence_score": 98.8,
        "old_survey_area_acres": 0.75,
        "old_survey_area_sqm": 3020.01,
        "new_survey_area_acres": 0.75,
        "new_survey_area_sqm": 3020.01
      },
      "geometry": {
        "type": "Polygon",
        "coordinates": [
          [
            [
              74.9689825,
              18.5008115
            ],
            [
              74.9689592,
              18.5006039
            ],
            [
              74.9689596,
              18.5005644
            ],
            [
              74.9684485,
              18.5005968
            ],
            [
              74.9679124,
              18.5006441
            ],
            [
              74.9679544,
              18.500885
            ],
            [
              74.9689825,
              18.5008115
            ]
          ]
        ]
      }
    }
  ]
}