{
  "type": "FeatureCollection",
  "name": "Benwadi_Gat_100_Drone_Resurvey",
  "crs": {
    "type": "name",
    "properties": {
      "name": "urn:ogc:def:crs:OGC:1.3:CRS84"
    }
  },
  "features": [
    {
      "type": "Feature",
      "properties": {
        "parcel_id": "MH-AHM-KAR-BEN-100",
        "survey_no": "100",
        "gat_no": "100",
        "village": "Benwadi (बेनवडी)",
        "taluka": "Karjat (कर्जत)",
        "district": "Ahmednagar (अहमदनगर)",
        "state": "Maharashtra",
        "gis_code": "RVM2613272600130334420000",
        "owner_name": "मा मुख्य कार्यकारी अधिकारी जि प अहमदनगर  करिता विद्यमान ग्राम विकास अधिकारी  ग्रा प बेनवडी ता  कर्जत रामा चंदू धनवडे, दिव्या विजय खुडे, निर्मला  शिवाजी खुडे, सपना विजय खुडे, सोमनाथ विजय खुडे, अनिल विजय खुडे, राजेंद्र शिवाजी खुडे",
        "all_owners": [
          "मा मुख्य कार्यकारी अधिकारी जि प अहमदनगर  करिता विद्यमान ग्राम विकास अधिकारी  ग्रा प बेनवडी ता  कर्जत रामा चंदू धनवडे",
          "दिव्या विजय खुडे, निर्मला  शिवाजी खुडे, सपना विजय खुडे, सोमनाथ विजय खुडे, अनिल विजय खुडे, राजेंद्र शिवाजी खुडे",
          "महाराष्ट्र राज्याचे मा.राज्यपाल यांचे वतीने जलसंपदा विभाग महाराष्ट्र शासनाचे प्राधिकृत प्रतिनिधी – कार्यकारी अभियंता, कुकडी वितरण विभाग कोळवडी, ता.कर्जत यांचे कबुलीजबाबासाठी कुलमखत्यार म्हणून- कनिष्ठ लिपिक कुकडी वितरण बांधकाम विभाग कोळवडी ता कर्जत –",
          "इंदुबाई छगन खुडे, कांतीलाल छगन  खुडे, मनीषा शशिकांत  कांबळे, संतोष छगन  खुडे",
          "बबन विश्वनाथ खूडे",
          "त्रिंबक विश्वनाथ खूडे"
        ],
        "khata_no": "2767, 313, 3159, 718, 721, 722",
        "area_sqm": 12416.0,
        "area_acres": 3.07,
        "area_guntha": 122.72,
        "land_type": "जिरायत शेती (Jirayat - Rainfed Agricultural)",
        "source": "MahaBhuNaksha Official Live Cadastre",
        "status": "needs_review",
        "confidence_score": 84.6,
        "old_survey_area_acres": 3.07,
        "old_survey_area_sqm": 12416.0,
        "new_survey_area_acres": 3.16,
        "new_survey_area_sqm": 12763.6,
        "area_diff_pct": 2.8,
        "mean_shift_m": 2.1,
        "iou_overlap_pct": 93.2,
        "review_reason": "Drone RTK photogrammetry detects a 2.8% area discrepancy (348 m²) with a mean bund shift of 2.1m along the farm boundary. Verification recommended.",
        "bhunaksha_geometry": {
          "type": "Polygon",
          "coordinates": [
            [
              [
                74.9789,
                18.4879135
              ],
              [
                74.9788971,
                18.487856
              ],
              [
                74.9788814,
                18.4873365
              ],
              [
                74.9788447,
                18.4865645
              ],
              [
                74.9788233,
                18.4860672
              ],
              [
                74.978305,
                18.4862641
              ],
              [
                74.9781789,
                18.4863102
              ],
              [
                74.9782222,
                18.4868464
              ],
              [
                74.9782302,
                18.4869265
              ],
              [
                74.9782729,
                18.4872454
              ],
              [
                74.9782885,
                18.4873046
              ],
              [
                74.9784075,
                18.4876937
              ],
              [
                74.9784271,
                18.4877871
              ],
              [
                74.9785209,
                18.4881136
              ],
              [
                74.9789,
                18.4879135
              ]
            ]
          ]
        }
      },
      "geometry": {
        "type": "Polygon",
        "coordinates": [
          [
            [
              74.9789016,
              18.4879054
            ],
            [
              74.9788986,
              18.4878471
            ],
            [
              74.9788827,
              18.4873204
            ],
            [
              74.9788455,
              18.4865377
            ],
            [
              74.9788238,
              18.4860335
            ],
            [
              74.9782983,
              18.4862331
            ],
            [
              74.9781704,
              18.4862798
            ],
            [
              74.9782143,
              18.4868235
            ],
            [
              74.9782224,
              18.4869047
            ],
            [
              74.9782657,
              18.487228
            ],
            [
              74.9782816,
              18.4872881
            ],
            [
              74.9784022,
              18.4876826
            ],
            [
              74.9784221,
              18.4877773
            ],
            [
              74.9785172,
              18.4881083
            ],
            [
              74.9789016,
              18.4879054
            ]
          ]
        ]
      }
    }
  ]
}