{
  "type": "FeatureCollection",
  "name": "Benwadi_Gat_238_Drone_Resurvey",
  "crs": {
    "type": "name",
    "properties": {
      "name": "urn:ogc:def:crs:OGC:1.3:CRS84"
    }
  },
  "features": [
    {
      "type": "Feature",
      "properties": {
        "parcel_id": "MH-AHM-KAR-BEN-238",
        "survey_no": "238",
        "gat_no": "238",
        "village": "Benwadi (बेनवडी)",
        "taluka": "Karjat (कर्जत)",
        "district": "Ahmednagar (अहमदनगर)",
        "state": "Maharashtra",
        "gis_code": "RVM2613272600130334420000",
        "owner_name": "मधुकर  सावळा  भिताडे",
        "all_owners": [
          "मधुकर  सावळा  भिताडे"
        ],
        "khata_no": "2617",
        "area_sqm": 2559.73,
        "area_acres": 0.63,
        "area_guntha": 25.3,
        "land_type": "जिरायत शेती (Jirayat - Rainfed Agricultural)",
        "source": "MahaBhuNaksha Official Live Cadastre",
        "status": "needs_review",
        "confidence_score": 84.4,
        "old_survey_area_acres": 0.63,
        "old_survey_area_sqm": 2559.73,
        "new_survey_area_acres": 0.65,
        "new_survey_area_sqm": 2636.5,
        "area_diff_pct": 3.0,
        "mean_shift_m": 1.9,
        "iou_overlap_pct": 93.0,
        "review_reason": "Drone RTK photogrammetry detects a 3.0% area discrepancy (77 m²) with a mean bund shift of 1.9m along the farm boundary. Verification recommended.",
        "bhunaksha_geometry": {
          "type": "Polygon",
          "coordinates": [
            [
              [
                74.9580029,
                18.4898054
              ],
              [
                74.9579395,
                18.4891735
              ],
              [
                74.9575624,
                18.4892466
              ],
              [
                74.9577172,
                18.4898867
              ],
              [
                74.9580029,
                18.4898054
              ]
            ]
          ]
        }
      },
      "geometry": {
        "type": "Polygon",
        "coordinates": [
          [
            [
              74.9580237,
              18.4898074
            ],
            [
              74.9579594,
              18.4891661
            ],
            [
              74.9575767,
              18.4892403
            ],
            [
              74.9577338,
              18.48989
            ],
            [
              74.9580237,
              18.4898074
            ]
          ]
        ]
      }
    }
  ]
}