{
  "type": "FeatureCollection",
  "name": "Benwadi_Gat_273_Drone_Resurvey",
  "crs": {
    "type": "name",
    "properties": {
      "name": "urn:ogc:def:crs:OGC:1.3:CRS84"
    }
  },
  "features": [
    {
      "type": "Feature",
      "properties": {
        "parcel_id": "MH-AHM-KAR-BEN-273",
        "survey_no": "273",
        "gat_no": "273",
        "village": "Benwadi (बेनवडी)",
        "taluka": "Karjat (कर्जत)",
        "district": "Ahmednagar (अहमदनगर)",
        "state": "Maharashtra",
        "gis_code": "RVM2613272600130334420000",
        "owner_name": "प्रियांका आजिनाथ दवणे अपाक अनिता आजिनाथ दवणे, संग्राम आजिनाथ दवणे अपाक अनिता आजिनाथ दवणे, अनिता आजिनाथ दवणे, जनाबाई हनुमंत कांबळे",
        "all_owners": [
          "प्रियांका आजिनाथ दवणे अपाक अनिता आजिनाथ दवणे, संग्राम आजिनाथ दवणे अपाक अनिता आजिनाथ दवणे, अनिता आजिनाथ दवणे",
          "जनाबाई हनुमंत कांबळे",
          "अनिता मारूती गदादे",
          "अनिता मारूती गदादे",
          "ज्ञानेश्वर आप्पासाहेब  दवणे",
          "जनाबाई आप्पा दवणे",
          "अप्पासाहेब बापूराव दवणे"
        ],
        "khata_no": "2486, 1033, 11, 11, 3039, 486, 2875",
        "area_sqm": 62945.0,
        "area_acres": 15.55,
        "area_guntha": 622.17,
        "land_type": "जिरायत शेती (Jirayat - Rainfed Agricultural)",
        "source": "MahaBhuNaksha Official Live Cadastre",
        "status": "needs_review",
        "confidence_score": 85.0,
        "old_survey_area_acres": 15.55,
        "old_survey_area_sqm": 62945.0,
        "new_survey_area_acres": 15.94,
        "new_survey_area_sqm": 64518.6,
        "area_diff_pct": 2.5,
        "mean_shift_m": 2.0,
        "iou_overlap_pct": 93.5,
        "review_reason": "Drone RTK photogrammetry detects a 2.5% area discrepancy (1574 m²) with a mean bund shift of 2.0m along the farm boundary. Verification recommended.",
        "bhunaksha_geometry": {
          "type": "Polygon",
          "coordinates": [
            [
              [
                74.9663182,
                18.4971686
              ],
              [
                74.9659776,
                18.4961602
              ],
              [
                74.9657365,
                18.4954452
              ],
              [
                74.965626,
                18.4951563
              ],
              [
                74.9655764,
                18.4950065
              ],
              [
                74.9650777,
                18.4935429
              ],
              [
                74.9641472,
                18.4935657
              ],
              [
                74.9640231,
                18.4935572
              ],
              [
                74.9644405,
                18.4956598
              ],
              [
                74.9646677,
                18.496817
              ],
              [
                74.9649004,
                18.4979516
              ],
              [
                74.9652261,
                18.4977705
              ],
              [
                74.9663182,
                18.4971686
              ]
            ]
          ]
        }
      },
      "geometry": {
        "type": "Polygon",
        "coordinates": [
          [
            [
              74.9663227,
              18.4971722
            ],
            [
              74.9659779,
              18.4961513
            ],
            [
              74.9657338,
              18.4954274
            ],
            [
              74.9656219,
              18.4951349
            ],
            [
              74.9655717,
              18.4949832
            ],
            [
              74.9650668,
              18.4935015
            ],
            [
              74.9641248,
              18.4935245
            ],
            [
              74.9639991,
              18.4935159
            ],
            [
              74.9644217,
              18.4956447
            ],
            [
              74.9646517,
              18.4968162
            ],
            [
              74.9648873,
              18.4979649
            ],
            [
              74.9652171,
              18.4977816
            ],
            [
              74.9663227,
              18.4971722
            ]
          ]
        ]
      }
    }
  ]
}