{
  "type": "FeatureCollection",
  "name": "Benwadi_Gat_328_Cadastre",
  "crs": {
    "type": "name",
    "properties": {
      "name": "urn:ogc:def:crs:OGC:1.3:CRS84"
    }
  },
  "features": [
    {
      "type": "Feature",
      "properties": {
        "parcel_id": "MH-AHM-KAR-BEN-328",
        "survey_no": "328",
        "gat_no": "328",
        "village": "Benwadi (बेनवडी)",
        "taluka": "Karjat (कर्जत)",
        "district": "Ahmednagar (अहमदनगर)",
        "state": "Maharashtra",
        "gis_code": "RVM2613272600130334420000",
        "owner_name": "स्वप्नाली शेखर गायकवाड",
        "all_owners": [
          "स्वप्नाली शेखर गायकवाड"
        ],
        "khata_no": "3297",
        "area_sqm": 4972.25,
        "area_acres": 1.23,
        "area_guntha": 49.15,
        "land_type": "जिरायत शेती (Jirayat - Rainfed Agricultural)",
        "source": "MahaBhuNaksha Official Live Cadastre",
        "status": "verified",
        "confidence_score": 98.8,
        "old_survey_area_acres": 1.23,
        "old_survey_area_sqm": 4972.25,
        "new_survey_area_acres": 1.23,
        "new_survey_area_sqm": 4972.25
      },
      "geometry": {
        "type": "Polygon",
        "coordinates": [
          [
            [
              74.9647731,
              18.5062082
            ],
            [
              74.9647462,
              18.5068489
            ],
            [
              74.9651062,
              18.5068949
            ],
            [
              74.965481,
              18.5069395
            ],
            [
              74.9658829,
              18.5069886
            ],
            [
              74.9661426,
              18.5070649
            ],
            [
              74.9647731,
              18.5062082
            ]
          ]
        ]
      }
    }
  ]
}