{
  "type": "FeatureCollection",
  "name": "Benwadi_Gat_272_Cadastre",
  "crs": {
    "type": "name",
    "properties": {
      "name": "urn:ogc:def:crs:OGC:1.3:CRS84"
    }
  },
  "features": [
    {
      "type": "Feature",
      "properties": {
        "parcel_id": "MH-AHM-KAR-BEN-272",
        "survey_no": "272",
        "gat_no": "272",
        "village": "Benwadi (बेनवडी)",
        "taluka": "Karjat (कर्जत)",
        "district": "Ahmednagar (अहमदनगर)",
        "state": "Maharashtra",
        "gis_code": "RVM2613272600130334420000",
        "owner_name": "बाप्पू रंगनाथ कांबळे, बायडा भिमराव गाडे",
        "all_owners": [
          "बाप्पू रंगनाथ कांबळे",
          "बायडा भिमराव गाडे",
          "शितल  नितीन  गाडे, सचिन  पांडुरंग  कांबळे, कोमल  पांडुरंग  कांबळे अ पा क आई सुनिता पांडुरंग कांबळे, निखिल  पांडुरंग  कांबळे अ पा क आई सुनिता पांडुरंग कांबळे, सुनिता  पांडुरंग  कांबळे",
          "काशिनाथ रंगनाथ कांबळे",
          "छाया विलास घोडके",
          "धोंडीराम रंगनाथ कांबळे",
          "राहीबाई रंगनाथ कांबळे",
          "मिराबाई प्रकाश उजागरे"
        ],
        "khata_no": "2815, 2816, 2833, 2834, 2835, 2836, 2838, 3005",
        "area_sqm": 13203.77,
        "area_acres": 3.26,
        "area_guntha": 130.51,
        "land_type": "जिरायत शेती (Jirayat - Rainfed Agricultural)",
        "source": "MahaBhuNaksha Official Live Cadastre",
        "status": "verified",
        "confidence_score": 98.8,
        "old_survey_area_acres": 3.26,
        "old_survey_area_sqm": 13203.77,
        "new_survey_area_acres": 3.26,
        "new_survey_area_sqm": 13203.77
      },
      "geometry": {
        "type": "Polygon",
        "coordinates": [
          [
            [
              74.9668596,
              18.4969442
            ],
            [
              74.966391,
              18.4952529
            ],
            [
              74.9657365,
              18.4954452
            ],
            [
              74.9659776,
              18.4961602
            ],
            [
              74.9663182,
              18.4971686
            ],
            [
              74.9668596,
              18.4969442
            ]
          ]
        ]
      }
    }
  ]
}