{
  "type": "FeatureCollection",
  "name": "Benwadi_Gat_154_Cadastre",
  "crs": {
    "type": "name",
    "properties": {
      "name": "urn:ogc:def:crs:OGC:1.3:CRS84"
    }
  },
  "features": [
    {
      "type": "Feature",
      "properties": {
        "parcel_id": "MH-AHM-KAR-BEN-154",
        "survey_no": "154",
        "gat_no": "154",
        "village": "Benwadi (बेनवडी)",
        "taluka": "Karjat (कर्जत)",
        "district": "Ahmednagar (अहमदनगर)",
        "state": "Maharashtra",
        "gis_code": "RVM2613272600130334420000",
        "owner_name": "राजेंद्र विश्वनाथ गदादे, फुलचंद  काशिनाथ  गदादे",
        "all_owners": [
          "राजेंद्र विश्वनाथ गदादे",
          "फुलचंद  काशिनाथ  गदादे",
          "फूलचंद काशिनाथ गदादे",
          "विश्वनाथ लक्ष्मण गदादे"
        ],
        "khata_no": "2996, 3064, 587, 588",
        "area_sqm": 22326.39,
        "area_acres": 5.52,
        "area_guntha": 220.68,
        "land_type": "जिरायत शेती (Jirayat - Rainfed Agricultural)",
        "source": "MahaBhuNaksha Official Live Cadastre",
        "status": "verified",
        "confidence_score": 98.8,
        "old_survey_area_acres": 5.52,
        "old_survey_area_sqm": 22326.39,
        "new_survey_area_acres": 5.52,
        "new_survey_area_sqm": 22326.39
      },
      "geometry": {
        "type": "Polygon",
        "coordinates": [
          [
            [
              74.9690626,
              18.4799953
            ],
            [
              74.9691349,
              18.479428
            ],
            [
              74.9694141,
              18.4787001
            ],
            [
              74.9694511,
              18.4783266
            ],
            [
              74.9693927,
              18.478324
            ],
            [
              74.9687344,
              18.4784524
            ],
            [
              74.9679909,
              18.4786191
            ],
            [
              74.9680305,
              18.4800576
            ],
            [
              74.9690626,
              18.4799953
            ]
          ]
        ]
      }
    }
  ]
}