{
  "type": "FeatureCollection",
  "name": "Benwadi_Gat_7_Cadastre",
  "crs": {
    "type": "name",
    "properties": {
      "name": "urn:ogc:def:crs:OGC:1.3:CRS84"
    }
  },
  "features": [
    {
      "type": "Feature",
      "properties": {
        "parcel_id": "MH-AHM-KAR-BEN-7",
        "survey_no": "7",
        "gat_no": "7",
        "village": "Benwadi (बेनवडी)",
        "taluka": "Karjat (कर्जत)",
        "district": "Ahmednagar (अहमदनगर)",
        "state": "Maharashtra",
        "gis_code": "RVM2613272600130334420000",
        "owner_name": "विजय सिताराम घंटे, राजेंद्र सिताराम घंटे",
        "all_owners": [
          "विजय सिताराम घंटे",
          "राजेंद्र सिताराम घंटे",
          "शांताबाई सिताराम घंटे"
        ],
        "khata_no": "293, 510, 511",
        "area_sqm": 3919.52,
        "area_acres": 0.97,
        "area_guntha": 38.74,
        "land_type": "जिरायत शेती (Jirayat - Rainfed Agricultural)",
        "source": "MahaBhuNaksha Official Live Cadastre",
        "status": "verified",
        "confidence_score": 98.8,
        "old_survey_area_acres": 0.97,
        "old_survey_area_sqm": 3919.52,
        "new_survey_area_acres": 0.97,
        "new_survey_area_sqm": 3919.52
      },
      "geometry": {
        "type": "Polygon",
        "coordinates": [
          [
            [
              74.9827692,
              18.4916749
            ],
            [
              74.9823571,
              18.4913451
            ],
            [
              74.9815209,
              18.4914011
            ],
            [
              74.9817024,
              18.4914978
            ],
            [
              74.9828721,
              18.4919085
            ],
            [
              74.9831608,
              18.4920187
            ],
            [
              74.9831305,
              18.4919558
            ],
            [
              74.9827692,
              18.4916749
            ]
          ]
        ]
      }
    }
  ]
}