{
  "type": "FeatureCollection",
  "name": "Benwadi_Gat_370_Drone_Resurvey",
  "crs": {
    "type": "name",
    "properties": {
      "name": "urn:ogc:def:crs:OGC:1.3:CRS84"
    }
  },
  "features": [
    {
      "type": "Feature",
      "properties": {
        "parcel_id": "MH-AHM-KAR-BEN-370",
        "survey_no": "370",
        "gat_no": "370",
        "village": "Benwadi (बेनवडी)",
        "taluka": "Karjat (कर्जत)",
        "district": "Ahmednagar (अहमदनगर)",
        "state": "Maharashtra",
        "gis_code": "RVM2613272600130334420000",
        "owner_name": "भागवत पांडूरंग गदादे, महादू पांडूरंग गदादे",
        "all_owners": [
          "भागवत पांडूरंग गदादे",
          "महादू पांडूरंग गदादे",
          "मच्छिंद्र तात्याराम गदादे",
          "राजेंद्र लक्ष्मण गदादे"
        ],
        "khata_no": "196, 219, 3430, 3472",
        "area_sqm": 20016.99,
        "area_acres": 4.95,
        "area_guntha": 197.85,
        "land_type": "जिरायत शेती (Jirayat - Rainfed Agricultural)",
        "source": "MahaBhuNaksha Official Live Cadastre",
        "status": "needs_review",
        "confidence_score": 84.6,
        "old_survey_area_acres": 4.95,
        "old_survey_area_sqm": 20016.99,
        "new_survey_area_acres": 5.09,
        "new_survey_area_sqm": 20577.5,
        "area_diff_pct": 2.8,
        "mean_shift_m": 1.9,
        "iou_overlap_pct": 93.2,
        "review_reason": "Drone RTK photogrammetry detects a 2.8% area discrepancy (561 m²) with a mean bund shift of 1.9m along the farm boundary. Verification recommended.",
        "bhunaksha_geometry": {
          "type": "Polygon",
          "coordinates": [
            [
              [
                74.9796806,
                18.5013417
              ],
              [
                74.9796838,
                18.5012141
              ],
              [
                74.979669,
                18.5009178
              ],
              [
                74.9796032,
                18.499636
              ],
              [
                74.9788706,
                18.4997275
              ],
              [
                74.9788072,
                18.5009815
              ],
              [
                74.9788017,
                18.5013338
              ],
              [
                74.9784481,
                18.5013878
              ],
              [
                74.9784672,
                18.5015751
              ],
              [
                74.9785241,
                18.5016077
              ],
              [
                74.9786104,
                18.5015973
              ],
              [
                74.9793798,
                18.5017703
              ],
              [
                74.9796806,
                18.5013417
              ]
            ]
          ]
        }
      },
      "geometry": {
        "type": "Polygon",
        "coordinates": [
          [
            [
              74.9796953,
              18.501329
            ],
            [
              74.9796985,
              18.5011996
            ],
            [
              74.9796835,
              18.5008992
            ],
            [
              74.9796168,
              18.4995996
            ],
            [
              74.978874,
              18.4996924
            ],
            [
              74.9788098,
              18.5009638
            ],
            [
              74.9788042,
              18.501321
            ],
            [
              74.9784457,
              18.5013758
            ],
            [
              74.978465,
              18.5015657
            ],
            [
              74.9785227,
              18.5015987
            ],
            [
              74.9786102,
              18.5015882
            ],
            [
              74.9793903,
              18.5017636
            ],
            [
              74.9796953,
              18.501329
            ]
          ]
        ]
      }
    }
  ]
}