{
  "type": "FeatureCollection",
  "name": "Benwadi_Gat_129_Drone_Resurvey",
  "crs": {
    "type": "name",
    "properties": {
      "name": "urn:ogc:def:crs:OGC:1.3:CRS84"
    }
  },
  "features": [
    {
      "type": "Feature",
      "properties": {
        "parcel_id": "MH-AHM-KAR-BEN-129",
        "survey_no": "129",
        "gat_no": "129",
        "village": "Benwadi (बेनवडी)",
        "taluka": "Karjat (कर्जत)",
        "district": "Ahmednagar (अहमदनगर)",
        "state": "Maharashtra",
        "gis_code": "RVM2613272600130334420000",
        "owner_name": "पर्वती  देवराव \t गदादे, भाऊसाहेब दौलत गदादे, दौलत  देवराव \t\t\t गदादे",
        "all_owners": [
          "पर्वती  देवराव \t गदादे, भाऊसाहेब दौलत गदादे, दौलत  देवराव \t\t\t गदादे"
        ],
        "khata_no": "3226",
        "area_sqm": 16419.25,
        "area_acres": 4.06,
        "area_guntha": 162.29,
        "land_type": "जिरायत शेती (Jirayat - Rainfed Agricultural)",
        "source": "MahaBhuNaksha Official Live Cadastre",
        "status": "needs_review",
        "confidence_score": 84.5,
        "old_survey_area_acres": 4.06,
        "old_survey_area_sqm": 16419.25,
        "new_survey_area_acres": 4.18,
        "new_survey_area_sqm": 16895.4,
        "area_diff_pct": 2.9,
        "mean_shift_m": 1.6,
        "iou_overlap_pct": 93.1,
        "review_reason": "Drone RTK photogrammetry detects a 2.9% area discrepancy (476 m²) with a mean bund shift of 1.6m along the farm boundary. Verification recommended.",
        "bhunaksha_geometry": {
          "type": "Polygon",
          "coordinates": [
            [
              [
                74.9793498,
                18.4826179
              ],
              [
                74.9795601,
                18.481553
              ],
              [
                74.9794508,
                18.4815335
              ],
              [
                74.9780935,
                18.4816697
              ],
              [
                74.9782187,
                18.4827455
              ],
              [
                74.9793498,
                18.4826179
              ]
            ]
          ]
        }
      },
      "geometry": {
        "type": "Polygon",
        "coordinates": [
          [
            [
              74.9793705,
              18.482623
            ],
            [
              74.9795838,
              18.4815427
            ],
            [
              74.979473,
              18.481523
            ],
            [
              74.9780961,
              18.4816611
            ],
            [
              74.9782231,
              18.4827524
            ],
            [
              74.9793705,
              18.482623
            ]
          ]
        ]
      }
    }
  ]
}