{
  "type": "FeatureCollection",
  "name": "Benwadi_Gat_186_Cadastre",
  "crs": {
    "type": "name",
    "properties": {
      "name": "urn:ogc:def:crs:OGC:1.3:CRS84"
    }
  },
  "features": [
    {
      "type": "Feature",
      "properties": {
        "parcel_id": "MH-AHM-KAR-BEN-186",
        "survey_no": "186",
        "gat_no": "186",
        "village": "Benwadi (बेनवडी)",
        "taluka": "Karjat (कर्जत)",
        "district": "Ahmednagar (अहमदनगर)",
        "state": "Maharashtra",
        "gis_code": "RVM2613272600130334420000",
        "owner_name": "असिफ रसुल सय्यद, मिनाबी रसुल सय्यद, अफ्रोज अकबर सय्यद, अश्माबी राजू शेख, जालिंदर पांडुरंग मोढळे",
        "all_owners": [
          "असिफ रसुल सय्यद, मिनाबी रसुल सय्यद, अफ्रोज अकबर सय्यद, अश्माबी राजू शेख",
          "जालिंदर पांडुरंग मोढळे",
          "शरद किसनराव देशमुख",
          "पांडूरंग भाऊसाहेब देशमूख",
          "विश्वास लालासाहेब देशमुख"
        ],
        "khata_no": "2420, 2584, 2730, 729, 539",
        "area_sqm": 24107.34,
        "area_acres": 5.96,
        "area_guntha": 238.29,
        "land_type": "जिरायत शेती (Jirayat - Rainfed Agricultural)",
        "source": "MahaBhuNaksha Official Live Cadastre",
        "status": "verified",
        "confidence_score": 98.8,
        "old_survey_area_acres": 5.96,
        "old_survey_area_sqm": 24107.34,
        "new_survey_area_acres": 5.96,
        "new_survey_area_sqm": 24107.34
      },
      "geometry": {
        "type": "Polygon",
        "coordinates": [
          [
            [
              74.9649446,
              18.4864137
            ],
            [
              74.9641797,
              18.4859181
            ],
            [
              74.9640742,
              18.4858292
            ],
            [
              74.9639258,
              18.4857044
            ],
            [
              74.9636682,
              18.4854611
            ],
            [
              74.9630647,
              18.4849342
            ],
            [
              74.9627918,
              18.4846959
            ],
            [
              74.9620101,
              18.4840256
            ],
            [
              74.9619627,
              18.4839997
            ],
            [
              74.9618417,
              18.4840957
            ],
            [
              74.9621513,
              18.4845673
            ],
            [
              74.9622558,
              18.4846906
            ],
            [
              74.963115,
              18.4859027
            ],
            [
              74.9636981,
              18.4867113
            ],
            [
              74.9649446,
              18.4864137
            ]
          ]
        ]
      }
    }
  ]
}