{
  "type": "FeatureCollection",
  "name": "Benwadi_Gat_81_Cadastre",
  "crs": {
    "type": "name",
    "properties": {
      "name": "urn:ogc:def:crs:OGC:1.3:CRS84"
    }
  },
  "features": [
    {
      "type": "Feature",
      "properties": {
        "parcel_id": "MH-AHM-KAR-BEN-81",
        "survey_no": "81",
        "gat_no": "81",
        "village": "Benwadi (बेनवडी)",
        "taluka": "Karjat (कर्जत)",
        "district": "Ahmednagar (अहमदनगर)",
        "state": "Maharashtra",
        "gis_code": "RVM2613272600130334420000",
        "owner_name": "बबन भगवान खुडे, कचर गणपत खुडे",
        "all_owners": [
          "बबन भगवान खुडे",
          "कचर गणपत खुडे",
          "लाला माधव खूडे",
          "रोहित निलेश खुडे अ पा क आई मंगल, शिवाजी भानूदास खुडे, हरी भानूदास खुडे, उषा मोहन भोसले, राजुबाई भानूदास खुडे, रामा भानूदास खुडे, तुषार निलेश खुडे, मंगल निलेश खुडे, आशा शिवलिंग कांबळे",
          "पोपट हांबीराव खुडे, शालन प्रल्हाद वाघमारे, भामाबाई कुंडलीक चांदणे, हरिबाई दशरथ लोंढे, छबुबाई गेना भवाळ, शामराव हांबीराव खुडे",
          "सोपान महादेव खूडे"
        ],
        "khata_no": "2292, 25, 282, 2857, 2886, 362",
        "area_sqm": 3139.12,
        "area_acres": 0.78,
        "area_guntha": 31.03,
        "land_type": "जिरायत शेती (Jirayat - Rainfed Agricultural)",
        "source": "MahaBhuNaksha Official Live Cadastre",
        "status": "verified",
        "confidence_score": 98.8,
        "old_survey_area_acres": 0.78,
        "old_survey_area_sqm": 3139.12,
        "new_survey_area_acres": 0.78,
        "new_survey_area_sqm": 3139.12
      },
      "geometry": {
        "type": "Polygon",
        "coordinates": [
          [
            [
              74.9788198,
              18.4894283
            ],
            [
              74.9787467,
              18.4893562
            ],
            [
              74.9785551,
              18.4891675
            ],
            [
              74.9782732,
              18.4888855
            ],
            [
              74.9778556,
              18.4884679
            ],
            [
              74.9777616,
              18.4885256
            ],
            [
              74.9778666,
              18.4886755
            ],
            [
              74.9780424,
              18.4889249
            ],
            [
              74.9781119,
              18.4890225
            ],
            [
              74.9782243,
              18.4891811
            ],
            [
              74.9783628,
              18.4893769
            ],
            [
              74.9784618,
              18.4893458
            ],
            [
              74.9785162,
              18.4895105
            ],
            [
              74.9788198,
              18.4894283
            ]
          ]
        ]
      }
    }
  ]
}