{
  "type": "FeatureCollection",
  "name": "Benwadi_Gat_448_Cadastre",
  "crs": {
    "type": "name",
    "properties": {
      "name": "urn:ogc:def:crs:OGC:1.3:CRS84"
    }
  },
  "features": [
    {
      "type": "Feature",
      "properties": {
        "parcel_id": "MH-AHM-KAR-BEN-448",
        "survey_no": "448",
        "gat_no": "448",
        "village": "Benwadi (बेनवडी)",
        "taluka": "Karjat (कर्जत)",
        "district": "Ahmednagar (अहमदनगर)",
        "state": "Maharashtra",
        "gis_code": "RVM2613272600130334420000",
        "owner_name": "सतिश बाळासाहेब गदादे, अजिनाथ  बाळासाहेब  गदादे",
        "all_owners": [
          "सतिश बाळासाहेब गदादे",
          "अजिनाथ  बाळासाहेब  गदादे"
        ],
        "khata_no": "3284, 3415",
        "area_sqm": 29714.38,
        "area_acres": 7.34,
        "area_guntha": 293.71,
        "land_type": "जिरायत शेती (Jirayat - Rainfed Agricultural)",
        "source": "MahaBhuNaksha Official Live Cadastre",
        "status": "verified",
        "confidence_score": 98.8,
        "old_survey_area_acres": 7.34,
        "old_survey_area_sqm": 29714.38,
        "new_survey_area_acres": 7.34,
        "new_survey_area_sqm": 29714.38
      },
      "geometry": {
        "type": "Polygon",
        "coordinates": [
          [
            [
              74.9962365,
              18.4990306
            ],
            [
              74.9959569,
              18.4982424
            ],
            [
              74.9945339,
              18.4985311
            ],
            [
              74.9937817,
              18.498694
            ],
            [
              74.9935196,
              18.4987508
            ],
            [
              74.9935495,
              18.4990036
            ],
            [
              74.9926503,
              18.4992304
            ],
            [
              74.9927196,
              18.4996989
            ],
            [
              74.9946628,
              18.4993294
            ],
            [
              74.9949343,
              18.4992779
            ],
            [
              74.9962365,
              18.4990306
            ]
          ]
        ]
      }
    }
  ]
}