{
  "type": "FeatureCollection",
  "name": "Benwadi_Gat_481_Cadastre",
  "crs": {
    "type": "name",
    "properties": {
      "name": "urn:ogc:def:crs:OGC:1.3:CRS84"
    }
  },
  "features": [
    {
      "type": "Feature",
      "properties": {
        "parcel_id": "MH-AHM-KAR-BEN-481",
        "survey_no": "481",
        "gat_no": "481",
        "village": "Benwadi (बेनवडी)",
        "taluka": "Karjat (कर्जत)",
        "district": "Ahmednagar (अहमदनगर)",
        "state": "Maharashtra",
        "gis_code": "RVM2613272600130334420000",
        "owner_name": "भिवा विश्वनाथ गदादे, मिराबाई पंढरीनाथ अनारसे, संतोष अंबादास गदादे, सरस्वती अंबादास गदादे, संगीता संजय चेडे, संभाजी अंबादास गदादे",
        "all_owners": [
          "भिवा विश्वनाथ गदादे",
          "मिराबाई पंढरीनाथ अनारसे, संतोष अंबादास गदादे, सरस्वती अंबादास गदादे, संगीता संजय चेडे, संभाजी अंबादास गदादे",
          "कचराबाई शिवदास हजारे",
          "गणेश पोपट गदादे, सुनंदा पोपट गदादे, राजश्री पोपट गदादे, शारदा रामा माने, निलेश पोपट गदादे",
          "मिना राजेश गदादे, अनिता शिवदास गदादे, प्रियंका राजेश गदादे",
          "बापु काशिनाथ गदादे, तुकाराम काशिनाथ गदादे, चंदुबाई शंकर नाळे, नामदेव काशिनाथ गदादे, अंजुबाई नानाभाउ वाकडे, सखुबाई विठ्ठल जाधव",
          "कोंडाबाई लहू नाळे",
          "बापू कानिफनाथ अभंग",
          "सतिश कानिफनाथ अभंग",
          "विजया सूरेश सायकर",
          "सुरेखा कानिफनाथ अभंग",
          "प्रमिला कानिफनाथ अभंग"
        ],
        "khata_no": "2719, 2762, 2763, 2780, 2845, 2905, 671, 672, 673, 674, 675, 676",
        "area_sqm": 37480.83,
        "area_acres": 9.26,
        "area_guntha": 370.47,
        "land_type": "जिरायत शेती (Jirayat - Rainfed Agricultural)",
        "source": "MahaBhuNaksha Official Live Cadastre",
        "status": "verified",
        "confidence_score": 98.8,
        "old_survey_area_acres": 9.26,
        "old_survey_area_sqm": 37480.83,
        "new_survey_area_acres": 9.26,
        "new_survey_area_sqm": 37480.83
      },
      "geometry": {
        "type": "Polygon",
        "coordinates": [
          [
            [
              74.9864929,
              18.4943689
            ],
            [
              74.9864041,
              18.4932893
            ],
            [
              74.9863388,
              18.4923693
            ],
            [
              74.9857716,
              18.4927144
            ],
            [
              74.9854862,
              18.4926209
            ],
            [
              74.9838758,
              18.492428
            ],
            [
              74.9836286,
              18.4923994
            ],
            [
              74.983863,
              18.4927972
            ],
            [
              74.984202,
              18.4931234
            ],
            [
              74.9842818,
              18.4931568
            ],
            [
              74.9852899,
              18.4939163
            ],
            [
              74.9858279,
              18.4943197
            ],
            [
              74.9865005,
              18.4945687
            ],
            [
              74.9864966,
              18.4944672
            ],
            [
              74.9864929,
              18.4943689
            ]
          ]
        ]
      }
    }
  ]
}