{
  "type": "FeatureCollection",
  "name": "Benwadi_Gat_517_Drone_Resurvey",
  "crs": {
    "type": "name",
    "properties": {
      "name": "urn:ogc:def:crs:OGC:1.3:CRS84"
    }
  },
  "features": [
    {
      "type": "Feature",
      "properties": {
        "parcel_id": "MH-AHM-KAR-BEN-517",
        "survey_no": "517",
        "gat_no": "517",
        "village": "Benwadi (बेनवडी)",
        "taluka": "Karjat (कर्जत)",
        "district": "Ahmednagar (अहमदनगर)",
        "state": "Maharashtra",
        "gis_code": "RVM2613272600130334420000",
        "owner_name": "लक्ष्मण तुळशीराम गदादे, साळूबाई तुळशीराम गदादे, मारुती तुळशीराम गदादे",
        "all_owners": [
          "लक्ष्मण तुळशीराम गदादे, साळूबाई तुळशीराम गदादे, मारुती तुळशीराम गदादे"
        ],
        "khata_no": "81",
        "area_sqm": 3279.41,
        "area_acres": 0.81,
        "area_guntha": 32.41,
        "land_type": "जिरायत शेती (Jirayat - Rainfed Agricultural)",
        "source": "MahaBhuNaksha Official Live Cadastre",
        "status": "needs_review",
        "confidence_score": 85.5,
        "old_survey_area_acres": 0.81,
        "old_survey_area_sqm": 3279.41,
        "new_survey_area_acres": 0.83,
        "new_survey_area_sqm": 3348.3,
        "area_diff_pct": 2.1,
        "mean_shift_m": 2.0,
        "iou_overlap_pct": 93.9,
        "review_reason": "Drone RTK photogrammetry detects a 2.1% area discrepancy (69 m²) with a mean bund shift of 2.0m along the farm boundary. Verification recommended.",
        "bhunaksha_geometry": {
          "type": "Polygon",
          "coordinates": [
            [
              [
                74.9832906,
                18.4939519
              ],
              [
                74.9832731,
                18.4938302
              ],
              [
                74.9828751,
                18.4938735
              ],
              [
                74.9826011,
                18.4939007
              ],
              [
                74.9823162,
                18.4939379
              ],
              [
                74.981724,
                18.4940038
              ],
              [
                74.9812792,
                18.4940553
              ],
              [
                74.9813157,
                18.494209
              ],
              [
                74.9818766,
                18.4941338
              ],
              [
                74.9821942,
                18.494097
              ],
              [
                74.9822348,
                18.4940893
              ],
              [
                74.982648,
                18.4940331
              ],
              [
                74.9832906,
                18.4939519
              ]
            ]
          ]
        }
      },
      "geometry": {
        "type": "Polygon",
        "coordinates": [
          [
            [
              74.9833174,
              18.4939603
            ],
            [
              74.9832997,
              18.4938373
            ],
            [
              74.9828975,
              18.4938811
            ],
            [
              74.9826207,
              18.4939086
            ],
            [
              74.9823328,
              18.4939461
            ],
            [
              74.9817344,
              18.4940127
            ],
            [
              74.9812849,
              18.4940648
            ],
            [
              74.9813218,
              18.4942201
            ],
            [
              74.9818886,
              18.4941441
            ],
            [
              74.9822095,
              18.4941069
            ],
            [
              74.9822505,
              18.4940991
            ],
            [
              74.982668,
              18.4940423
            ],
            [
              74.9833174,
              18.4939603
            ]
          ]
        ]
      }
    }
  ]
}