{
  "type": "FeatureCollection",
  "name": "Benwadi_Gat_281_Cadastre",
  "crs": {
    "type": "name",
    "properties": {
      "name": "urn:ogc:def:crs:OGC:1.3:CRS84"
    }
  },
  "features": [
    {
      "type": "Feature",
      "properties": {
        "parcel_id": "MH-AHM-KAR-BEN-281",
        "survey_no": "281",
        "gat_no": "281",
        "village": "Benwadi (बेनवडी)",
        "taluka": "Karjat (कर्जत)",
        "district": "Ahmednagar (अहमदनगर)",
        "state": "Maharashtra",
        "gis_code": "RVM2613272600130334420000",
        "owner_name": "प्रशांत अंबादास देशमूख",
        "all_owners": [
          "प्रशांत अंबादास देशमूख"
        ],
        "khata_no": "469",
        "area_sqm": 14243.33,
        "area_acres": 3.52,
        "area_guntha": 140.79,
        "land_type": "जिरायत शेती (Jirayat - Rainfed Agricultural)",
        "source": "MahaBhuNaksha Official Live Cadastre",
        "status": "verified",
        "confidence_score": 98.8,
        "old_survey_area_acres": 3.52,
        "old_survey_area_sqm": 14243.33,
        "new_survey_area_acres": 3.52,
        "new_survey_area_sqm": 14243.33
      },
      "geometry": {
        "type": "Polygon",
        "coordinates": [
          [
            [
              74.9680563,
              18.4987934
            ],
            [
              74.9678834,
              18.4982286
            ],
            [
              74.9673178,
              18.4984037
            ],
            [
              74.9659139,
              18.4988556
            ],
            [
              74.9660869,
              18.4993354
            ],
            [
              74.9661088,
              18.4993885
            ],
            [
              74.9680025,
              18.4988372
            ],
            [
              74.9680563,
              18.4987934
            ]
          ]
        ]
      }
    }
  ]
}