{
  "type": "FeatureCollection",
  "name": "Benwadi_Gat_110_Cadastre",
  "crs": {
    "type": "name",
    "properties": {
      "name": "urn:ogc:def:crs:OGC:1.3:CRS84"
    }
  },
  "features": [
    {
      "type": "Feature",
      "properties": {
        "parcel_id": "MH-AHM-KAR-BEN-110",
        "survey_no": "110",
        "gat_no": "110",
        "village": "Benwadi (बेनवडी)",
        "taluka": "Karjat (कर्जत)",
        "district": "Ahmednagar (अहमदनगर)",
        "state": "Maharashtra",
        "gis_code": "RVM2613272600130334420000",
        "owner_name": "संजय शंकर पवार, रमा दिलीप लांडगे, शंकर यादव पवार, मारुती शंकर पवार, माणिक जयवंता खुडे",
        "all_owners": [
          "संजय शंकर पवार, रमा दिलीप लांडगे, शंकर यादव पवार, मारुती शंकर पवार",
          "माणिक जयवंता खुडे",
          "बाळासाहेब उद्धव सकट, दादासाहेब उद्धव सकट, प्रमीला दुर्योधन पवार, उद्धव यशवंत सकट, कविता नवनाथ पवार",
          "साखरबाई बबन खवळे, गोरख  साहेबराव  खुडे, नंदाबाई दादाराम खुडे, बापू दादाराम खुडे, मच्छिंद्र साहेबराव खुडे, दत्तू  साहेबराव  खुडे, रेश्मा विजय पाथरे, शशिकला साहेबराव खुडे",
          "विनायक जयवंता खुडे",
          "भाऊसाहेब जयवंता खुडे",
          "रावसाहेब जयवंता खुडे",
          "रेखा जालिंदर डाडर, राजूबाई कल्याण खुडे, सविता संदीपान मोरे, निता मच्छिंद्र लोखंडे, कविता संतोष जगताप, अविनाश कल्याण खुडे",
          "केशरबाई संभाजी वाल्हेकर",
          "सिताराम बाबू खुडे",
          "आप्पा बाबू खुडे",
          "गयाबाई दत्तू पवार"
        ],
        "khata_no": "2346, 2675, 2962, 561, 691, 692, 693, 694, 695, 723, 724, 726",
        "area_sqm": 2303.89,
        "area_acres": 0.57,
        "area_guntha": 22.77,
        "land_type": "जिरायत शेती (Jirayat - Rainfed Agricultural)",
        "source": "MahaBhuNaksha Official Live Cadastre",
        "status": "verified",
        "confidence_score": 98.8,
        "old_survey_area_acres": 0.57,
        "old_survey_area_sqm": 2303.89,
        "new_survey_area_acres": 0.57,
        "new_survey_area_sqm": 2303.89
      },
      "geometry": {
        "type": "Polygon",
        "coordinates": [
          [
            [
              74.9753337,
              18.4900291
            ],
            [
              74.9756971,
              18.4897924
            ],
            [
              74.9755698,
              18.4895553
            ],
            [
              74.97549,
              18.4894232
            ],
            [
              74.9752064,
              18.4895862
            ],
            [
              74.9752069,
              18.4897303
            ],
            [
              74.9752108,
              18.4899382
            ],
            [
              74.9752138,
              18.4900993
            ],
            [
              74.9753337,
              18.4900291
            ]
          ]
        ]
      }
    }
  ]
}