{
  "type": "FeatureCollection",
  "name": "Benwadi_Gat_388_Cadastre",
  "crs": {
    "type": "name",
    "properties": {
      "name": "urn:ogc:def:crs:OGC:1.3:CRS84"
    }
  },
  "features": [
    {
      "type": "Feature",
      "properties": {
        "parcel_id": "MH-AHM-KAR-BEN-388",
        "survey_no": "388",
        "gat_no": "388",
        "village": "Benwadi (बेनवडी)",
        "taluka": "Karjat (कर्जत)",
        "district": "Ahmednagar (अहमदनगर)",
        "state": "Maharashtra",
        "gis_code": "RVM2613272600130334420000",
        "owner_name": "गणेश   भिमराव  गदादे, गणेश  लक्ष्मण  गदादे",
        "all_owners": [
          "गणेश   भिमराव  गदादे",
          "गणेश  लक्ष्मण  गदादे",
          "नंदकुमार  लक्ष्मण  गदादे",
          "गणेश  लक्ष्मण  गदादे",
          "कमल  रंगनाथ  गदादे",
          "रोहन संतोष गदादे अ . पा . क .  वनिता संतोष गदादे, आरोही संतोष गदादे अ . पा . क .  वनिता संतोष गदादे, कमल रंगनाथ गदादे, वनिता संतोष गदादे",
          "हरिभाऊ  सावळा  गदादे",
          "पंढरीनाथ सावळा गदादे",
          "सिद्धेश्वर मुरलीधर गदादे",
          "नंदकुमार  लक्ष्मण  गदादे",
          "महादेव बाबू गदादे",
          "सुरेश रंगनाथ गदादे",
          "दत्तात्रय  बाळू  गदादे",
          "बाळू विठ्ठल गदादे",
          "भिमा  सावळा  गदादे",
          "बाळू विठ्ठल गदादे",
          "नंदकुमार  लक्ष्मण  गदादे",
          "गणेश  लक्ष्मण  गदादे",
          "आरोही संतोष गदादे अ . पा . क .  वनिता संतोष गदादे, कमल रंगनाथ गदादे, रोहन संतोष गदादे अ . पा . क .  वनिता संतोष गदादे, वनिता संतोष गदादे",
          "सिद्धेश्वर मुरलीधर गदादे",
          "नितिन  महादेव  गदादे",
          "संभाजी \t रामा गदादे",
          "झुंबर \t रामा  गदादे",
          "गणेश   भिमराव  गदादे",
          "बाळू विठ्ठल गदादे",
          "भिमा  सावळा  गदादे",
          "बाळू विठ्ठल गदादे",
          "भिमा  सावळा  गदादे",
          "झुंबर \t रामा  गदादे",
          "संभाजी \t रामा गदादे",
          "वनिता संतोष गदादे, आरोही संतोष गदादे अ . पा . क .  वनिता संतोष गदादे, कमल रंगनाथ गदादे, रोहन संतोष गदादे अ . पा . क .  वनिता संतोष गदादे",
          "सुरेश रंगनाथ गदादे",
          "सिद्धेश्वर मुरलीधर गदादे",
          "महादेव बाबू गदादे",
          "बाळू विठ्ठल गदादे",
          "हरिभाऊ  सावळा  गदादे",
          "भिमा  सावळा  गदादे",
          "झुंबर \t रामा  गदादे",
          "संभाजी \t रामा गदादे",
          "पंढरीनाथ सावळा गदादे",
          "दत्तात्रय  बाळू  गदादे",
          "महादेव बाबू गदादे",
          "सिद्धेश्वर मुरलीधर गदादे",
          "झुंबर \t रामा  गदादे",
          "संभाजी रामा गदादे",
          "वनिता संतोष गदादे, आरोही संतोष गदादे अ . पा . क .  वनिता संतोष गदादे, कमल रंगनाथ गदादे, रोहन संतोष गदादे अ . पा . क .  वनिता संतोष गदादे"
        ],
        "khata_no": "2545, 2563, 2559, 2563, 2560, 2367, 2561, 530, 2556, 2559, 523, 2368, 2546, 2419, 2562, 2419, 2559, 2563, 2367, 2556, 2576, 2943, 2565, 2545, 2419, 2562, 2419, 2562, 2565, 2943, 2367, 2368, 2556, 523, 2419, 2561, 2562, 2565, 2943, 530, 2546, 523, 2556, 2565, 2564, 2367",
        "area_sqm": 129523.35,
        "area_acres": 32.01,
        "area_guntha": 1280.25,
        "land_type": "जिरायत शेती (Jirayat - Rainfed Agricultural)",
        "source": "MahaBhuNaksha Official Live Cadastre",
        "status": "verified",
        "confidence_score": 98.8,
        "old_survey_area_acres": 32.01,
        "old_survey_area_sqm": 129523.35,
        "new_survey_area_acres": 32.01,
        "new_survey_area_sqm": 129523.35
      },
      "geometry": {
        "type": "Polygon",
        "coordinates": [
          [
            [
              74.9868238,
              18.5038364
            ],
            [
              74.9868267,
              18.5033503
            ],
            [
              74.986804,
              18.5017283
            ],
            [
              74.9867962,
              18.5014437
            ],
            [
              74.9867886,
              18.5006341
            ],
            [
              74.9867798,
              18.5003374
            ],
            [
              74.9865513,
              18.5001889
            ],
            [
              74.9862505,
              18.4999603
            ],
            [
              74.9861327,
              18.4999125
            ],
            [
              74.9850414,
              18.4997143
            ],
            [
              74.9851623,
              18.5006705
            ],
            [
              74.9853978,
              18.5026561
            ],
            [
              74.9854987,
              18.5036319
            ],
            [
              74.9852804,
              18.5042835
            ],
            [
              74.9851155,
              18.5043918
            ],
            [
              74.9848182,
              18.5048752
            ],
            [
              74.9849991,
              18.5065105
            ],
            [
              74.9851425,
              18.5078195
            ],
            [
              74.9851564,
              18.5079461
            ],
            [
              74.9862672,
              18.5081508
            ],
            [
              74.9862674,
              18.5080026
            ],
            [
              74.9862697,
              18.5066593
            ],
            [
              74.9862879,
              18.5050947
            ],
            [
              74.9862887,
              18.5037205
            ],
            [
              74.9868238,
              18.5038364
            ]
          ]
        ]
      }
    }
  ]
}