{
  "type": "FeatureCollection",
  "name": "Benwadi_Gat_218_Cadastre",
  "crs": {
    "type": "name",
    "properties": {
      "name": "urn:ogc:def:crs:OGC:1.3:CRS84"
    }
  },
  "features": [
    {
      "type": "Feature",
      "properties": {
        "parcel_id": "MH-AHM-KAR-BEN-218",
        "survey_no": "218",
        "gat_no": "218",
        "village": "Benwadi (बेनवडी)",
        "taluka": "Karjat (कर्जत)",
        "district": "Ahmednagar (अहमदनगर)",
        "state": "Maharashtra",
        "gis_code": "RVM2613272600130334420000",
        "owner_name": "गूरूदास ज्ञानदेव देशमूख, रुपाली आप्पासाहेब धुमाळ",
        "all_owners": [
          "गूरूदास ज्ञानदेव देशमूख",
          "रुपाली आप्पासाहेब धुमाळ",
          "सुनिता पोपट धुमाळ",
          "शिवाजी नारायण देशमूख"
        ],
        "khata_no": "2793, 3057, 3058, 657",
        "area_sqm": 8985.03,
        "area_acres": 2.22,
        "area_guntha": 88.81,
        "land_type": "जिरायत शेती (Jirayat - Rainfed Agricultural)",
        "source": "MahaBhuNaksha Official Live Cadastre",
        "status": "verified",
        "confidence_score": 98.8,
        "old_survey_area_acres": 2.22,
        "old_survey_area_sqm": 8985.03,
        "new_survey_area_acres": 2.22,
        "new_survey_area_sqm": 8985.03
      },
      "geometry": {
        "type": "Polygon",
        "coordinates": [
          [
            [
              74.9565722,
              18.4880594
            ],
            [
              74.956341,
              18.4874844
            ],
            [
              74.956154,
              18.4870023
            ],
            [
              74.9556441,
              18.4872047
            ],
            [
              74.9557852,
              18.4883246
            ],
            [
              74.9565722,
              18.4880594
            ]
          ]
        ]
      }
    }
  ]
}