{
  "type": "FeatureCollection",
  "name": "Benwadi_Gat_532_Cadastre",
  "crs": {
    "type": "name",
    "properties": {
      "name": "urn:ogc:def:crs:OGC:1.3:CRS84"
    }
  },
  "features": [
    {
      "type": "Feature",
      "properties": {
        "parcel_id": "MH-AHM-KAR-BEN-532",
        "survey_no": "532",
        "gat_no": "532",
        "village": "Benwadi (बेनवडी)",
        "taluka": "Karjat (कर्जत)",
        "district": "Ahmednagar (अहमदनगर)",
        "state": "Maharashtra",
        "gis_code": "RVM2613272600130334420000",
        "owner_name": "रूपाली शरद शहा",
        "all_owners": [
          "रूपाली शरद शहा"
        ],
        "khata_no": "608",
        "area_sqm": 14032.74,
        "area_acres": 3.47,
        "area_guntha": 138.7,
        "land_type": "जिरायत शेती (Jirayat - Rainfed Agricultural)",
        "source": "MahaBhuNaksha Official Live Cadastre",
        "status": "verified",
        "confidence_score": 98.8,
        "old_survey_area_acres": 3.47,
        "old_survey_area_sqm": 14032.74,
        "new_survey_area_acres": 3.47,
        "new_survey_area_sqm": 14032.74
      },
      "geometry": {
        "type": "Polygon",
        "coordinates": [
          [
            [
              74.9806351,
              18.4958605
            ],
            [
              74.9804547,
              18.4950051
            ],
            [
              74.9799456,
              18.4951038
            ],
            [
              74.9793676,
              18.495233
            ],
            [
              74.9791956,
              18.4952639
            ],
            [
              74.9793304,
              18.4962063
            ],
            [
              74.9806351,
              18.4958605
            ]
          ]
        ]
      }
    }
  ]
}