{
  "type": "FeatureCollection",
  "name": "Benwadi_Gat_265_Cadastre",
  "crs": {
    "type": "name",
    "properties": {
      "name": "urn:ogc:def:crs:OGC:1.3:CRS84"
    }
  },
  "features": [
    {
      "type": "Feature",
      "properties": {
        "parcel_id": "MH-AHM-KAR-BEN-265",
        "survey_no": "265",
        "gat_no": "265",
        "village": "Benwadi (बेनवडी)",
        "taluka": "Karjat (कर्जत)",
        "district": "Ahmednagar (अहमदनगर)",
        "state": "Maharashtra",
        "gis_code": "RVM2613272600130334420000",
        "owner_name": "बापु लहु गदांदे, संतोष लहु गदांदे",
        "all_owners": [
          "बापु लहु गदांदे",
          "संतोष लहु गदांदे",
          "दत्तात्रय बबन गदांदे",
          "विष्णु बबन गदादे"
        ],
        "khata_no": "2341, 2342, 2344, 3491",
        "area_sqm": 4532.08,
        "area_acres": 1.12,
        "area_guntha": 44.8,
        "land_type": "जिरायत शेती (Jirayat - Rainfed Agricultural)",
        "source": "MahaBhuNaksha Official Live Cadastre",
        "status": "verified",
        "confidence_score": 98.8,
        "old_survey_area_acres": 1.12,
        "old_survey_area_sqm": 4532.08,
        "new_survey_area_acres": 1.12,
        "new_survey_area_sqm": 4532.08
      },
      "geometry": {
        "type": "Polygon",
        "coordinates": [
          [
            [
              74.9670192,
              18.4923011
            ],
            [
              74.9669606,
              18.4921869
            ],
            [
              74.9654048,
              18.4927537
            ],
            [
              74.9638954,
              18.4930081
            ],
            [
              74.9639268,
              18.4931354
            ],
            [
              74.9646088,
              18.4930111
            ],
            [
              74.9654315,
              18.4928655
            ],
            [
              74.9670192,
              18.4923011
            ]
          ]
        ]
      }
    }
  ]
}