{
  "type": "FeatureCollection",
  "name": "Benwadi_Gat_19_Cadastre",
  "crs": {
    "type": "name",
    "properties": {
      "name": "urn:ogc:def:crs:OGC:1.3:CRS84"
    }
  },
  "features": [
    {
      "type": "Feature",
      "properties": {
        "parcel_id": "MH-AHM-KAR-BEN-19",
        "survey_no": "19",
        "gat_no": "19",
        "village": "Benwadi (बेनवडी)",
        "taluka": "Karjat (कर्जत)",
        "district": "Ahmednagar (अहमदनगर)",
        "state": "Maharashtra",
        "gis_code": "RVM2613272600130334420000",
        "owner_name": "वैशाली गोकूळ गायकवाड, मनिषा शिवाजी सागडे",
        "all_owners": [
          "वैशाली गोकूळ गायकवाड",
          "मनिषा शिवाजी सागडे",
          "सूरेश भिमा बिबे",
          "तूकाराम भिमा बिबे",
          "विष्णू भिमा बिबे",
          "मनीषा शिवाजी सागडे, ऋषिकेश शिवाजी सागडे, मृणाल वासुदेव होले"
        ],
        "khata_no": "104, 2264, 353, 398, 399, 403",
        "area_sqm": 32684.6,
        "area_acres": 8.08,
        "area_guntha": 323.07,
        "land_type": "जिरायत शेती (Jirayat - Rainfed Agricultural)",
        "source": "MahaBhuNaksha Official Live Cadastre",
        "status": "verified",
        "confidence_score": 98.8,
        "old_survey_area_acres": 8.08,
        "old_survey_area_sqm": 32684.6,
        "new_survey_area_acres": 8.08,
        "new_survey_area_sqm": 32684.6
      },
      "geometry": {
        "type": "Polygon",
        "coordinates": [
          [
            [
              74.9863883,
              18.4908082
            ],
            [
              74.9864915,
              18.4904328
            ],
            [
              74.9868331,
              18.4891873
            ],
            [
              74.9865974,
              18.4892431
            ],
            [
              74.9856438,
              18.4895236
            ],
            [
              74.9845663,
              18.4898197
            ],
            [
              74.9844593,
              18.4898309
            ],
            [
              74.9845785,
              18.4903777
            ],
            [
              74.9846951,
              18.4909031
            ],
            [
              74.9854804,
              18.4908838
            ],
            [
              74.9859086,
              18.4910612
            ],
            [
              74.9863883,
              18.4908082
            ]
          ]
        ]
      }
    }
  ]
}