{
  "type": "FeatureCollection",
  "name": "Benwadi_Gat_59_Cadastre",
  "crs": {
    "type": "name",
    "properties": {
      "name": "urn:ogc:def:crs:OGC:1.3:CRS84"
    }
  },
  "features": [
    {
      "type": "Feature",
      "properties": {
        "parcel_id": "MH-AHM-KAR-BEN-59",
        "survey_no": "59",
        "gat_no": "59",
        "village": "Benwadi (बेनवडी)",
        "taluka": "Karjat (कर्जत)",
        "district": "Ahmednagar (अहमदनगर)",
        "state": "Maharashtra",
        "gis_code": "RVM2613272600130334420000",
        "owner_name": "नाना बबन धुमाळ, बबन बापू धूमाळ",
        "all_owners": [
          "नाना बबन धुमाळ",
          "बबन बापू धूमाळ"
        ],
        "khata_no": "3172, 382",
        "area_sqm": 32024.39,
        "area_acres": 7.91,
        "area_guntha": 316.54,
        "land_type": "जिरायत शेती (Jirayat - Rainfed Agricultural)",
        "source": "MahaBhuNaksha Official Live Cadastre",
        "status": "verified",
        "confidence_score": 98.8,
        "old_survey_area_acres": 7.91,
        "old_survey_area_sqm": 32024.39,
        "new_survey_area_acres": 7.91,
        "new_survey_area_sqm": 32024.39
      },
      "geometry": {
        "type": "Polygon",
        "coordinates": [
          [
            [
              74.9710151,
              18.4902555
            ],
            [
              74.9710117,
              18.4902039
            ],
            [
              74.9709645,
              18.4893508
            ],
            [
              74.9708976,
              18.4883992
            ],
            [
              74.9693395,
              18.4885482
            ],
            [
              74.969555,
              18.4897926
            ],
            [
              74.9701361,
              18.4905554
            ],
            [
              74.9710151,
              18.4902555
            ]
          ]
        ]
      }
    }
  ]
}