{
  "type": "FeatureCollection",
  "name": "Benwadi_Gat_192_Cadastre",
  "crs": {
    "type": "name",
    "properties": {
      "name": "urn:ogc:def:crs:OGC:1.3:CRS84"
    }
  },
  "features": [
    {
      "type": "Feature",
      "properties": {
        "parcel_id": "MH-AHM-KAR-BEN-192",
        "survey_no": "192",
        "gat_no": "192",
        "village": "Benwadi (बेनवडी)",
        "taluka": "Karjat (कर्जत)",
        "district": "Ahmednagar (अहमदनगर)",
        "state": "Maharashtra",
        "gis_code": "RVM2613272600130334420000",
        "owner_name": "निलेश नवनाथ गदादे, चि. सुजित नवनाथ गदादे वय वर्ष - 16 अ.पा.क. वडील - नवनाथ बापूराव गदादे",
        "all_owners": [
          "निलेश नवनाथ गदादे",
          "चि. सुजित नवनाथ गदादे वय वर्ष - 16 अ.पा.क. वडील - नवनाथ बापूराव गदादे"
        ],
        "khata_no": "3244, 3245",
        "area_sqm": 5155.31,
        "area_acres": 1.27,
        "area_guntha": 50.96,
        "land_type": "जिरायत शेती (Jirayat - Rainfed Agricultural)",
        "source": "MahaBhuNaksha Official Live Cadastre",
        "status": "verified",
        "confidence_score": 98.8,
        "old_survey_area_acres": 1.27,
        "old_survey_area_sqm": 5155.31,
        "new_survey_area_acres": 1.27,
        "new_survey_area_sqm": 5155.31
      },
      "geometry": {
        "type": "Polygon",
        "coordinates": [
          [
            [
              74.9604172,
              18.4812094
            ],
            [
              74.9601989,
              18.4809289
            ],
            [
              74.959673,
              18.4803671
            ],
            [
              74.9593248,
              18.4799924
            ],
            [
              74.9587511,
              18.4795298
            ],
            [
              74.9589403,
              18.4797848
            ],
            [
              74.9597413,
              18.4807537
            ],
            [
              74.9598278,
              18.4809126
            ],
            [
              74.9601418,
              18.4813857
            ],
            [
              74.9604172,
              18.4812094
            ]
          ]
        ]
      }
    }
  ]
}