{
  "type": "FeatureCollection",
  "name": "Benwadi_Gat_307_Drone_Resurvey",
  "crs": {
    "type": "name",
    "properties": {
      "name": "urn:ogc:def:crs:OGC:1.3:CRS84"
    }
  },
  "features": [
    {
      "type": "Feature",
      "properties": {
        "parcel_id": "MH-AHM-KAR-BEN-307",
        "survey_no": "307",
        "gat_no": "307",
        "village": "Benwadi (बेनवडी)",
        "taluka": "Karjat (कर्जत)",
        "district": "Ahmednagar (अहमदनगर)",
        "state": "Maharashtra",
        "gis_code": "RVM2613272600130334420000",
        "owner_name": "उत्तम साहेबराव गदादे",
        "all_owners": [
          "उत्तम साहेबराव गदादे"
        ],
        "khata_no": "3468",
        "area_sqm": 4467.64,
        "area_acres": 1.1,
        "area_guntha": 44.16,
        "land_type": "जिरायत शेती (Jirayat - Rainfed Agricultural)",
        "source": "MahaBhuNaksha Official Live Cadastre",
        "status": "needs_review",
        "confidence_score": 85.5,
        "old_survey_area_acres": 1.1,
        "old_survey_area_sqm": 4467.64,
        "new_survey_area_acres": 1.12,
        "new_survey_area_sqm": 4561.5,
        "area_diff_pct": 2.1,
        "mean_shift_m": 1.4,
        "iou_overlap_pct": 93.9,
        "review_reason": "Drone RTK photogrammetry detects a 2.1% area discrepancy (94 m²) with a mean bund shift of 1.4m along the farm boundary. Verification recommended.",
        "bhunaksha_geometry": {
          "type": "Polygon",
          "coordinates": [
            [
              [
                74.9825524,
                18.4959059
              ],
              [
                74.9825397,
                18.4958289
              ],
              [
                74.9825235,
                18.4957035
              ],
              [
                74.9825036,
                18.495567
              ],
              [
                74.9824798,
                18.4954137
              ],
              [
                74.9824358,
                18.495152
              ],
              [
                74.9822108,
                18.4951858
              ],
              [
                74.9822853,
                18.4955823
              ],
              [
                74.9823816,
                18.4961078
              ],
              [
                74.9824023,
                18.4962248
              ],
              [
                74.9824527,
                18.496566
              ],
              [
                74.9825158,
                18.4969318
              ],
              [
                74.9827333,
                18.4970167
              ],
              [
                74.9826258,
                18.4963529
              ],
              [
                74.9825897,
                18.4961199
              ],
              [
                74.9825524,
                18.4959059
              ]
            ]
          ]
        }
      },
      "geometry": {
        "type": "Polygon",
        "coordinates": [
          [
            [
              74.9825633,
              18.4959133
            ],
            [
              74.9825505,
              18.4958354
            ],
            [
              74.9825341,
              18.4957087
            ],
            [
              74.982514,
              18.4955708
            ],
            [
              74.98249,
              18.4954159
            ],
            [
              74.9824455,
              18.4951515
            ],
            [
              74.9822181,
              18.4951856
            ],
            [
              74.9822934,
              18.4955863
            ],
            [
              74.9823907,
              18.4961173
            ],
            [
              74.9824116,
              18.4962355
            ],
            [
              74.9824626,
              18.4965802
            ],
            [
              74.9825263,
              18.4969499
            ],
            [
              74.9827461,
              18.4970357
            ],
            [
              74.9826375,
              18.4963649
            ],
            [
              74.982601,
              18.4961295
            ],
            [
              74.9825633,
              18.4959133
            ]
          ]
        ]
      }
    }
  ]
}