{
  "type": "FeatureCollection",
  "name": "Benwadi_Gat_367_Cadastre",
  "crs": {
    "type": "name",
    "properties": {
      "name": "urn:ogc:def:crs:OGC:1.3:CRS84"
    }
  },
  "features": [
    {
      "type": "Feature",
      "properties": {
        "parcel_id": "MH-AHM-KAR-BEN-367",
        "survey_no": "367",
        "gat_no": "367",
        "village": "Benwadi (बेनवडी)",
        "taluka": "Karjat (कर्जत)",
        "district": "Ahmednagar (अहमदनगर)",
        "state": "Maharashtra",
        "gis_code": "RVM2613272600130334420000",
        "owner_name": "आजिनाथ दिगांबर गदादे",
        "all_owners": [
          "आजिनाथ दिगांबर गदादे"
        ],
        "khata_no": "689",
        "area_sqm": 2449.08,
        "area_acres": 0.61,
        "area_guntha": 24.21,
        "land_type": "जिरायत शेती (Jirayat - Rainfed Agricultural)",
        "source": "MahaBhuNaksha Official Live Cadastre",
        "status": "verified",
        "confidence_score": 98.8,
        "old_survey_area_acres": 0.61,
        "old_survey_area_sqm": 2449.08,
        "new_survey_area_acres": 0.61,
        "new_survey_area_sqm": 2449.08
      },
      "geometry": {
        "type": "Polygon",
        "coordinates": [
          [
            [
              74.9785564,
              18.4997563
            ],
            [
              74.9783263,
              18.499068
            ],
            [
              74.9780744,
              18.499103
            ],
            [
              74.9782265,
              18.4998027
            ],
            [
              74.9785564,
              18.4997563
            ]
          ]
        ]
      }
    }
  ]
}