{
  "type": "FeatureCollection",
  "name": "Benwadi_Gat_228_Cadastre",
  "crs": {
    "type": "name",
    "properties": {
      "name": "urn:ogc:def:crs:OGC:1.3:CRS84"
    }
  },
  "features": [
    {
      "type": "Feature",
      "properties": {
        "parcel_id": "MH-AHM-KAR-BEN-228",
        "survey_no": "228",
        "gat_no": "228",
        "village": "Benwadi (बेनवडी)",
        "taluka": "Karjat (कर्जत)",
        "district": "Ahmednagar (अहमदनगर)",
        "state": "Maharashtra",
        "gis_code": "RVM2613272600130334420000",
        "owner_name": "आण्णासाहेब भाऊसाहेब देशमुख अ पा क भाऊसाहेब, सचिन विठ्ठल देशमुख",
        "all_owners": [
          "आण्णासाहेब भाऊसाहेब देशमुख अ पा क भाऊसाहेब",
          "सचिन विठ्ठल देशमुख"
        ],
        "khata_no": "2495, 768",
        "area_sqm": 9573.63,
        "area_acres": 2.37,
        "area_guntha": 94.63,
        "land_type": "जिरायत शेती (Jirayat - Rainfed Agricultural)",
        "source": "MahaBhuNaksha Official Live Cadastre",
        "status": "verified",
        "confidence_score": 98.8,
        "old_survey_area_acres": 2.37,
        "old_survey_area_sqm": 9573.63,
        "new_survey_area_acres": 2.37,
        "new_survey_area_sqm": 9573.63
      },
      "geometry": {
        "type": "Polygon",
        "coordinates": [
          [
            [
              74.9628964,
              18.4861818
            ],
            [
              74.9625826,
              18.4856962
            ],
            [
              74.9612034,
              18.4862231
            ],
            [
              74.9614049,
              18.4866933
            ],
            [
              74.9628964,
              18.4861818
            ]
          ]
        ]
      }
    }
  ]
}