{
  "type": "FeatureCollection",
  "name": "Benwadi_Gat_271_Cadastre",
  "crs": {
    "type": "name",
    "properties": {
      "name": "urn:ogc:def:crs:OGC:1.3:CRS84"
    }
  },
  "features": [
    {
      "type": "Feature",
      "properties": {
        "parcel_id": "MH-AHM-KAR-BEN-271",
        "survey_no": "271",
        "gat_no": "271",
        "village": "Benwadi (बेनवडी)",
        "taluka": "Karjat (कर्जत)",
        "district": "Ahmednagar (अहमदनगर)",
        "state": "Maharashtra",
        "gis_code": "RVM2613272600130334420000",
        "owner_name": "सहदेव निवृत्ती धुमाळ, महादेव निवृत्ती धुमाळ, बाळु विठ्ठल धुमाळ",
        "all_owners": [
          "सहदेव निवृत्ती धुमाळ, महादेव निवृत्ती धुमाळ",
          "बाळु विठ्ठल धुमाळ",
          "नारायण तुकाराम धूमाळ",
          "दादा विठ्ठल  धुमाळ",
          "आनंद नवनाथ धुमाळ",
          "ज्ञानदेव मोहन धुमाळ",
          "विमल हरिभाऊ धुमाळ, संतोष हरिभाऊ धुमाळ, नारायण हरिभाऊ धुमाळ, मनीषा सतीश नवले",
          "साईनाथ विठठल धुमाळ",
          "नवनाथ विठठल धूमाळ",
          "आजीनाथ दत्तू धुमाळ, गंगूबाई दत्तू धुमाळ, सतिश दत्तू धुमाळ"
        ],
        "khata_no": "132, 2388, 2430, 2633, 3300, 3301, 368, 864, 866, 92",
        "area_sqm": 13495.2,
        "area_acres": 3.33,
        "area_guntha": 133.39,
        "land_type": "जिरायत शेती (Jirayat - Rainfed Agricultural)",
        "source": "MahaBhuNaksha Official Live Cadastre",
        "status": "verified",
        "confidence_score": 98.8,
        "old_survey_area_acres": 3.33,
        "old_survey_area_sqm": 13495.2,
        "new_survey_area_acres": 3.33,
        "new_survey_area_sqm": 13495.2
      },
      "geometry": {
        "type": "Polygon",
        "coordinates": [
          [
            [
              74.9674296,
              18.4967133
            ],
            [
              74.9672952,
              18.4960526
            ],
            [
              74.9670896,
              18.4950428
            ],
            [
              74.966391,
              18.4952529
            ],
            [
              74.9668596,
              18.4969442
            ],
            [
              74.9674296,
              18.4967133
            ]
          ]
        ]
      }
    }
  ]
}