{
  "type": "FeatureCollection",
  "name": "Benwadi_Gat_73_Cadastre",
  "crs": {
    "type": "name",
    "properties": {
      "name": "urn:ogc:def:crs:OGC:1.3:CRS84"
    }
  },
  "features": [
    {
      "type": "Feature",
      "properties": {
        "parcel_id": "MH-AHM-KAR-BEN-73",
        "survey_no": "73",
        "gat_no": "73",
        "village": "Benwadi (बेनवडी)",
        "taluka": "Karjat (कर्जत)",
        "district": "Ahmednagar (अहमदनगर)",
        "state": "Maharashtra",
        "gis_code": "RVM2613272600130334420000",
        "owner_name": "नाना दादा खुडे, मीराबाई दादा खुडे, लाला दादा खुडे, मधुकर दादा खुडे",
        "all_owners": [
          "नाना दादा खुडे, मीराबाई दादा खुडे, लाला दादा खुडे, मधुकर दादा खुडे"
        ],
        "khata_no": "102",
        "area_sqm": 871.86,
        "area_acres": 0.22,
        "area_guntha": 8.62,
        "land_type": "जिरायत शेती (Jirayat - Rainfed Agricultural)",
        "source": "MahaBhuNaksha Official Live Cadastre",
        "status": "verified",
        "confidence_score": 98.8,
        "old_survey_area_acres": 0.22,
        "old_survey_area_sqm": 871.86,
        "new_survey_area_acres": 0.22,
        "new_survey_area_sqm": 871.86
      },
      "geometry": {
        "type": "Polygon",
        "coordinates": [
          [
            [
              74.9771695,
              18.489347
            ],
            [
              74.9771272,
              18.4891741
            ],
            [
              74.9767182,
              18.4893667
            ],
            [
              74.9767444,
              18.4894548
            ],
            [
              74.9767622,
              18.4895213
            ],
            [
              74.9771695,
              18.489347
            ]
          ]
        ]
      }
    }
  ]
}