{
  "type": "FeatureCollection",
  "name": "Benwadi_Gat_428_Drone_Resurvey",
  "crs": {
    "type": "name",
    "properties": {
      "name": "urn:ogc:def:crs:OGC:1.3:CRS84"
    }
  },
  "features": [
    {
      "type": "Feature",
      "properties": {
        "parcel_id": "MH-AHM-KAR-BEN-428",
        "survey_no": "428",
        "gat_no": "428",
        "village": "Benwadi (बेनवडी)",
        "taluka": "Karjat (कर्जत)",
        "district": "Ahmednagar (अहमदनगर)",
        "state": "Maharashtra",
        "gis_code": "RVM2613272600130334420000",
        "owner_name": "रघुनाथ दिगांबर अनारसे, ज्ञानेश्वर लहु दवणे",
        "all_owners": [
          "रघुनाथ दिगांबर अनारसे",
          "ज्ञानेश्वर लहु दवणे",
          "मनिषा जयंतीलाल शहा",
          "कमल रंगनाथ गदादे, वनिता संतोष गदादे, आरोही संतोष गदादे अ . पा . क .  वनिता संतोष गदादे, रोहन संतोष गदादे अ . पा . क .  वनिता संतोष गदादे",
          "सचिन  महादेव \t गदादे",
          "सूनिता मूरलीधर गदादे",
          "सचीन सूखदेव गदादे",
          "अंजनाबाई लक्ष्मण गदादे",
          "मारूती तुळशिराम गदादे",
          "सूभाष गोविंद गदादे",
          "उषा गोरख गदादे",
          "सत्यवान मच्छिंद्र दवणे",
          "सुवर्णा रघुनाथ अनारसे",
          "रंजना मच्छिंद्र दवणे"
        ],
        "khata_no": "1029, 1039, 215, 2367, 2578, 2637, 2722, 2772, 2829, 2832, 3188, 3428, 3482, 980",
        "area_sqm": 35045.82,
        "area_acres": 8.66,
        "area_guntha": 346.41,
        "land_type": "जिरायत शेती (Jirayat - Rainfed Agricultural)",
        "source": "MahaBhuNaksha Official Live Cadastre",
        "status": "needs_review",
        "confidence_score": 84.4,
        "old_survey_area_acres": 8.66,
        "old_survey_area_sqm": 35045.82,
        "new_survey_area_acres": 8.92,
        "new_survey_area_sqm": 36097.2,
        "area_diff_pct": 3.0,
        "mean_shift_m": 2.1,
        "iou_overlap_pct": 93.0,
        "review_reason": "Drone RTK photogrammetry detects a 3.0% area discrepancy (1051 m²) with a mean bund shift of 2.1m along the farm boundary. Verification recommended.",
        "bhunaksha_geometry": {
          "type": "Polygon",
          "coordinates": [
            [
              [
                74.9941484,
                18.4914797
              ],
              [
                74.9949324,
                18.4911723
              ],
              [
                74.9951616,
                18.491072
              ],
              [
                74.9946879,
                18.489335
              ],
              [
                74.9931925,
                18.490033
              ],
              [
                74.9933334,
                18.4908305
              ],
              [
                74.9934764,
                18.4917431
              ],
              [
                74.9941484,
                18.4914797
              ]
            ]
          ]
        }
      },
      "geometry": {
        "type": "Polygon",
        "coordinates": [
          [
            [
              74.9941685,
              18.4914907
            ],
            [
              74.9949642,
              18.4911787
            ],
            [
              74.9951968,
              18.4910769
            ],
            [
              74.9947161,
              18.489314
            ],
            [
              74.9931984,
              18.4900224
            ],
            [
              74.9933414,
              18.4908318
            ],
            [
              74.9934865,
              18.491758
            ],
            [
              74.9941685,
              18.4914907
            ]
          ]
        ]
      }
    }
  ]
}