{
  "type": "FeatureCollection",
  "name": "Benwadi_Gat_426_Cadastre",
  "crs": {
    "type": "name",
    "properties": {
      "name": "urn:ogc:def:crs:OGC:1.3:CRS84"
    }
  },
  "features": [
    {
      "type": "Feature",
      "properties": {
        "parcel_id": "MH-AHM-KAR-BEN-426",
        "survey_no": "426",
        "gat_no": "426",
        "village": "Benwadi (बेनवडी)",
        "taluka": "Karjat (कर्जत)",
        "district": "Ahmednagar (अहमदनगर)",
        "state": "Maharashtra",
        "gis_code": "RVM2613272600130334420000",
        "owner_name": "आरोही संतोष गदादे अ . पा . क .  वनिता संतोष गदादे, कमल रंगनाथ गदादे, रोहन संतोष गदादे अ . पा . क .  वनिता संतोष गदादे, वनिता संतोष गदादे, सचिन  महादेव \t गदादे",
        "all_owners": [
          "आरोही संतोष गदादे अ . पा . क .  वनिता संतोष गदादे, कमल रंगनाथ गदादे, रोहन संतोष गदादे अ . पा . क .  वनिता संतोष गदादे, वनिता संतोष गदादे",
          "सचिन  महादेव \t गदादे",
          "सूनिता मूरलीधर गदादे",
          "सचीन सूखदेव गदादे",
          "अंजनाबाई लक्ष्मण गदादे",
          "गोदावारी किसन गदादे",
          "मारूती तुळशिराम गदादे",
          "अ पा क वडील महादे - - -",
          "सूभाष गोविंद गदादे",
          "जयंतीलाल मणीलाल शहा"
        ],
        "khata_no": "2367, 2578, 2637, 2722, 2772, 2773, 2829, 2830, 2832, 71",
        "area_sqm": 33079.0,
        "area_acres": 8.17,
        "area_guntha": 326.96,
        "land_type": "जिरायत शेती (Jirayat - Rainfed Agricultural)",
        "source": "MahaBhuNaksha Official Live Cadastre",
        "status": "verified",
        "confidence_score": 98.8,
        "old_survey_area_acres": 8.17,
        "old_survey_area_sqm": 33079.0,
        "new_survey_area_acres": 8.17,
        "new_survey_area_sqm": 33079.0
      },
      "geometry": {
        "type": "Polygon",
        "coordinates": [
          [
            [
              74.9946879,
              18.489335
            ],
            [
              74.9944412,
              18.4884111
            ],
            [
              74.9943873,
              18.4881452
            ],
            [
              74.9942154,
              18.4874226
            ],
            [
              74.9941678,
              18.4873505
            ],
            [
              74.9931482,
              18.4882039
            ],
            [
              74.9929487,
              18.4883889
            ],
            [
              74.9929543,
              18.4885469
            ],
            [
              74.9931925,
              18.490033
            ],
            [
              74.9946879,
              18.489335
            ]
          ]
        ]
      }
    }
  ]
}