{
  "type": "FeatureCollection",
  "name": "Benwadi_Gat_66_Drone_Resurvey",
  "crs": {
    "type": "name",
    "properties": {
      "name": "urn:ogc:def:crs:OGC:1.3:CRS84"
    }
  },
  "features": [
    {
      "type": "Feature",
      "properties": {
        "parcel_id": "MH-AHM-KAR-BEN-66",
        "survey_no": "66",
        "gat_no": "66",
        "village": "Benwadi (बेनवडी)",
        "taluka": "Karjat (कर्जत)",
        "district": "Ahmednagar (अहमदनगर)",
        "state": "Maharashtra",
        "gis_code": "RVM2613272600130334420000",
        "owner_name": "कलावती बापूराव, देवराव चंदर खुडे",
        "all_owners": [
          "कलावती बापूराव",
          "देवराव चंदर खुडे",
          "निलावती बापूराव भिसे",
          "यमुना साहेबराव दिवटे"
        ],
        "khata_no": "2648, 2649, 2650, 2754",
        "area_sqm": 2448.86,
        "area_acres": 0.61,
        "area_guntha": 24.21,
        "land_type": "जिरायत शेती (Jirayat - Rainfed Agricultural)",
        "source": "MahaBhuNaksha Official Live Cadastre",
        "status": "needs_review",
        "confidence_score": 85.4,
        "old_survey_area_acres": 0.61,
        "old_survey_area_sqm": 2448.86,
        "new_survey_area_acres": 0.62,
        "new_survey_area_sqm": 2502.7,
        "area_diff_pct": 2.2,
        "mean_shift_m": 1.9,
        "iou_overlap_pct": 93.8,
        "review_reason": "Drone RTK photogrammetry detects a 2.2% area discrepancy (54 m²) with a mean bund shift of 1.9m along the farm boundary. Verification recommended.",
        "bhunaksha_geometry": {
          "type": "Polygon",
          "coordinates": [
            [
              [
                74.9760611,
                18.4899756
              ],
              [
                74.9760154,
                18.4898543
              ],
              [
                74.9759468,
                18.4898707
              ],
              [
                74.9757631,
                18.4899164
              ],
              [
                74.9756971,
                18.4897924
              ],
              [
                74.9753337,
                18.4900291
              ],
              [
                74.9753421,
                18.4900335
              ],
              [
                74.9753506,
                18.4900379
              ],
              [
                74.9753591,
                18.490042
              ],
              [
                74.9753677,
                18.490046
              ],
              [
                74.9753764,
                18.4900499
              ],
              [
                74.9753851,
                18.4900536
              ],
              [
                74.9753939,
                18.4900572
              ],
              [
                74.9754028,
                18.4900606
              ],
              [
                74.9754117,
                18.4900639
              ],
              [
                74.9754207,
                18.490067
              ],
              [
                74.9754297,
                18.4900699
              ],
              [
                74.9754388,
                18.4900727
              ],
              [
                74.9754479,
                18.4900753
              ],
              [
                74.9754571,
                18.4900778
              ],
              [
                74.9754663,
                18.4900801
              ],
              [
                74.9754756,
                18.4900822
              ],
              [
                74.9754848,
                18.4900842
              ],
              [
                74.9755014,
                18.4900873
              ],
              [
                74.9755672,
                18.490109
              ],
              [
                74.9756327,
                18.4901318
              ],
              [
                74.9756977,
                18.4901558
              ],
              [
                74.9757623,
                18.4901809
              ],
              [
                74.9758265,
                18.4902071
              ],
              [
                74.9758902,
                18.4902345
              ],
              [
                74.9759534,
                18.4902629
              ],
              [
                74.9760162,
                18.4902924
              ],
              [
                74.9760784,
                18.4903231
              ],
              [
                74.9760912,
                18.4903297
              ],
              [
                74.9761438,
                18.4902065
              ],
              [
                74.9760611,
                18.4899756
              ]
            ]
          ]
        }
      },
      "geometry": {
        "type": "Polygon",
        "coordinates": [
          [
            [
              74.9760636,
              18.4899914
            ],
            [
              74.9760174,
              18.4898687
            ],
            [
              74.9759481,
              18.4898853
            ],
            [
              74.9757624,
              18.4899315
            ],
            [
              74.9756957,
              18.4898062
            ],
            [
              74.9753283,
              18.4900454
            ],
            [
              74.9753368,
              18.4900499
            ],
            [
              74.9753454,
              18.4900543
            ],
            [
              74.975354,
              18.4900585
            ],
            [
              74.9753627,
              18.4900625
            ],
            [
              74.9753714,
              18.4900665
            ],
            [
              74.9753802,
              18.4900702
            ],
            [
              74.9753891,
              18.4900739
            ],
            [
              74.9753981,
              18.4900773
            ],
            [
              74.9754071,
              18.4900806
            ],
            [
              74.9754162,
              18.4900838
            ],
            [
              74.9754253,
              18.4900867
            ],
            [
              74.9754345,
              18.4900895
            ],
            [
              74.9754437,
              18.4900922
            ],
            [
              74.975453,
              18.4900947
            ],
            [
              74.9754623,
              18.490097
            ],
            [
              74.9754717,
              18.4900991
            ],
            [
              74.975481,
              18.4901011
            ],
            [
              74.9754978,
              18.4901043
            ],
            [
              74.9755643,
              18.4901262
            ],
            [
              74.9756306,
              18.4901493
            ],
            [
              74.9756963,
              18.4901735
            ],
            [
              74.9757616,
              18.4901989
            ],
            [
              74.9758265,
              18.4902254
            ],
            [
              74.9758909,
              18.4902531
            ],
            [
              74.9759548,
              18.4902818
            ],
            [
              74.9760182,
              18.4903116
            ],
            [
              74.9760811,
              18.4903427
            ],
            [
              74.9760941,
              18.4903493
            ],
            [
              74.9761472,
              18.4902248
            ],
            [
              74.9760636,
              18.4899914
            ]
          ]
        ]
      }
    }
  ]
}