{
  "type": "FeatureCollection",
  "name": "Benwadi_Gat_518_Cadastre",
  "crs": {
    "type": "name",
    "properties": {
      "name": "urn:ogc:def:crs:OGC:1.3:CRS84"
    }
  },
  "features": [
    {
      "type": "Feature",
      "properties": {
        "parcel_id": "MH-AHM-KAR-BEN-518",
        "survey_no": "518",
        "gat_no": "518",
        "village": "Benwadi (बेनवडी)",
        "taluka": "Karjat (कर्जत)",
        "district": "Ahmednagar (अहमदनगर)",
        "state": "Maharashtra",
        "gis_code": "RVM2613272600130334420000",
        "owner_name": "जान्हवी पांडुरंग गदादे",
        "all_owners": [
          "जान्हवी पांडुरंग गदादे"
        ],
        "khata_no": "3449",
        "area_sqm": 3613.02,
        "area_acres": 0.89,
        "area_guntha": 35.71,
        "land_type": "जिरायत शेती (Jirayat - Rainfed Agricultural)",
        "source": "MahaBhuNaksha Official Live Cadastre",
        "status": "verified",
        "confidence_score": 98.8,
        "old_survey_area_acres": 0.89,
        "old_survey_area_sqm": 3613.02,
        "new_survey_area_acres": 0.89,
        "new_survey_area_sqm": 3613.02
      },
      "geometry": {
        "type": "Polygon",
        "coordinates": [
          [
            [
              74.9832731,
              18.4938302
            ],
            [
              74.983253,
              18.4936907
            ],
            [
              74.9827877,
              18.493736
            ],
            [
              74.9822974,
              18.4937855
            ],
            [
              74.982034,
              18.493811
            ],
            [
              74.9816218,
              18.4938513
            ],
            [
              74.9812402,
              18.4938911
            ],
            [
              74.9812792,
              18.4940553
            ],
            [
              74.981724,
              18.4940038
            ],
            [
              74.9823162,
              18.4939379
            ],
            [
              74.9826011,
              18.4939007
            ],
            [
              74.9828751,
              18.4938735
            ],
            [
              74.9832731,
              18.4938302
            ]
          ]
        ]
      }
    }
  ]
}