{
  "type": "FeatureCollection",
  "name": "Benwadi_Gat_284_Cadastre",
  "crs": {
    "type": "name",
    "properties": {
      "name": "urn:ogc:def:crs:OGC:1.3:CRS84"
    }
  },
  "features": [
    {
      "type": "Feature",
      "properties": {
        "parcel_id": "MH-AHM-KAR-BEN-284",
        "survey_no": "284",
        "gat_no": "284",
        "village": "Benwadi (बेनवडी)",
        "taluka": "Karjat (कर्जत)",
        "district": "Ahmednagar (अहमदनगर)",
        "state": "Maharashtra",
        "gis_code": "RVM2613272600130334420000",
        "owner_name": "हनूमंत काशिनाथ धूमाळ, प्रदीप मोहन धूमाळ",
        "all_owners": [
          "हनूमंत काशिनाथ धूमाळ",
          "प्रदीप मोहन धूमाळ",
          "हनूमंत काशिनाथ धूमाळ",
          "प्रदीप मोहन धूमाळ"
        ],
        "khata_no": "527, 677, 527, 677",
        "area_sqm": 35653.77,
        "area_acres": 8.81,
        "area_guntha": 352.41,
        "land_type": "जिरायत शेती (Jirayat - Rainfed Agricultural)",
        "source": "MahaBhuNaksha Official Live Cadastre",
        "status": "verified",
        "confidence_score": 98.8,
        "old_survey_area_acres": 8.81,
        "old_survey_area_sqm": 35653.77,
        "new_survey_area_acres": 8.81,
        "new_survey_area_sqm": 35653.77
      },
      "geometry": {
        "type": "Polygon",
        "coordinates": [
          [
            [
              74.9666484,
              18.5008778
            ],
            [
              74.9664948,
              18.5004179
            ],
            [
              74.9663706,
              18.5001124
            ],
            [
              74.9660591,
              18.5002485
            ],
            [
              74.9650962,
              18.5006829
            ],
            [
              74.9644116,
              18.5009866
            ],
            [
              74.9644288,
              18.5010583
            ],
            [
              74.962645,
              18.5016589
            ],
            [
              74.9626804,
              18.501722
            ],
            [
              74.9627111,
              18.501767
            ],
            [
              74.9630247,
              18.5022267
            ],
            [
              74.963013,
              18.5023185
            ],
            [
              74.9638713,
              18.5020056
            ],
            [
              74.9650664,
              18.5015539
            ],
            [
              74.9653856,
              18.5014415
            ],
            [
              74.9657643,
              18.5013131
            ],
            [
              74.9665377,
              18.5009398
            ],
            [
              74.9666484,
              18.5008778
            ]
          ]
        ]
      }
    }
  ]
}