{
  "type": "FeatureCollection",
  "name": "Benwadi_Gat_411_Cadastre",
  "crs": {
    "type": "name",
    "properties": {
      "name": "urn:ogc:def:crs:OGC:1.3:CRS84"
    }
  },
  "features": [
    {
      "type": "Feature",
      "properties": {
        "parcel_id": "MH-AHM-KAR-BEN-411",
        "survey_no": "411",
        "gat_no": "411",
        "village": "Benwadi (बेनवडी)",
        "taluka": "Karjat (कर्जत)",
        "district": "Ahmednagar (अहमदनगर)",
        "state": "Maharashtra",
        "gis_code": "RVM2613272600130334420000",
        "owner_name": "नवनाथ ज्ञानदेव काळे, सुरेश बाबू गदादे",
        "all_owners": [
          "नवनाथ ज्ञानदेव काळे",
          "सुरेश बाबू गदादे",
          "चंद्रभान बाबुराव गदादे",
          "अजिनाथ दादा काळे, चांगदेव दादा काळे, बायडाबाई दादा काळे",
          "बबई हरीदास गदादे"
        ],
        "khata_no": "649, 2447, 2718, 659, 872",
        "area_sqm": 15738.02,
        "area_acres": 3.89,
        "area_guntha": 155.56,
        "land_type": "जिरायत शेती (Jirayat - Rainfed Agricultural)",
        "source": "MahaBhuNaksha Official Live Cadastre",
        "status": "verified",
        "confidence_score": 98.8,
        "old_survey_area_acres": 3.89,
        "old_survey_area_sqm": 15738.02,
        "new_survey_area_acres": 3.89,
        "new_survey_area_sqm": 15738.02
      },
      "geometry": {
        "type": "Polygon",
        "coordinates": [
          [
            [
              74.9971906,
              18.4979321
            ],
            [
              74.9968801,
              18.496381
            ],
            [
              74.9966746,
              18.4963736
            ],
            [
              74.9963597,
              18.4963947
            ],
            [
              74.9966969,
              18.4974793
            ],
            [
              74.9956381,
              18.4974107
            ],
            [
              74.9959285,
              18.4981836
            ],
            [
              74.9971906,
              18.4979321
            ]
          ]
        ]
      }
    }
  ]
}