{
  "type": "FeatureCollection",
  "name": "Benwadi_Gat_251_Drone_Resurvey",
  "crs": {
    "type": "name",
    "properties": {
      "name": "urn:ogc:def:crs:OGC:1.3:CRS84"
    }
  },
  "features": [
    {
      "type": "Feature",
      "properties": {
        "parcel_id": "MH-AHM-KAR-BEN-251",
        "survey_no": "251",
        "gat_no": "251",
        "village": "Benwadi (बेनवडी)",
        "taluka": "Karjat (कर्जत)",
        "district": "Ahmednagar (अहमदनगर)",
        "state": "Maharashtra",
        "gis_code": "RVM2613272600130334420000",
        "owner_name": "पांडूरंग तात्याबा फरांडे, सखुबाई बाळू गदादे, माणिक भगवान फरांडे, नवनाथ भगवान फरांडे, विनायक भगवान फरांडे",
        "all_owners": [
          "पांडूरंग तात्याबा फरांडे",
          "सखुबाई बाळू गदादे, माणिक भगवान फरांडे, नवनाथ भगवान फरांडे, विनायक भगवान फरांडे",
          "अशोक पोपट गदादे",
          "पांडुरंग भगवान गदादे",
          "कविता विठ्ठल गदादे",
          "गंगुबाई गणपत फरांडे, दत्तात्रय गणपत फरांडे, बाळू गणपत फरांडे, रविंद्र विठ्ठल फरांडे, रुक्मिणी विठ्ठल फरांडे, किरण विठ्ठल फरांडे",
          "गंगूबाई गणपत फरांडे"
        ],
        "khata_no": "144, 191, 2612, 2613, 2614, 48, 961",
        "area_sqm": 122356.09,
        "area_acres": 30.23,
        "area_guntha": 1209.41,
        "land_type": "जिरायत शेती (Jirayat - Rainfed Agricultural)",
        "source": "MahaBhuNaksha Official Live Cadastre",
        "status": "needs_review",
        "confidence_score": 84.8,
        "old_survey_area_acres": 30.23,
        "old_survey_area_sqm": 122356.09,
        "new_survey_area_acres": 31.05,
        "new_survey_area_sqm": 125659.7,
        "area_diff_pct": 2.7,
        "mean_shift_m": 1.8,
        "iou_overlap_pct": 93.3,
        "review_reason": "Drone RTK photogrammetry detects a 2.7% area discrepancy (3304 m²) with a mean bund shift of 1.8m along the farm boundary. Verification recommended.",
        "bhunaksha_geometry": {
          "type": "Polygon",
          "coordinates": [
            [
              [
                74.9710823,
                18.4918003
              ],
              [
                74.9692457,
                18.4923477
              ],
              [
                74.9677887,
                18.492797
              ],
              [
                74.9678664,
                18.4930096
              ],
              [
                74.9682817,
                18.4939144
              ],
              [
                74.9689366,
                18.4945493
              ],
              [
                74.9690186,
                18.4947435
              ],
              [
                74.9692641,
                18.4952193
              ],
              [
                74.9693523,
                18.4952963
              ],
              [
                74.9696251,
                18.4956459
              ],
              [
                74.9712788,
                18.4948566
              ],
              [
                74.9725724,
                18.4944227
              ],
              [
                74.9724421,
                18.4941879
              ],
              [
                74.9718524,
                18.4931574
              ],
              [
                74.9717199,
                18.4929642
              ],
              [
                74.971601,
                18.4927442
              ],
              [
                74.9715684,
                18.492648
              ],
              [
                74.9712758,
                18.492165
              ],
              [
                74.9711086,
                18.4918575
              ],
              [
                74.9710823,
                18.4918003
              ]
            ]
          ]
        }
      },
      "geometry": {
        "type": "Polygon",
        "coordinates": [
          [
            [
              74.9710991,
              18.4917612
            ],
            [
              74.9692378,
              18.4923159
            ],
            [
              74.9677613,
              18.4927713
            ],
            [
              74.96784,
              18.4929867
            ],
            [
              74.9682609,
              18.4939037
            ],
            [
              74.9689246,
              18.4945471
            ],
            [
              74.9690077,
              18.4947439
            ],
            [
              74.9692565,
              18.4952261
            ],
            [
              74.9693459,
              18.4953041
            ],
            [
              74.9696223,
              18.4956584
            ],
            [
              74.9712982,
              18.4948585
            ],
            [
              74.9726091,
              18.4944188
            ],
            [
              74.9724771,
              18.4941808
            ],
            [
              74.9718795,
              18.4931365
            ],
            [
              74.9717452,
              18.4929407
            ],
            [
              74.9716247,
              18.4927178
            ],
            [
              74.9715917,
              18.4926203
            ],
            [
              74.9712952,
              18.4921308
            ],
            [
              74.9711257,
              18.4918192
            ],
            [
              74.9710991,
              18.4917612
            ]
          ]
        ]
      }
    }
  ]
}