{
  "type": "FeatureCollection",
  "name": "Benwadi_Gat_190_Drone_Resurvey",
  "crs": {
    "type": "name",
    "properties": {
      "name": "urn:ogc:def:crs:OGC:1.3:CRS84"
    }
  },
  "features": [
    {
      "type": "Feature",
      "properties": {
        "parcel_id": "MH-AHM-KAR-BEN-190",
        "survey_no": "190",
        "gat_no": "190",
        "village": "Benwadi (बेनवडी)",
        "taluka": "Karjat (कर्जत)",
        "district": "Ahmednagar (अहमदनगर)",
        "state": "Maharashtra",
        "gis_code": "RVM2613272600130334420000",
        "owner_name": "दादा माणिक गदादे, ज्ञानदेव माणिक गदादे",
        "all_owners": [
          "दादा माणिक गदादे",
          "ज्ञानदेव माणिक गदादे"
        ],
        "khata_no": "419, 420",
        "area_sqm": 24574.43,
        "area_acres": 6.07,
        "area_guntha": 242.9,
        "land_type": "जिरायत शेती (Jirayat - Rainfed Agricultural)",
        "source": "MahaBhuNaksha Official Live Cadastre",
        "status": "needs_review",
        "confidence_score": 84.6,
        "old_survey_area_acres": 6.07,
        "old_survey_area_sqm": 24574.43,
        "new_survey_area_acres": 6.24,
        "new_survey_area_sqm": 25262.5,
        "area_diff_pct": 2.8,
        "mean_shift_m": 1.5,
        "iou_overlap_pct": 93.2,
        "review_reason": "Drone RTK photogrammetry detects a 2.8% area discrepancy (688 m²) with a mean bund shift of 1.5m along the farm boundary. Verification recommended.",
        "bhunaksha_geometry": {
          "type": "Polygon",
          "coordinates": [
            [
              [
                74.9610678,
                18.4826001
              ],
              [
                74.9612991,
                18.4824809
              ],
              [
                74.9610475,
                18.4819849
              ],
              [
                74.9608159,
                18.4814623
              ],
              [
                74.9611941,
                18.4812936
              ],
              [
                74.9606065,
                18.4799583
              ],
              [
                74.9601863,
                18.4789526
              ],
              [
                74.9599196,
                18.4790959
              ],
              [
                74.9596834,
                18.4791578
              ],
              [
                74.9602627,
                18.4805021
              ],
              [
                74.9603645,
                18.4807641
              ],
              [
                74.9604172,
                18.4812094
              ],
              [
                74.9601418,
                18.4813857
              ],
              [
                74.9606065,
                18.4821506
              ],
              [
                74.9609143,
                18.4826701
              ],
              [
                74.9610678,
                18.4826001
              ]
            ]
          ]
        }
      },
      "geometry": {
        "type": "Polygon",
        "coordinates": [
          [
            [
              74.9610745,
              18.4826082
            ],
            [
              74.961309,
              18.4824874
            ],
            [
              74.9610539,
              18.4819845
            ],
            [
              74.9608191,
              18.4814546
            ],
            [
              74.9612025,
              18.4812836
            ],
            [
              74.9606068,
              18.4799297
            ],
            [
              74.9601807,
              18.47891
            ],
            [
              74.9599103,
              18.4790553
            ],
            [
              74.9596708,
              18.4791181
            ],
            [
              74.9602582,
              18.4804811
            ],
            [
              74.9603614,
              18.4807467
            ],
            [
              74.9604148,
              18.4811982
            ],
            [
              74.9601356,
              18.4813769
            ],
            [
              74.9606068,
              18.4821525
            ],
            [
              74.9609189,
              18.4826792
            ],
            [
              74.9610745,
              18.4826082
            ]
          ]
        ]
      }
    }
  ]
}