{
  "type": "FeatureCollection",
  "name": "Benwadi_Gat_465_Cadastre",
  "crs": {
    "type": "name",
    "properties": {
      "name": "urn:ogc:def:crs:OGC:1.3:CRS84"
    }
  },
  "features": [
    {
      "type": "Feature",
      "properties": {
        "parcel_id": "MH-AHM-KAR-BEN-465",
        "survey_no": "465",
        "gat_no": "465",
        "village": "Benwadi (बेनवडी)",
        "taluka": "Karjat (कर्जत)",
        "district": "Ahmednagar (अहमदनगर)",
        "state": "Maharashtra",
        "gis_code": "RVM2613272600130334420000",
        "owner_name": "अशोक कोंडीबा गदादे, साखरबाई राजाराम गदादे",
        "all_owners": [
          "अशोक कोंडीबा गदादे",
          "साखरबाई राजाराम गदादे"
        ],
        "khata_no": "2710, 2715",
        "area_sqm": 9179.77,
        "area_acres": 2.27,
        "area_guntha": 90.74,
        "land_type": "जिरायत शेती (Jirayat - Rainfed Agricultural)",
        "source": "MahaBhuNaksha Official Live Cadastre",
        "status": "verified",
        "confidence_score": 98.8,
        "old_survey_area_acres": 2.27,
        "old_survey_area_sqm": 9179.77,
        "new_survey_area_acres": 2.27,
        "new_survey_area_sqm": 9179.77
      },
      "geometry": {
        "type": "Polygon",
        "coordinates": [
          [
            [
              74.9908091,
              18.4927797
            ],
            [
              74.9907461,
              18.4924867
            ],
            [
              74.9905616,
              18.4913281
            ],
            [
              74.9900146,
              18.4914194
            ],
            [
              74.9902106,
              18.4927561
            ],
            [
              74.9904173,
              18.492646
            ],
            [
              74.9907848,
              18.4928978
            ],
            [
              74.9908091,
              18.4927797
            ]
          ]
        ]
      }
    }
  ]
}