{
  "type": "FeatureCollection",
  "name": "Benwadi_Gat_384_Drone_Resurvey",
  "crs": {
    "type": "name",
    "properties": {
      "name": "urn:ogc:def:crs:OGC:1.3:CRS84"
    }
  },
  "features": [
    {
      "type": "Feature",
      "properties": {
        "parcel_id": "MH-AHM-KAR-BEN-384",
        "survey_no": "384",
        "gat_no": "384",
        "village": "Benwadi (बेनवडी)",
        "taluka": "Karjat (कर्जत)",
        "district": "Ahmednagar (अहमदनगर)",
        "state": "Maharashtra",
        "gis_code": "RVM2613272600130334420000",
        "owner_name": "दत्तात्रय तूकाराम गदादे, आबा तूकाराम गदादे",
        "all_owners": [
          "दत्तात्रय तूकाराम गदादे",
          "आबा तूकाराम गदादे",
          "विजय आबा गदादे",
          "बापू दत्तात्रय गदादे",
          "यूवराज आबा गदादे",
          "शिवाजी दत्तात्रय गदादे",
          "दत्तात्रय तूकाराम गदादे",
          "आबा तूकाराम गदादे"
        ],
        "khata_no": "594, 595, 832, 834, 831, 833, 594, 595",
        "area_sqm": 106575.05,
        "area_acres": 26.34,
        "area_guntha": 1053.43,
        "land_type": "जिरायत शेती (Jirayat - Rainfed Agricultural)",
        "source": "MahaBhuNaksha Official Live Cadastre",
        "status": "needs_review",
        "confidence_score": 85.1,
        "old_survey_area_acres": 26.34,
        "old_survey_area_sqm": 106575.05,
        "new_survey_area_acres": 26.97,
        "new_survey_area_sqm": 109132.9,
        "area_diff_pct": 2.4,
        "mean_shift_m": 1.7,
        "iou_overlap_pct": 93.6,
        "review_reason": "Drone RTK photogrammetry detects a 2.4% area discrepancy (2558 m²) with a mean bund shift of 1.7m along the farm boundary. Verification recommended.",
        "bhunaksha_geometry": {
          "type": "Polygon",
          "coordinates": [
            [
              [
                74.9851564,
                18.5079461
              ],
              [
                74.9851425,
                18.5078195
              ],
              [
                74.9849991,
                18.5065105
              ],
              [
                74.9848182,
                18.5048752
              ],
              [
                74.9846532,
                18.5033998
              ],
              [
                74.9844853,
                18.5033533
              ],
              [
                74.9844467,
                18.5030626
              ],
              [
                74.9840612,
                18.5031028
              ],
              [
                74.984015,
                18.5029061
              ],
              [
                74.9844079,
                18.5028549
              ],
              [
                74.9843581,
                18.5024951
              ],
              [
                74.9834183,
                18.5026551
              ],
              [
                74.983131,
                18.5027046
              ],
              [
                74.9827967,
                18.5026053
              ],
              [
                74.9829163,
                18.5039905
              ],
              [
                74.9829494,
                18.5044427
              ],
              [
                74.98302,
                18.5052752
              ],
              [
                74.9830748,
                18.5060542
              ],
              [
                74.983171,
                18.5072872
              ],
              [
                74.9831787,
                18.507387
              ],
              [
                74.9844463,
                18.5077609
              ],
              [
                74.9851396,
                18.5079655
              ],
              [
                74.9851564,
                18.5079461
              ]
            ]
          ]
        }
      },
      "geometry": {
        "type": "Polygon",
        "coordinates": [
          [
            [
              74.9851645,
              18.5079974
            ],
            [
              74.9851505,
              18.5078693
            ],
            [
              74.9850054,
              18.5065447
            ],
            [
              74.9848223,
              18.5048899
            ],
            [
              74.9846553,
              18.5033969
            ],
            [
              74.9844854,
              18.5033499
            ],
            [
              74.9844464,
              18.5030557
            ],
            [
              74.9840563,
              18.5030964
            ],
            [
              74.9840095,
              18.5028973
            ],
            [
              74.9844071,
              18.5028455
            ],
            [
              74.9843567,
              18.5024814
            ],
            [
              74.9834057,
              18.5026433
            ],
            [
              74.983115,
              18.5026934
            ],
            [
              74.9827767,
              18.5025929
            ],
            [
              74.9828977,
              18.5039947
            ],
            [
              74.9829312,
              18.5044523
            ],
            [
              74.9830026,
              18.5052947
            ],
            [
              74.9830581,
              18.506083
            ],
            [
              74.9831554,
              18.5073307
            ],
            [
              74.9831632,
              18.5074317
            ],
            [
              74.984446,
              18.50781
            ],
            [
              74.9851475,
              18.5080171
            ],
            [
              74.9851645,
              18.5079974
            ]
          ]
        ]
      }
    }
  ]
}