{
  "type": "FeatureCollection",
  "name": "Benwadi_Gat_6_Drone_Resurvey",
  "crs": {
    "type": "name",
    "properties": {
      "name": "urn:ogc:def:crs:OGC:1.3:CRS84"
    }
  },
  "features": [
    {
      "type": "Feature",
      "properties": {
        "parcel_id": "MH-AHM-KAR-BEN-6",
        "survey_no": "6",
        "gat_no": "6",
        "village": "Benwadi (बेनवडी)",
        "taluka": "Karjat (कर्जत)",
        "district": "Ahmednagar (अहमदनगर)",
        "state": "Maharashtra",
        "gis_code": "RVM2613272600130334420000",
        "owner_name": "महादेव निवृत्ती धुमाळ, सहदेव निवृत्ती धुमाळ, साईनाथ विठ्ठल धुमाळ, दादा विठ्ठल धुमाळ, नवनाथ विठ्ठल धुमाळ, गजराबाइ विठ्ठल धुमाळ, बाळु विठ्ठल धुमाळ",
        "all_owners": [
          "महादेव निवृत्ती धुमाळ, सहदेव निवृत्ती धुमाळ",
          "साईनाथ विठ्ठल धुमाळ, दादा विठ्ठल धुमाळ, नवनाथ विठ्ठल धुमाळ, गजराबाइ विठ्ठल धुमाळ, बाळु विठ्ठल धुमाळ",
          "दत्तु गेना धुमाळ",
          "नारायण तुकाराम धूमाळ",
          "वसंत बयाजी धूमाळ",
          "विमल हरिभाऊ धुमाळ, मनीषा सतीश नवले, नारायण हरिभाऊ धुमाळ, संतोष हरिभाऊ धुमाळ"
        ],
        "khata_no": "132, 2326, 2357, 2430, 285, 368",
        "area_sqm": 994.18,
        "area_acres": 0.25,
        "area_guntha": 9.83,
        "land_type": "जिरायत शेती (Jirayat - Rainfed Agricultural)",
        "source": "MahaBhuNaksha Official Live Cadastre",
        "status": "needs_review",
        "confidence_score": 85.4,
        "old_survey_area_acres": 0.25,
        "old_survey_area_sqm": 994.18,
        "new_survey_area_acres": 0.26,
        "new_survey_area_sqm": 1016.1,
        "area_diff_pct": 2.2,
        "mean_shift_m": 1.9,
        "iou_overlap_pct": 93.8,
        "review_reason": "Drone RTK photogrammetry detects a 2.2% area discrepancy (22 m²) with a mean bund shift of 1.9m along the farm boundary. Verification recommended.",
        "bhunaksha_geometry": {
          "type": "Polygon",
          "coordinates": [
            [
              [
                74.9817024,
                18.4914978
              ],
              [
                74.9815209,
                18.4914011
              ],
              [
                74.9814432,
                18.4913462
              ],
              [
                74.9813209,
                18.4918397
              ],
              [
                74.9813522,
                18.4918805
              ],
              [
                74.9817024,
                18.4914978
              ]
            ]
          ]
        }
      },
      "geometry": {
        "type": "Polygon",
        "coordinates": [
          [
            [
              74.9817148,
              18.4915111
            ],
            [
              74.9815313,
              18.4914133
            ],
            [
              74.9814527,
              18.4913578
            ],
            [
              74.9813291,
              18.4918567
            ],
            [
              74.9813608,
              18.491898
            ],
            [
              74.9817148,
              18.4915111
            ]
          ]
        ]
      }
    }
  ]
}