{
  "type": "FeatureCollection",
  "name": "Benwadi_Gat_237_Cadastre",
  "crs": {
    "type": "name",
    "properties": {
      "name": "urn:ogc:def:crs:OGC:1.3:CRS84"
    }
  },
  "features": [
    {
      "type": "Feature",
      "properties": {
        "parcel_id": "MH-AHM-KAR-BEN-237",
        "survey_no": "237",
        "gat_no": "237",
        "village": "Benwadi (बेनवडी)",
        "taluka": "Karjat (कर्जत)",
        "district": "Ahmednagar (अहमदनगर)",
        "state": "Maharashtra",
        "gis_code": "RVM2613272600130334420000",
        "owner_name": "नाथा कूंडलिक धूमाळ",
        "all_owners": [
          "नाथा कूंडलिक धूमाळ"
        ],
        "khata_no": "119",
        "area_sqm": 3944.31,
        "area_acres": 0.97,
        "area_guntha": 38.99,
        "land_type": "जिरायत शेती (Jirayat - Rainfed Agricultural)",
        "source": "MahaBhuNaksha Official Live Cadastre",
        "status": "verified",
        "confidence_score": 98.8,
        "old_survey_area_acres": 0.97,
        "old_survey_area_sqm": 3944.31,
        "new_survey_area_acres": 0.97,
        "new_survey_area_sqm": 3944.31
      },
      "geometry": {
        "type": "Polygon",
        "coordinates": [
          [
            [
              74.9584581,
              18.4896889
            ],
            [
              74.9585457,
              18.4890995
            ],
            [
              74.9585281,
              18.4890529
            ],
            [
              74.9579395,
              18.4891735
            ],
            [
              74.9580029,
              18.4898054
            ],
            [
              74.9584581,
              18.4896889
            ]
          ]
        ]
      }
    }
  ]
}