{
  "type": "FeatureCollection",
  "name": "Benwadi_Gat_306_Cadastre",
  "crs": {
    "type": "name",
    "properties": {
      "name": "urn:ogc:def:crs:OGC:1.3:CRS84"
    }
  },
  "features": [
    {
      "type": "Feature",
      "properties": {
        "parcel_id": "MH-AHM-KAR-BEN-306",
        "survey_no": "306",
        "gat_no": "306",
        "village": "Benwadi (बेनवडी)",
        "taluka": "Karjat (कर्जत)",
        "district": "Ahmednagar (अहमदनगर)",
        "state": "Maharashtra",
        "gis_code": "RVM2613272600130334420000",
        "owner_name": "किसनाबाई डिगांबर धुमाळ, राजश्री बबन तोरमल, रामदास दिगंबर धुमाळ, पोपट दिगांबर धुमाळ",
        "all_owners": [
          "किसनाबाई डिगांबर धुमाळ, राजश्री बबन तोरमल, रामदास दिगंबर धुमाळ, पोपट दिगांबर धुमाळ"
        ],
        "khata_no": "105",
        "area_sqm": 15889.98,
        "area_acres": 3.93,
        "area_guntha": 157.06,
        "land_type": "जिरायत शेती (Jirayat - Rainfed Agricultural)",
        "source": "MahaBhuNaksha Official Live Cadastre",
        "status": "verified",
        "confidence_score": 98.8,
        "old_survey_area_acres": 3.93,
        "old_survey_area_sqm": 15889.98,
        "new_survey_area_acres": 3.93,
        "new_survey_area_sqm": 15889.98
      },
      "geometry": {
        "type": "Polygon",
        "coordinates": [
          [
            [
              74.9685662,
              18.5038228
            ],
            [
              74.9678985,
              18.5037189
            ],
            [
              74.9678975,
              18.5039254
            ],
            [
              74.9672922,
              18.5038394
            ],
            [
              74.9672537,
              18.5037931
            ],
            [
              74.9664998,
              18.503826
            ],
            [
              74.9664374,
              18.5035882
            ],
            [
              74.966405,
              18.5034975
            ],
            [
              74.9663631,
              18.5033458
            ],
            [
              74.9653674,
              18.5034974
            ],
            [
              74.9642388,
              18.5036784
            ],
            [
              74.9630357,
              18.503878
            ],
            [
              74.9629453,
              18.503893
            ],
            [
              74.962952,
              18.5040373
            ],
            [
              74.9630419,
              18.5040258
            ],
            [
              74.9642063,
              18.5038765
            ],
            [
              74.9656257,
              18.5037053
            ],
            [
              74.9662034,
              18.5036316
            ],
            [
              74.9662925,
              18.5040274
            ],
            [
              74.9671388,
              18.5040552
            ],
            [
              74.9686299,
              18.5041204
            ],
            [
              74.9685662,
              18.5038228
            ]
          ]
        ]
      }
    }
  ]
}