{
  "type": "FeatureCollection",
  "name": "Benwadi_Gat_334_Cadastre",
  "crs": {
    "type": "name",
    "properties": {
      "name": "urn:ogc:def:crs:OGC:1.3:CRS84"
    }
  },
  "features": [
    {
      "type": "Feature",
      "properties": {
        "parcel_id": "MH-AHM-KAR-BEN-334",
        "survey_no": "334",
        "gat_no": "334",
        "village": "Benwadi (बेनवडी)",
        "taluka": "Karjat (कर्जत)",
        "district": "Ahmednagar (अहमदनगर)",
        "state": "Maharashtra",
        "gis_code": "RVM2613272600130334420000",
        "owner_name": "क्रांती ज्योती फ्रुडस पोडॅक्स लि.बेनवडी, सिध्देश यशवंत बुआ",
        "all_owners": [
          "क्रांती ज्योती फ्रुडस पोडॅक्स लि.बेनवडी",
          "सिध्देश यशवंत बुआ",
          "सूर्यकांत शामराज बूवा"
        ],
        "khata_no": "2273, 2811, 349",
        "area_sqm": 59212.26,
        "area_acres": 14.63,
        "area_guntha": 585.27,
        "land_type": "जिरायत शेती (Jirayat - Rainfed Agricultural)",
        "source": "MahaBhuNaksha Official Live Cadastre",
        "status": "verified",
        "confidence_score": 98.8,
        "old_survey_area_acres": 14.63,
        "old_survey_area_sqm": 59212.26,
        "new_survey_area_acres": 14.63,
        "new_survey_area_sqm": 59212.26
      },
      "geometry": {
        "type": "Polygon",
        "coordinates": [
          [
            [
              74.972503,
              18.5020497
            ],
            [
              74.9727059,
              18.5020058
            ],
            [
              74.9736203,
              18.5018564
            ],
            [
              74.9732899,
              18.5012721
            ],
            [
              74.9729049,
              18.5006137
            ],
            [
              74.9727411,
              18.5003053
            ],
            [
              74.972475,
              18.4999615
            ],
            [
              74.9721805,
              18.4995838
            ],
            [
              74.9715575,
              18.4996616
            ],
            [
              74.9709271,
              18.5001826
            ],
            [
              74.9706084,
              18.5004653
            ],
            [
              74.9706552,
              18.5005447
            ],
            [
              74.9707632,
              18.5009812
            ],
            [
              74.9708202,
              18.5017229
            ],
            [
              74.970828,
              18.5020547
            ],
            [
              74.972503,
              18.5020497
            ]
          ]
        ]
      }
    }
  ]
}