{
  "type": "FeatureCollection",
  "name": "Benwadi_Gat_479_Drone_Resurvey",
  "crs": {
    "type": "name",
    "properties": {
      "name": "urn:ogc:def:crs:OGC:1.3:CRS84"
    }
  },
  "features": [
    {
      "type": "Feature",
      "properties": {
        "parcel_id": "MH-AHM-KAR-BEN-479",
        "survey_no": "479",
        "gat_no": "479",
        "village": "Benwadi (बेनवडी)",
        "taluka": "Karjat (कर्जत)",
        "district": "Ahmednagar (अहमदनगर)",
        "state": "Maharashtra",
        "gis_code": "RVM2613272600130334420000",
        "owner_name": "तुकाराम काशिनाथ गदादे, रामचंद्र नामदेव गदादे",
        "all_owners": [
          "तुकाराम काशिनाथ गदादे",
          "रामचंद्र नामदेव गदादे"
        ],
        "khata_no": "2451, 2745",
        "area_sqm": 12342.36,
        "area_acres": 3.05,
        "area_guntha": 122.0,
        "land_type": "जिरायत शेती (Jirayat - Rainfed Agricultural)",
        "source": "MahaBhuNaksha Official Live Cadastre",
        "status": "needs_review",
        "confidence_score": 84.5,
        "old_survey_area_acres": 3.05,
        "old_survey_area_sqm": 12342.36,
        "new_survey_area_acres": 3.14,
        "new_survey_area_sqm": 12700.3,
        "area_diff_pct": 2.9,
        "mean_shift_m": 1.4,
        "iou_overlap_pct": 93.1,
        "review_reason": "Drone RTK photogrammetry detects a 2.9% area discrepancy (358 m²) with a mean bund shift of 1.4m along the farm boundary. Verification recommended.",
        "bhunaksha_geometry": {
          "type": "Polygon",
          "coordinates": [
            [
              [
                74.984202,
                18.4931234
              ],
              [
                74.983863,
                18.4927972
              ],
              [
                74.9836286,
                18.4923994
              ],
              [
                74.9838758,
                18.492428
              ],
              [
                74.9854862,
                18.4926209
              ],
              [
                74.9852455,
                18.4925358
              ],
              [
                74.9844492,
                18.4922807
              ],
              [
                74.983926,
                18.4921198
              ],
              [
                74.9830362,
                18.4921918
              ],
              [
                74.9830963,
                18.4926002
              ],
              [
                74.9831538,
                18.4930029
              ],
              [
                74.9831817,
                18.4931949
              ],
              [
                74.984202,
                18.4931234
              ]
            ]
          ]
        }
      },
      "geometry": {
        "type": "Polygon",
        "coordinates": [
          [
            [
              74.9842118,
              18.4931195
            ],
            [
              74.9838679,
              18.4927886
            ],
            [
              74.9836301,
              18.4923851
            ],
            [
              74.9838809,
              18.4924141
            ],
            [
              74.9855144,
              18.4926098
            ],
            [
              74.9852703,
              18.4925234
            ],
            [
              74.9844625,
              18.4922647
            ],
            [
              74.9839318,
              18.4921015
            ],
            [
              74.9830292,
              18.4921745
            ],
            [
              74.9830901,
              18.4925888
            ],
            [
              74.9831485,
              18.4929973
            ],
            [
              74.9831768,
              18.493192
            ],
            [
              74.9842118,
              18.4931195
            ]
          ]
        ]
      }
    }
  ]
}