{
  "type": "FeatureCollection",
  "name": "Benwadi_Gat_171_Drone_Resurvey",
  "crs": {
    "type": "name",
    "properties": {
      "name": "urn:ogc:def:crs:OGC:1.3:CRS84"
    }
  },
  "features": [
    {
      "type": "Feature",
      "properties": {
        "parcel_id": "MH-AHM-KAR-BEN-171",
        "survey_no": "171",
        "gat_no": "171",
        "village": "Benwadi (बेनवडी)",
        "taluka": "Karjat (कर्जत)",
        "district": "Ahmednagar (अहमदनगर)",
        "state": "Maharashtra",
        "gis_code": "RVM2613272600130334420000",
        "owner_name": "कल्याण दशरथ गदादे, महादेव बाळू गदादे",
        "all_owners": [
          "कल्याण दशरथ गदादे",
          "महादेव बाळू गदादे"
        ],
        "khata_no": "3293, 925",
        "area_sqm": 19500.09,
        "area_acres": 4.82,
        "area_guntha": 192.75,
        "land_type": "जिरायत शेती (Jirayat - Rainfed Agricultural)",
        "source": "MahaBhuNaksha Official Live Cadastre",
        "status": "needs_review",
        "confidence_score": 84.8,
        "old_survey_area_acres": 4.82,
        "old_survey_area_sqm": 19500.09,
        "new_survey_area_acres": 4.95,
        "new_survey_area_sqm": 20026.6,
        "area_diff_pct": 2.7,
        "mean_shift_m": 1.4,
        "iou_overlap_pct": 93.3,
        "review_reason": "Drone RTK photogrammetry detects a 2.7% area discrepancy (527 m²) with a mean bund shift of 1.4m along the farm boundary. Verification recommended.",
        "bhunaksha_geometry": {
          "type": "Polygon",
          "coordinates": [
            [
              [
                74.9694511,
                18.4783266
              ],
              [
                74.969573,
                18.4772657
              ],
              [
                74.9696848,
                18.476261
              ],
              [
                74.9691886,
                18.4763161
              ],
              [
                74.9687734,
                18.4763702
              ],
              [
                74.968765,
                18.47693
              ],
              [
                74.9687344,
                18.4784524
              ],
              [
                74.9693927,
                18.478324
              ],
              [
                74.9694511,
                18.4783266
              ]
            ]
          ]
        }
      },
      "geometry": {
        "type": "Polygon",
        "coordinates": [
          [
            [
              74.969455,
              18.478328
            ],
            [
              74.9695785,
              18.4772529
            ],
            [
              74.9696918,
              18.4762347
            ],
            [
              74.969189,
              18.4762906
            ],
            [
              74.9687682,
              18.4763454
            ],
            [
              74.9687597,
              18.4769127
            ],
            [
              74.9687287,
              18.4784555
            ],
            [
              74.9693958,
              18.4783254
            ],
            [
              74.969455,
              18.478328
            ]
          ]
        ]
      }
    }
  ]
}