{
  "type": "FeatureCollection",
  "name": "Benwadi_Gat_534_Cadastre",
  "crs": {
    "type": "name",
    "properties": {
      "name": "urn:ogc:def:crs:OGC:1.3:CRS84"
    }
  },
  "features": [
    {
      "type": "Feature",
      "properties": {
        "parcel_id": "MH-AHM-KAR-BEN-534",
        "survey_no": "534",
        "gat_no": "534",
        "village": "Benwadi (बेनवडी)",
        "taluka": "Karjat (कर्जत)",
        "district": "Ahmednagar (अहमदनगर)",
        "state": "Maharashtra",
        "gis_code": "RVM2613272600130334420000",
        "owner_name": "राहूल शरद शहा",
        "all_owners": [
          "राहूल शरद शहा"
        ],
        "khata_no": "606",
        "area_sqm": 31104.25,
        "area_acres": 7.69,
        "area_guntha": 307.45,
        "land_type": "जिरायत शेती (Jirayat - Rainfed Agricultural)",
        "source": "MahaBhuNaksha Official Live Cadastre",
        "status": "verified",
        "confidence_score": 98.8,
        "old_survey_area_acres": 7.69,
        "old_survey_area_sqm": 31104.25,
        "new_survey_area_acres": 7.69,
        "new_survey_area_sqm": 31104.25
      },
      "geometry": {
        "type": "Polygon",
        "coordinates": [
          [
            [
              74.9819102,
              18.4966955
            ],
            [
              74.9816521,
              18.4956059
            ],
            [
              74.9806351,
              18.4958605
            ],
            [
              74.9793304,
              18.4962063
            ],
            [
              74.9794489,
              18.4971422
            ],
            [
              74.9803041,
              18.4971578
            ],
            [
              74.980876,
              18.4969449
            ],
            [
              74.9818162,
              18.4966436
            ],
            [
              74.9819102,
              18.4966955
            ]
          ]
        ]
      }
    }
  ]
}