{
  "type": "FeatureCollection",
  "name": "Benwadi_Gat_355_Drone_Resurvey",
  "crs": {
    "type": "name",
    "properties": {
      "name": "urn:ogc:def:crs:OGC:1.3:CRS84"
    }
  },
  "features": [
    {
      "type": "Feature",
      "properties": {
        "parcel_id": "MH-AHM-KAR-BEN-355",
        "survey_no": "355",
        "gat_no": "355",
        "village": "Benwadi (बेनवडी)",
        "taluka": "Karjat (कर्जत)",
        "district": "Ahmednagar (अहमदनगर)",
        "state": "Maharashtra",
        "gis_code": "RVM2613272600130334420000",
        "owner_name": "हौसाबाई  देविदास  ढवळे, महादेव  देविदास  ढवळे",
        "all_owners": [
          "हौसाबाई  देविदास  ढवळे, महादेव  देविदास  ढवळे"
        ],
        "khata_no": "110",
        "area_sqm": 1550.04,
        "area_acres": 0.38,
        "area_guntha": 15.32,
        "land_type": "जिरायत शेती (Jirayat - Rainfed Agricultural)",
        "source": "MahaBhuNaksha Official Live Cadastre",
        "status": "needs_review",
        "confidence_score": 85.2,
        "old_survey_area_acres": 0.38,
        "old_survey_area_sqm": 1550.04,
        "new_survey_area_acres": 0.39,
        "new_survey_area_sqm": 1585.7,
        "area_diff_pct": 2.3,
        "mean_shift_m": 1.8,
        "iou_overlap_pct": 93.7,
        "review_reason": "Drone RTK photogrammetry detects a 2.3% area discrepancy (36 m²) with a mean bund shift of 1.8m along the farm boundary. Verification recommended.",
        "bhunaksha_geometry": {
          "type": "Polygon",
          "coordinates": [
            [
              [
                74.9746389,
                18.5000636
              ],
              [
                74.9745941,
                18.4996938
              ],
              [
                74.9745937,
                18.4996028
              ],
              [
                74.9745413,
                18.4995457
              ],
              [
                74.9743431,
                18.4995711
              ],
              [
                74.9744234,
                18.5001873
              ],
              [
                74.9746389,
                18.5000636
              ]
            ]
          ]
        }
      },
      "geometry": {
        "type": "Polygon",
        "coordinates": [
          [
            [
              74.9746307,
              18.5000803
            ],
            [
              74.9745854,
              18.4997063
            ],
            [
              74.974585,
              18.4996142
            ],
            [
              74.974532,
              18.4995565
            ],
            [
              74.9743315,
              18.4995822
            ],
            [
              74.9744127,
              18.5002054
            ],
            [
              74.9746307,
              18.5000803
            ]
          ]
        ]
      }
    }
  ]
}