{
  "type": "FeatureCollection",
  "name": "Benwadi_Gat_94_Drone_Resurvey",
  "crs": {
    "type": "name",
    "properties": {
      "name": "urn:ogc:def:crs:OGC:1.3:CRS84"
    }
  },
  "features": [
    {
      "type": "Feature",
      "properties": {
        "parcel_id": "MH-AHM-KAR-BEN-94",
        "survey_no": "94",
        "gat_no": "94",
        "village": "Benwadi (बेनवडी)",
        "taluka": "Karjat (कर्जत)",
        "district": "Ahmednagar (अहमदनगर)",
        "state": "Maharashtra",
        "gis_code": "RVM2613272600130334420000",
        "owner_name": "गोपाळ अशोक भिसे, चंदन अशोक भिसे, शालिनी अशोक भिसे, सुशिला श्रीरंग लोंढे, कांतीलाल सिताराम भिसे, महाराष्ट्र राज्याचे मा.राज्यपाल यांचे वतीने जलसंपदा विभाग महाराष्ट्र शासनाचे प्राधिकृत प्रतिनिधी – कार्यकारी अभियंता, कुकडी वितरण विभाग कोळवडी, ता.कर्जत यांचे कबुलीजबाबासाठी कुलमखत्यार म्हणून- कनिष्ठ लिपिक कुकडी वितरण बांधकाम विभाग कोळवडी ता कर्जत – काेळवडी ता. कर्जत यांचे कबुलीजबाबासाठी कुलमुखत्यार म्हणून - कनिष्ठ लिपिक कुकडी वितरण बांधकाम विभाग काेळवडी ता. कर्जत - - -",
        "all_owners": [
          "गोपाळ अशोक भिसे, चंदन अशोक भिसे, शालिनी अशोक भिसे, सुशिला श्रीरंग लोंढे, कांतीलाल सिताराम भिसे",
          "महाराष्ट्र राज्याचे मा.राज्यपाल यांचे वतीने जलसंपदा विभाग महाराष्ट्र शासनाचे प्राधिकृत प्रतिनिधी – कार्यकारी अभियंता, कुकडी वितरण विभाग कोळवडी, ता.कर्जत यांचे कबुलीजबाबासाठी कुलमखत्यार म्हणून- कनिष्ठ लिपिक कुकडी वितरण बांधकाम विभाग कोळवडी ता कर्जत – काेळवडी ता. कर्जत यांचे कबुलीजबाबासाठी कुलमुखत्यार म्हणून - कनिष्ठ लिपिक कुकडी वितरण बांधकाम विभाग काेळवडी ता. कर्जत - - -"
        ],
        "khata_no": "2954, 3243",
        "area_sqm": 18759.53,
        "area_acres": 4.64,
        "area_guntha": 185.43,
        "land_type": "जिरायत शेती (Jirayat - Rainfed Agricultural)",
        "source": "MahaBhuNaksha Official Live Cadastre",
        "status": "needs_review",
        "confidence_score": 85.1,
        "old_survey_area_acres": 4.64,
        "old_survey_area_sqm": 18759.53,
        "new_survey_area_acres": 4.75,
        "new_survey_area_sqm": 19209.8,
        "area_diff_pct": 2.4,
        "mean_shift_m": 1.9,
        "iou_overlap_pct": 93.6,
        "review_reason": "Drone RTK photogrammetry detects a 2.4% area discrepancy (450 m²) with a mean bund shift of 1.9m along the farm boundary. Verification recommended.",
        "bhunaksha_geometry": {
          "type": "Polygon",
          "coordinates": [
            [
              [
                74.979812,
                18.4890428
              ],
              [
                74.9798677,
                18.4890138
              ],
              [
                74.9802829,
                18.4889235
              ],
              [
                74.9811386,
                18.4887142
              ],
              [
                74.9812057,
                18.4880883
              ],
              [
                74.9809752,
                18.4881521
              ],
              [
                74.9808109,
                18.4881996
              ],
              [
                74.9805918,
                18.4882462
              ],
              [
                74.9800715,
                18.4883695
              ],
              [
                74.9796669,
                18.4884819
              ],
              [
                74.9787479,
                18.488746
              ],
              [
                74.9782732,
                18.4888855
              ],
              [
                74.9785551,
                18.4891675
              ],
              [
                74.9787467,
                18.4893562
              ],
              [
                74.9790435,
                18.4892679
              ],
              [
                74.979812,
                18.4890428
              ]
            ]
          ]
        }
      },
      "geometry": {
        "type": "Polygon",
        "coordinates": [
          [
            [
              74.9797947,
              18.4890406
            ],
            [
              74.9798511,
              18.4890113
            ],
            [
              74.9802712,
              18.4889199
            ],
            [
              74.9811371,
              18.4887081
            ],
            [
              74.981205,
              18.4880748
            ],
            [
              74.9809718,
              18.4881393
            ],
            [
              74.9808055,
              18.4881874
            ],
            [
              74.9805838,
              18.4882345
            ],
            [
              74.9800573,
              18.4883593
            ],
            [
              74.9796479,
              18.488473
            ],
            [
              74.9787179,
              18.4887403
            ],
            [
              74.9782375,
              18.4888815
            ],
            [
              74.9785228,
              18.4891668
            ],
            [
              74.9787167,
              18.4893578
            ],
            [
              74.979017,
              18.4892684
            ],
            [
              74.9797947,
              18.4890406
            ]
          ]
        ]
      }
    }
  ]
}