{
  "type": "FeatureCollection",
  "name": "Benwadi_Gat_405_Cadastre",
  "crs": {
    "type": "name",
    "properties": {
      "name": "urn:ogc:def:crs:OGC:1.3:CRS84"
    }
  },
  "features": [
    {
      "type": "Feature",
      "properties": {
        "parcel_id": "MH-AHM-KAR-BEN-405",
        "survey_no": "405",
        "gat_no": "405",
        "village": "Benwadi (बेनवडी)",
        "taluka": "Karjat (कर्जत)",
        "district": "Ahmednagar (अहमदनगर)",
        "state": "Maharashtra",
        "gis_code": "RVM2613272600130334420000",
        "owner_name": "नवनाथ दगडू डमरे, रामा दगडू डमरे",
        "all_owners": [
          "नवनाथ दगडू डमरे",
          "रामा दगडू डमरे",
          "भाऊसाहेब दत्तू डमरे",
          "आशाबाई भाऊसाहेब डमरे"
        ],
        "khata_no": "859, 2777, 861, 862",
        "area_sqm": 44656.04,
        "area_acres": 11.03,
        "area_guntha": 441.4,
        "land_type": "जिरायत शेती (Jirayat - Rainfed Agricultural)",
        "source": "MahaBhuNaksha Official Live Cadastre",
        "status": "verified",
        "confidence_score": 98.8,
        "old_survey_area_acres": 11.03,
        "old_survey_area_sqm": 44656.04,
        "new_survey_area_acres": 11.03,
        "new_survey_area_sqm": 44656.04
      },
      "geometry": {
        "type": "Polygon",
        "coordinates": [
          [
            [
              75.0020095,
              18.5027296
            ],
            [
              75.0021848,
              18.5017965
            ],
            [
              75.0022436,
              18.5014833
            ],
            [
              75.0021951,
              18.5015036
            ],
            [
              75.0021201,
              18.5015572
            ],
            [
              75.0007887,
              18.5022867
            ],
            [
              75.0002602,
              18.5025826
            ],
            [
              75.000136,
              18.5026521
            ],
            [
              74.9996844,
              18.5029493
            ],
            [
              74.9982184,
              18.5039819
            ],
            [
              74.9983606,
              18.5040249
            ],
            [
              74.9992724,
              18.5043278
            ],
            [
              75.0001682,
              18.5038006
            ],
            [
              75.0009359,
              18.5033561
            ],
            [
              75.0016541,
              18.5029403
            ],
            [
              75.0020095,
              18.5027296
            ]
          ]
        ]
      }
    }
  ]
}