{
  "type": "FeatureCollection",
  "name": "Benwadi_Gat_25_Drone_Resurvey",
  "crs": {
    "type": "name",
    "properties": {
      "name": "urn:ogc:def:crs:OGC:1.3:CRS84"
    }
  },
  "features": [
    {
      "type": "Feature",
      "properties": {
        "parcel_id": "MH-AHM-KAR-BEN-25",
        "survey_no": "25",
        "gat_no": "25",
        "village": "Benwadi (बेनवडी)",
        "taluka": "Karjat (कर्जत)",
        "district": "Ahmednagar (अहमदनगर)",
        "state": "Maharashtra",
        "gis_code": "RVM2613272600130334420000",
        "owner_name": "महाराष्ट्र राज्याचे मा.राज्यपाल यांचे वतीने जलसंपदा विभाग महाराष्ट्र शासनाचे प्राधिकृत प्रतिनिधी – कार्यकारी अभियंता, कुकडी वितरण विभाग कोळवडी, ता.कर्जत यांचे कबुलीजबाबासाठी कुलमखत्यार म्हणून- कनिष्ठ लिपिक कुकडी वितरण बांधकाम विभाग कोळवडी ता कर्जत –, कैलास पांडुरंग दवणे, गिरजाबाई पांडुरंग दवणे, चंद्रभागा पोपट गांगर्डे, नंदाबाई श्रीरंग निकत, उद्धव पांडुरंग दवणे, राणी सुभाष सुद्रिक, रुपाली रोहिदास शेळके, कांताबाई विठ्ठल घोलप, परसराम मारुती खेडकर",
        "all_owners": [
          "महाराष्ट्र राज्याचे मा.राज्यपाल यांचे वतीने जलसंपदा विभाग महाराष्ट्र शासनाचे प्राधिकृत प्रतिनिधी – कार्यकारी अभियंता, कुकडी वितरण विभाग कोळवडी, ता.कर्जत यांचे कबुलीजबाबासाठी कुलमखत्यार म्हणून- कनिष्ठ लिपिक कुकडी वितरण बांधकाम विभाग कोळवडी ता कर्जत –",
          "कैलास पांडुरंग दवणे, गिरजाबाई पांडुरंग दवणे, चंद्रभागा पोपट गांगर्डे, नंदाबाई श्रीरंग निकत, उद्धव पांडुरंग दवणे, राणी सुभाष सुद्रिक, रुपाली रोहिदास शेळके, कांताबाई विठ्ठल घोलप, परसराम मारुती खेडकर"
        ],
        "khata_no": "3153, 711",
        "area_sqm": 8176.66,
        "area_acres": 2.02,
        "area_guntha": 80.82,
        "land_type": "जिरायत शेती (Jirayat - Rainfed Agricultural)",
        "source": "MahaBhuNaksha Official Live Cadastre",
        "status": "needs_review",
        "confidence_score": 85.2,
        "old_survey_area_acres": 2.02,
        "old_survey_area_sqm": 8176.66,
        "new_survey_area_acres": 2.07,
        "new_survey_area_sqm": 8364.7,
        "area_diff_pct": 2.3,
        "mean_shift_m": 1.6,
        "iou_overlap_pct": 93.7,
        "review_reason": "Drone RTK photogrammetry detects a 2.3% area discrepancy (188 m²) with a mean bund shift of 1.6m along the farm boundary. Verification recommended.",
        "bhunaksha_geometry": {
          "type": "Polygon",
          "coordinates": [
            [
              [
                74.9910238,
                18.4887282
              ],
              [
                74.9908514,
                18.4877576
              ],
              [
                74.9906042,
                18.4864831
              ],
              [
                74.9903032,
                18.486772
              ],
              [
                74.9905647,
                18.4879523
              ],
              [
                74.9907546,
                18.4888046
              ],
              [
                74.9910238,
                18.4887282
              ]
            ]
          ]
        }
      },
      "geometry": {
        "type": "Polygon",
        "coordinates": [
          [
            [
              74.991014,
              18.4887457
            ],
            [
              74.9908397,
              18.487764
            ],
            [
              74.9905896,
              18.4864749
            ],
            [
              74.9902852,
              18.4867671
            ],
            [
              74.9905497,
              18.4879609
            ],
            [
              74.9907418,
              18.488823
            ],
            [
              74.991014,
              18.4887457
            ]
          ]
        ]
      }
    }
  ]
}