{
  "type": "FeatureCollection",
  "name": "Benwadi_Gat_220_Drone_Resurvey",
  "crs": {
    "type": "name",
    "properties": {
      "name": "urn:ogc:def:crs:OGC:1.3:CRS84"
    }
  },
  "features": [
    {
      "type": "Feature",
      "properties": {
        "parcel_id": "MH-AHM-KAR-BEN-220",
        "survey_no": "220",
        "gat_no": "220",
        "village": "Benwadi (बेनवडी)",
        "taluka": "Karjat (कर्जत)",
        "district": "Ahmednagar (अहमदनगर)",
        "state": "Maharashtra",
        "gis_code": "RVM2613272600130334420000",
        "owner_name": "विश्वास लालासाहेब देशमुख, शरद  किसनराव  देशमुख, शशिकांत  किसनराव  देशमुख, सुलोचना  किसनराव  देशमुख",
        "all_owners": [
          "विश्वास लालासाहेब देशमुख",
          "शरद  किसनराव  देशमुख, शशिकांत  किसनराव  देशमुख, सुलोचना  किसनराव  देशमुख",
          "पांडूरंग भाऊसाहेब देशमूख"
        ],
        "khata_no": "539, 540, 729",
        "area_sqm": 34205.99,
        "area_acres": 8.45,
        "area_guntha": 338.1,
        "land_type": "जिरायत शेती (Jirayat - Rainfed Agricultural)",
        "source": "MahaBhuNaksha Official Live Cadastre",
        "status": "needs_review",
        "confidence_score": 84.6,
        "old_survey_area_acres": 8.45,
        "old_survey_area_sqm": 34205.99,
        "new_survey_area_acres": 8.69,
        "new_survey_area_sqm": 35163.8,
        "area_diff_pct": 2.8,
        "mean_shift_m": 2.1,
        "iou_overlap_pct": 93.2,
        "review_reason": "Drone RTK photogrammetry detects a 2.8% area discrepancy (958 m²) with a mean bund shift of 2.1m along the farm boundary. Verification recommended.",
        "bhunaksha_geometry": {
          "type": "Polygon",
          "coordinates": [
            [
              [
                74.95899,
                18.4854944
              ],
              [
                74.958803,
                18.4841984
              ],
              [
                74.9586526,
                18.4842441
              ],
              [
                74.958347,
                18.4843273
              ],
              [
                74.9566315,
                18.4847279
              ],
              [
                74.9570442,
                18.486127
              ],
              [
                74.95899,
                18.4854944
              ]
            ]
          ]
        }
      },
      "geometry": {
        "type": "Polygon",
        "coordinates": [
          [
            [
              74.9590213,
              18.4854965
            ],
            [
              74.9588317,
              18.4841825
            ],
            [
              74.9586792,
              18.4842289
            ],
            [
              74.9583693,
              18.4843132
            ],
            [
              74.95663,
              18.4847194
            ],
            [
              74.9570484,
              18.4861379
            ],
            [
              74.9590213,
              18.4854965
            ]
          ]
        ]
      }
    }
  ]
}