{
  "type": "FeatureCollection",
  "name": "Benwadi_Gat_433_Cadastre",
  "crs": {
    "type": "name",
    "properties": {
      "name": "urn:ogc:def:crs:OGC:1.3:CRS84"
    }
  },
  "features": [
    {
      "type": "Feature",
      "properties": {
        "parcel_id": "MH-AHM-KAR-BEN-433",
        "survey_no": "433",
        "gat_no": "433",
        "village": "Benwadi (बेनवडी)",
        "taluka": "Karjat (कर्जत)",
        "district": "Ahmednagar (अहमदनगर)",
        "state": "Maharashtra",
        "gis_code": "RVM2613272600130334420000",
        "owner_name": "इंद्राबाई भिमराव बिबे, जिजाबाई बापूराव वापसे, तुकाराम भिमराव बिबे, सुरेश भिमराव बिबे, विष्णु भिमराव बिबे, संतोष दत्तू दवने",
        "all_owners": [
          "इंद्राबाई भिमराव बिबे, जिजाबाई बापूराव वापसे, तुकाराम भिमराव बिबे, सुरेश भिमराव बिबे, विष्णु भिमराव बिबे",
          "संतोष दत्तू दवने",
          "ओंकार लहू दवने",
          "विद्या अंकुश दवणे",
          "मच्छिंद्र भिमराव दवणे",
          "गोरख रामभाऊ दवणे"
        ],
        "khata_no": "207, 3036, 3037, 3362, 627, 970",
        "area_sqm": 16663.08,
        "area_acres": 4.12,
        "area_guntha": 164.7,
        "land_type": "जिरायत शेती (Jirayat - Rainfed Agricultural)",
        "source": "MahaBhuNaksha Official Live Cadastre",
        "status": "verified",
        "confidence_score": 98.8,
        "old_survey_area_acres": 4.12,
        "old_survey_area_sqm": 16663.08,
        "new_survey_area_acres": 4.12,
        "new_survey_area_sqm": 16663.08
      },
      "geometry": {
        "type": "Polygon",
        "coordinates": [
          [
            [
              74.9934764,
              18.4917431
            ],
            [
              74.9933334,
              18.4908305
            ],
            [
              74.9920538,
              18.4909511
            ],
            [
              74.9920656,
              18.4910203
            ],
            [
              74.9922358,
              18.4922231
            ],
            [
              74.9928376,
              18.4919946
            ],
            [
              74.9934764,
              18.4917431
            ]
          ]
        ]
      }
    }
  ]
}