{
  "type": "FeatureCollection",
  "name": "Benwadi_Gat_214_Cadastre",
  "crs": {
    "type": "name",
    "properties": {
      "name": "urn:ogc:def:crs:OGC:1.3:CRS84"
    }
  },
  "features": [
    {
      "type": "Feature",
      "properties": {
        "parcel_id": "MH-AHM-KAR-BEN-214",
        "survey_no": "214",
        "gat_no": "214",
        "village": "Benwadi (बेनवडी)",
        "taluka": "Karjat (कर्जत)",
        "district": "Ahmednagar (अहमदनगर)",
        "state": "Maharashtra",
        "gis_code": "RVM2613272600130334420000",
        "owner_name": "देवराव रंगनाथ देशमूख, पंढरीनाथ शंकर देशमूख",
        "all_owners": [
          "देवराव रंगनाथ देशमूख",
          "पंढरीनाथ शंकर देशमूख",
          "पार्वती शंकर देशमूख",
          "बाबासाहेब आबा देशमूख",
          "बूवासाहेब शंकर देशमूख",
          "मारूती रंगनाथ देशमूख",
          "सुनिल बाजीराव देशमूख, ताई चंदु देशमूख, छाया भिमराव पवार, कलावती सुदाम वाळुंजकर, चंदा चंदु देशमूख, राजु चंदु देशमूख, लता चंदु देशमूख, पद्मिनी बाजीराव देशमूख, मंदा धनु देशमूख, दादा बाजीराव देशमूख",
          "रामभाऊ रंगनाथ देशमूख",
          "श्वेता कल्याण देशमुख, ईश्वर कल्याण देशमुख, हनुमंत दिगांबर देशमुख, ठकुबाई दिगांबर देशमुख, केशर महादेव देशमुख, मीरा कल्याण देशमुख, सारिका प्रशांत शिंदे, सोनाली समीर जगताप",
          "दशरथ तुकाराम देशमुख",
          "भाऊसाहेब विट्ठल देशमुख",
          "अंबादास भगवान देशमूख",
          "विश्वास लालासाहेब देशमुख",
          "महादेव राजाराम देशमूख",
          "उध्दव माणिक देशमूख",
          "दत्तात्रय माणिक देशमूख",
          "गोरख माणिक देशमुख",
          "सूभद्राबाई भाऊसाहेब जगताप",
          "मूक्ताबाई माणिक देशमूख",
          "पांडूरंग भाऊसाहेब देशमूख",
          "कल्याण दिगांबर देशमूख",
          "शहाजी वामन देशमूख"
        ],
        "khata_no": "109, 141, 149, 171, 184, 231, 2398, 263, 2903, 3063, 3340, 468, 539, 601, 666, 667, 668, 669, 670, 729, 733, 736",
        "area_sqm": 122212.39,
        "area_acres": 30.2,
        "area_guntha": 1207.99,
        "land_type": "जिरायत शेती (Jirayat - Rainfed Agricultural)",
        "source": "MahaBhuNaksha Official Live Cadastre",
        "status": "verified",
        "confidence_score": 98.8,
        "old_survey_area_acres": 30.2,
        "old_survey_area_sqm": 122212.39,
        "new_survey_area_acres": 30.2,
        "new_survey_area_sqm": 122212.39
      },
      "geometry": {
        "type": "Polygon",
        "coordinates": [
          [
            [
              74.9545404,
              18.488556
            ],
            [
              74.9547327,
              18.4882413
            ],
            [
              74.9546029,
              18.4878195
            ],
            [
              74.9550723,
              18.4874295
            ],
            [
              74.9550576,
              18.4870659
            ],
            [
              74.9552335,
              18.4870542
            ],
            [
              74.9551369,
              18.4866321
            ],
            [
              74.955441,
              18.4862004
            ],
            [
              74.9551026,
              18.4861417
            ],
            [
              74.955152,
              18.4856889
            ],
            [
              74.9556727,
              18.4857435
            ],
            [
              74.9554173,
              18.4850283
            ],
            [
              74.9547529,
              18.4853455
            ],
            [
              74.9537784,
              18.4858018
            ],
            [
              74.9530327,
              18.4861384
            ],
            [
              74.9519291,
              18.4864556
            ],
            [
              74.9518401,
              18.4864672
            ],
            [
              74.9502756,
              18.4867211
            ],
            [
              74.950206,
              18.4867324
            ],
            [
              74.9503066,
              18.48685
            ],
            [
              74.9509657,
              18.4875755
            ],
            [
              74.9519539,
              18.488663
            ],
            [
              74.9531075,
              18.4886083
            ],
            [
              74.9545404,
              18.488556
            ]
          ]
        ]
      }
    }
  ]
}