{
  "type": "FeatureCollection",
  "name": "Benwadi_Gat_87_Cadastre",
  "crs": {
    "type": "name",
    "properties": {
      "name": "urn:ogc:def:crs:OGC:1.3:CRS84"
    }
  },
  "features": [
    {
      "type": "Feature",
      "properties": {
        "parcel_id": "MH-AHM-KAR-BEN-87",
        "survey_no": "87",
        "gat_no": "87",
        "village": "Benwadi (बेनवडी)",
        "taluka": "Karjat (कर्जत)",
        "district": "Ahmednagar (अहमदनगर)",
        "state": "Maharashtra",
        "gis_code": "RVM2613272600130334420000",
        "owner_name": "गयाबाई रामा गदादे, लिलावती बाळासाहेब गदादे, विश्वनाथ रामा गदादे, सतीश बाळासाहेब गदादे, अजिनाथ बाळासाहेब गदादे",
        "all_owners": [
          "गयाबाई रामा गदादे, लिलावती बाळासाहेब गदादे, विश्वनाथ रामा गदादे, सतीश बाळासाहेब गदादे, अजिनाथ बाळासाहेब गदादे"
        ],
        "khata_no": "265",
        "area_sqm": 775.48,
        "area_acres": 0.19,
        "area_guntha": 7.67,
        "land_type": "जिरायत शेती (Jirayat - Rainfed Agricultural)",
        "source": "MahaBhuNaksha Official Live Cadastre",
        "status": "verified",
        "confidence_score": 98.8,
        "old_survey_area_acres": 0.19,
        "old_survey_area_sqm": 775.48,
        "new_survey_area_acres": 0.19,
        "new_survey_area_sqm": 775.48
      },
      "geometry": {
        "type": "Polygon",
        "coordinates": [
          [
            [
              74.9797338,
              18.490221
            ],
            [
              74.9795956,
              18.489858
            ],
            [
              74.979348,
              18.4899487
            ],
            [
              74.9796294,
              18.490226
            ],
            [
              74.9797338,
              18.490221
            ]
          ]
        ]
      }
    }
  ]
}