{
  "type": "FeatureCollection",
  "name": "Benwadi_Gat_392_Drone_Resurvey",
  "crs": {
    "type": "name",
    "properties": {
      "name": "urn:ogc:def:crs:OGC:1.3:CRS84"
    }
  },
  "features": [
    {
      "type": "Feature",
      "properties": {
        "parcel_id": "MH-AHM-KAR-BEN-392",
        "survey_no": "392",
        "gat_no": "392",
        "village": "Benwadi (बेनवडी)",
        "taluka": "Karjat (कर्जत)",
        "district": "Ahmednagar (अहमदनगर)",
        "state": "Maharashtra",
        "gis_code": "RVM2613272600130334420000",
        "owner_name": "आजिनाथ दशरथ गदादे, श्रीकांत बापूसाहेब गायकवाड",
        "all_owners": [
          "आजिनाथ दशरथ गदादे",
          "श्रीकांत बापूसाहेब गायकवाड",
          "मारूती लक्ष्मण गायकवाड",
          "द्रोपदाबाई तूकाराम गदादे",
          "सूभाष बबन गदादे",
          "विजय बापूसाहेब गायकवाड",
          "प्रशांत बापूसाहेब गायकवाड",
          "प्रविन भिमराव सावंत",
          "कमल भिमराव सावंत",
          "सूमन बापूसाहेब गायकवाड"
        ],
        "khata_no": "2629, 321, 888, 974, 983, 292, 134, 2717, 2790, 812",
        "area_sqm": 106637.59,
        "area_acres": 26.35,
        "area_guntha": 1054.04,
        "land_type": "जिरायत शेती (Jirayat - Rainfed Agricultural)",
        "source": "MahaBhuNaksha Official Live Cadastre",
        "status": "needs_review",
        "confidence_score": 84.9,
        "old_survey_area_acres": 26.35,
        "old_survey_area_sqm": 106637.59,
        "new_survey_area_acres": 27.04,
        "new_survey_area_sqm": 109410.2,
        "area_diff_pct": 2.6,
        "mean_shift_m": 2.1,
        "iou_overlap_pct": 93.4,
        "review_reason": "Drone RTK photogrammetry detects a 2.6% area discrepancy (2773 m²) with a mean bund shift of 2.1m along the farm boundary. Verification recommended.",
        "bhunaksha_geometry": {
          "type": "Polygon",
          "coordinates": [
            [
              [
                74.9897674,
                18.501603
              ],
              [
                74.9879238,
                18.5011926
              ],
              [
                74.9875336,
                18.502903
              ],
              [
                74.987291,
                18.5039325
              ],
              [
                74.987236,
                18.5044937
              ],
              [
                74.9886189,
                18.5046745
              ],
              [
                74.9886441,
                18.5051482
              ],
              [
                74.9889611,
                18.5051755
              ],
              [
                74.9903481,
                18.5052343
              ],
              [
                74.990498,
                18.5052363
              ],
              [
                74.990241,
                18.5040534
              ],
              [
                74.9899531,
                18.5025481
              ],
              [
                74.9898552,
                18.5021171
              ],
              [
                74.9897674,
                18.501603
              ]
            ]
          ]
        }
      },
      "geometry": {
        "type": "Polygon",
        "coordinates": [
          [
            [
              74.989766,
              18.5015602
            ],
            [
              74.9878986,
              18.5011445
            ],
            [
              74.9875034,
              18.502877
            ],
            [
              74.9872576,
              18.5039198
            ],
            [
              74.9872019,
              18.5044883
            ],
            [
              74.9886027,
              18.5046714
            ],
            [
              74.9886282,
              18.5051512
            ],
            [
              74.9889493,
              18.5051789
            ],
            [
              74.9903542,
              18.5052384
            ],
            [
              74.990506,
              18.5052405
            ],
            [
              74.9902457,
              18.5040423
            ],
            [
              74.9899541,
              18.5025175
            ],
            [
              74.9898549,
              18.502081
            ],
            [
              74.989766,
              18.5015602
            ]
          ]
        ]
      }
    }
  ]
}