{
  "type": "FeatureCollection",
  "name": "Benwadi_Gat_285_Cadastre",
  "crs": {
    "type": "name",
    "properties": {
      "name": "urn:ogc:def:crs:OGC:1.3:CRS84"
    }
  },
  "features": [
    {
      "type": "Feature",
      "properties": {
        "parcel_id": "MH-AHM-KAR-BEN-285",
        "survey_no": "285",
        "gat_no": "285",
        "village": "Benwadi (बेनवडी)",
        "taluka": "Karjat (कर्जत)",
        "district": "Ahmednagar (अहमदनगर)",
        "state": "Maharashtra",
        "gis_code": "RVM2613272600130334420000",
        "owner_name": "चंदा चंदु देशमूख, छाया भिमराव पवार, ताई चंदु देशमूख, दादा बाजीराव देशमूख, कलावती सुदाम वाळुंजकर, राजु चंदु देशमूख, लता चंदु देशमूख, सुनिल बाजीराव देशमूख, पद्मिनि बाजीराव देशमूख, मंदा धनु देशमूख, मारूती रंगनाथ देशमूख",
        "all_owners": [
          "चंदा चंदु देशमूख, छाया भिमराव पवार, ताई चंदु देशमूख, दादा बाजीराव देशमूख, कलावती सुदाम वाळुंजकर, राजु चंदु देशमूख, लता चंदु देशमूख, सुनिल बाजीराव देशमूख, पद्मिनि बाजीराव देशमूख, मंदा धनु देशमूख",
          "मारूती रंगनाथ देशमूख"
        ],
        "khata_no": "2396, 231",
        "area_sqm": 19564.62,
        "area_acres": 4.83,
        "area_guntha": 193.38,
        "land_type": "जिरायत शेती (Jirayat - Rainfed Agricultural)",
        "source": "MahaBhuNaksha Official Live Cadastre",
        "status": "verified",
        "confidence_score": 98.8,
        "old_survey_area_acres": 4.83,
        "old_survey_area_sqm": 19564.62,
        "new_survey_area_acres": 4.83,
        "new_survey_area_sqm": 19564.62
      },
      "geometry": {
        "type": "Polygon",
        "coordinates": [
          [
            [
              74.9678889,
              18.5005254
            ],
            [
              74.9682474,
              18.500416
            ],
            [
              74.9685282,
              18.5003608
            ],
            [
              74.9682642,
              18.4995289
            ],
            [
              74.967218,
              18.4998301
            ],
            [
              74.9663578,
              18.5000878
            ],
            [
              74.9663706,
              18.5001124
            ],
            [
              74.9664948,
              18.5004179
            ],
            [
              74.9666484,
              18.5008778
            ],
            [
              74.967267,
              18.5007151
            ],
            [
              74.9678889,
              18.5005254
            ]
          ]
        ]
      }
    }
  ]
}