{
  "type": "FeatureCollection",
  "name": "Benwadi_Gat_530_Cadastre",
  "crs": {
    "type": "name",
    "properties": {
      "name": "urn:ogc:def:crs:OGC:1.3:CRS84"
    }
  },
  "features": [
    {
      "type": "Feature",
      "properties": {
        "parcel_id": "MH-AHM-KAR-BEN-530",
        "survey_no": "530",
        "gat_no": "530",
        "village": "Benwadi (बेनवडी)",
        "taluka": "Karjat (कर्जत)",
        "district": "Ahmednagar (अहमदनगर)",
        "state": "Maharashtra",
        "gis_code": "RVM2613272600130334420000",
        "owner_name": "विनायक साहेबराव गदादे, मच्छिंद्र साहेबराव गदादे",
        "all_owners": [
          "विनायक साहेबराव गदादे",
          "मच्छिंद्र साहेबराव गदादे",
          "द्वारकाबाई मारूती वाघमारे",
          "राधाबाई किसन अनारसे",
          "पारूबाई साहेबराव गदादे",
          "बबई देविदास गदादे",
          "पांडूरंग देविदास गदादे",
          "खंडू देविदास गदादे",
          "राधाबाई भरत वाघमारे"
        ],
        "khata_no": "534, 536, 703, 704, 705, 893, 894, 895, 896",
        "area_sqm": 3545.73,
        "area_acres": 0.88,
        "area_guntha": 35.05,
        "land_type": "जिरायत शेती (Jirayat - Rainfed Agricultural)",
        "source": "MahaBhuNaksha Official Live Cadastre",
        "status": "verified",
        "confidence_score": 98.8,
        "old_survey_area_acres": 0.88,
        "old_survey_area_sqm": 3545.73,
        "new_survey_area_acres": 0.88,
        "new_survey_area_sqm": 3545.73
      },
      "geometry": {
        "type": "Polygon",
        "coordinates": [
          [
            [
              74.9796857,
              18.4940645
            ],
            [
              74.9793542,
              18.4927565
            ],
            [
              74.9792298,
              18.4927998
            ],
            [
              74.9793514,
              18.4940804
            ],
            [
              74.9796857,
              18.4940645
            ]
          ]
        ]
      }
    }
  ]
}