{
  "type": "FeatureCollection",
  "name": "Benwadi_Gat_313_Cadastre",
  "crs": {
    "type": "name",
    "properties": {
      "name": "urn:ogc:def:crs:OGC:1.3:CRS84"
    }
  },
  "features": [
    {
      "type": "Feature",
      "properties": {
        "parcel_id": "MH-AHM-KAR-BEN-313",
        "survey_no": "313",
        "gat_no": "313",
        "village": "Benwadi (बेनवडी)",
        "taluka": "Karjat (कर्जत)",
        "district": "Ahmednagar (अहमदनगर)",
        "state": "Maharashtra",
        "gis_code": "RVM2613272600130334420000",
        "owner_name": "सुभाष दत्तू धुमाळ",
        "all_owners": [
          "सुभाष दत्तू धुमाळ"
        ],
        "khata_no": "3308",
        "area_sqm": 6019.7,
        "area_acres": 1.49,
        "area_guntha": 59.5,
        "land_type": "जिरायत शेती (Jirayat - Rainfed Agricultural)",
        "source": "MahaBhuNaksha Official Live Cadastre",
        "status": "verified",
        "confidence_score": 98.8,
        "old_survey_area_acres": 1.49,
        "old_survey_area_sqm": 6019.7,
        "new_survey_area_acres": 1.49,
        "new_survey_area_sqm": 6019.7
      },
      "geometry": {
        "type": "Polygon",
        "coordinates": [
          [
            [
              74.97031,
              18.5038533
            ],
            [
              74.9693172,
              18.5038958
            ],
            [
              74.9693059,
              18.503786
            ],
            [
              74.9686081,
              18.5038297
            ],
            [
              74.9685662,
              18.5038228
            ],
            [
              74.9686299,
              18.5041204
            ],
            [
              74.9691683,
              18.5041439
            ],
            [
              74.9702835,
              18.5041752
            ],
            [
              74.9703076,
              18.5038864
            ],
            [
              74.97031,
              18.5038533
            ]
          ]
        ]
      }
    }
  ]
}