{
  "type": "FeatureCollection",
  "name": "Benwadi_Gat_395_Cadastre",
  "crs": {
    "type": "name",
    "properties": {
      "name": "urn:ogc:def:crs:OGC:1.3:CRS84"
    }
  },
  "features": [
    {
      "type": "Feature",
      "properties": {
        "parcel_id": "MH-AHM-KAR-BEN-395",
        "survey_no": "395",
        "gat_no": "395",
        "village": "Benwadi (बेनवडी)",
        "taluka": "Karjat (कर्जत)",
        "district": "Ahmednagar (अहमदनगर)",
        "state": "Maharashtra",
        "gis_code": "RVM2613272600130334420000",
        "owner_name": "वालचंद नारायण कांबळे, गौतम सगाजी कांबळे, जनाबाई सोनबा बनसोडे, पार्वतीबाई सागाजी कांबळे, भरत सगाजी कांबळे, आजिनाथ सगाजी कांबळे",
        "all_owners": [
          "वालचंद नारायण कांबळे",
          "गौतम सगाजी कांबळे, जनाबाई सोनबा बनसोडे, पार्वतीबाई सागाजी कांबळे, भरत सगाजी कांबळे, आजिनाथ सगाजी कांबळे",
          "नवनाथ संभाजी कांबळे, बाळू संभाजी कांबळे",
          "आप्पा भगवान कांबळे",
          "सोनबा भगवान कांबळे",
          "सूसाबाई श्रावण शेलार",
          "बबई धोंडिबा गायकवाड"
        ],
        "khata_no": "2586, 323, 327, 848, 849, 850, 851",
        "area_sqm": 78589.53,
        "area_acres": 19.42,
        "area_guntha": 776.81,
        "land_type": "जिरायत शेती (Jirayat - Rainfed Agricultural)",
        "source": "MahaBhuNaksha Official Live Cadastre",
        "status": "verified",
        "confidence_score": 98.8,
        "old_survey_area_acres": 19.42,
        "old_survey_area_sqm": 78589.53,
        "new_survey_area_acres": 19.42,
        "new_survey_area_sqm": 78589.53
      },
      "geometry": {
        "type": "Polygon",
        "coordinates": [
          [
            [
              74.9916184,
              18.5019888
            ],
            [
              74.9907064,
              18.501799
            ],
            [
              74.9897674,
              18.501603
            ],
            [
              74.9898552,
              18.5021171
            ],
            [
              74.9899531,
              18.5025481
            ],
            [
              74.990241,
              18.5040534
            ],
            [
              74.990498,
              18.5052363
            ],
            [
              74.9912049,
              18.5052769
            ],
            [
              74.9925854,
              18.5053152
            ],
            [
              74.9923673,
              18.5045222
            ],
            [
              74.991738,
              18.5023892
            ],
            [
              74.9916184,
              18.5019888
            ]
          ]
        ]
      }
    }
  ]
}