{
  "type": "FeatureCollection",
  "name": "Benwadi_Gat_230_Cadastre",
  "crs": {
    "type": "name",
    "properties": {
      "name": "urn:ogc:def:crs:OGC:1.3:CRS84"
    }
  },
  "features": [
    {
      "type": "Feature",
      "properties": {
        "parcel_id": "MH-AHM-KAR-BEN-230",
        "survey_no": "230",
        "gat_no": "230",
        "village": "Benwadi (बेनवडी)",
        "taluka": "Karjat (कर्जत)",
        "district": "Ahmednagar (अहमदनगर)",
        "state": "Maharashtra",
        "gis_code": "RVM2613272600130334420000",
        "owner_name": "महादेव बाळासाहेब गदादे, उध्दव बाळू गदादे",
        "all_owners": [
          "महादेव बाळासाहेब गदादे",
          "उध्दव बाळू गदादे",
          "ताराबाई बबन क्षिरसागर",
          "स्वामी पांडूरंग जायभाय"
        ],
        "khata_no": "2854, 3, 2432, 3373",
        "area_sqm": 35507.67,
        "area_acres": 8.77,
        "area_guntha": 350.97,
        "land_type": "जिरायत शेती (Jirayat - Rainfed Agricultural)",
        "source": "MahaBhuNaksha Official Live Cadastre",
        "status": "verified",
        "confidence_score": 98.8,
        "old_survey_area_acres": 8.77,
        "old_survey_area_sqm": 35507.67,
        "new_survey_area_acres": 8.77,
        "new_survey_area_sqm": 35507.67
      },
      "geometry": {
        "type": "Polygon",
        "coordinates": [
          [
            [
              74.9666548,
              18.487469
            ],
            [
              74.9658893,
              18.4867674
            ],
            [
              74.9650078,
              18.4864302
            ],
            [
              74.9649446,
              18.4864137
            ],
            [
              74.9636981,
              18.4867113
            ],
            [
              74.9648238,
              18.4883043
            ],
            [
              74.9666548,
              18.487469
            ]
          ]
        ]
      }
    }
  ]
}