{
  "type": "FeatureCollection",
  "name": "Benwadi_Gat_204_Cadastre",
  "crs": {
    "type": "name",
    "properties": {
      "name": "urn:ogc:def:crs:OGC:1.3:CRS84"
    }
  },
  "features": [
    {
      "type": "Feature",
      "properties": {
        "parcel_id": "MH-AHM-KAR-BEN-204",
        "survey_no": "204",
        "gat_no": "204",
        "village": "Benwadi (बेनवडी)",
        "taluka": "Karjat (कर्जत)",
        "district": "Ahmednagar (अहमदनगर)",
        "state": "Maharashtra",
        "gis_code": "RVM2613272600130334420000",
        "owner_name": "जगन्नाथ श्रीराम गदादे, सुवर्णा देविदास गदादे, सिंधू रोहिदास गदादे",
        "all_owners": [
          "जगन्नाथ श्रीराम गदादे",
          "सुवर्णा देविदास गदादे, सिंधू रोहिदास गदादे"
        ],
        "khata_no": "2936, 3024",
        "area_sqm": 5370.0,
        "area_acres": 1.33,
        "area_guntha": 53.08,
        "land_type": "जिरायत शेती (Jirayat - Rainfed Agricultural)",
        "source": "MahaBhuNaksha Official Live Cadastre",
        "status": "verified",
        "confidence_score": 98.8,
        "old_survey_area_acres": 1.33,
        "old_survey_area_sqm": 5370.0,
        "new_survey_area_acres": 1.33,
        "new_survey_area_sqm": 5370.0
      },
      "geometry": {
        "type": "Polygon",
        "coordinates": [
          [
            [
              74.959416,
              18.4841076
            ],
            [
              74.9590964,
              18.4826346
            ],
            [
              74.9589348,
              18.4826389
            ],
            [
              74.9588522,
              18.482385
            ],
            [
              74.9587324,
              18.4824319
            ],
            [
              74.9591643,
              18.4841461
            ],
            [
              74.959416,
              18.4841076
            ]
          ]
        ]
      }
    }
  ]
}