{
  "type": "FeatureCollection",
  "name": "Benwadi_Gat_252_Cadastre",
  "crs": {
    "type": "name",
    "properties": {
      "name": "urn:ogc:def:crs:OGC:1.3:CRS84"
    }
  },
  "features": [
    {
      "type": "Feature",
      "properties": {
        "parcel_id": "MH-AHM-KAR-BEN-252",
        "survey_no": "252",
        "gat_no": "252",
        "village": "Benwadi (बेनवडी)",
        "taluka": "Karjat (कर्जत)",
        "district": "Ahmednagar (अहमदनगर)",
        "state": "Maharashtra",
        "gis_code": "RVM2613272600130334420000",
        "owner_name": "महादेव  श्रीरंग  नाळे, गहिनीनाथ  श्रीरंग  नाळे, किरण विठ्ठल फरांडे",
        "all_owners": [
          "महादेव  श्रीरंग  नाळे, गहिनीनाथ  श्रीरंग  नाळे",
          "किरण विठ्ठल फरांडे",
          "कमल सोपान गदादे",
          "निलेश सोपान गदादे, कल्पना संजय जाधव, मनिषा बाबासाहेब टिळेकर, नंदा श्याम बोराटे",
          "रुक्मिणी विट्ठल फरांडे",
          "माणिक भगवान फरांडे",
          "विनायक भगवान फरांडे",
          "नवनाथ भगवान फरांडे",
          "कमल पांडूरंग फरांडे",
          "संपत पांडुरंग फरांडे",
          "बाळू गणपत फरांडें",
          "मंगल दत्तात्रय फरांडे",
          "मंगल दत्तात्रय फरांडे",
          "मंगल दत्तात्रय फरांडे"
        ],
        "khata_no": "2588, 3232, 3311, 3312, 3479, 696, 697, 698, 784, 785, 950, 3067, 3067, 3067",
        "area_sqm": 87335.8,
        "area_acres": 21.58,
        "area_guntha": 863.26,
        "land_type": "जिरायत शेती (Jirayat - Rainfed Agricultural)",
        "source": "MahaBhuNaksha Official Live Cadastre",
        "status": "verified",
        "confidence_score": 98.8,
        "old_survey_area_acres": 21.58,
        "old_survey_area_sqm": 87335.8,
        "new_survey_area_acres": 21.58,
        "new_survey_area_sqm": 87335.8
      },
      "geometry": {
        "type": "Polygon",
        "coordinates": [
          [
            [
              74.9728775,
              18.496537
            ],
            [
              74.9728849,
              18.4964287
            ],
            [
              74.9726199,
              18.4954246
            ],
            [
              74.9724634,
              18.4947784
            ],
            [
              74.9721578,
              18.4948455
            ],
            [
              74.9714494,
              18.4949965
            ],
            [
              74.9713603,
              18.4950543
            ],
            [
              74.9706647,
              18.4953133
            ],
            [
              74.9697218,
              18.4958436
            ],
            [
              74.9698874,
              18.4960656
            ],
            [
              74.9706143,
              18.4970635
            ],
            [
              74.9713592,
              18.4980731
            ],
            [
              74.972167,
              18.4991542
            ],
            [
              74.972337,
              18.4990465
            ],
            [
              74.9721906,
              18.4982786
            ],
            [
              74.9727335,
              18.4979016
            ],
            [
              74.9727631,
              18.4975927
            ],
            [
              74.9728734,
              18.4966891
            ],
            [
              74.9728775,
              18.496537
            ]
          ]
        ]
      }
    }
  ]
}