{
  "type": "FeatureCollection",
  "name": "Benwadi_Gat_41_Drone_Resurvey",
  "crs": {
    "type": "name",
    "properties": {
      "name": "urn:ogc:def:crs:OGC:1.3:CRS84"
    }
  },
  "features": [
    {
      "type": "Feature",
      "properties": {
        "parcel_id": "MH-AHM-KAR-BEN-41",
        "survey_no": "41",
        "gat_no": "41",
        "village": "Benwadi (बेनवडी)",
        "taluka": "Karjat (कर्जत)",
        "district": "Ahmednagar (अहमदनगर)",
        "state": "Maharashtra",
        "gis_code": "RVM2613272600130334420000",
        "owner_name": "लहू भिमराव दवणे, दत्तू भिमराव दवणे, मच्छिंद्र भिमराव दवणे, मालन अंकुश सातव, शालन शहाजी भोसले, लताबाई सोपान सातव, सुजाता सिघ्देश्वर गदादे",
        "all_owners": [
          "लहू भिमराव दवणे, दत्तू भिमराव दवणे, मच्छिंद्र भिमराव दवणे, मालन अंकुश सातव, शालन शहाजी भोसले, लताबाई सोपान सातव",
          "सुजाता सिघ्देश्वर गदादे",
          "विष्णु रामभाऊ नेटके, दादा रामभाऊ नेटके, देऊबाई साहेबराव रोकडे, पारुबाई रामभाऊ नेटके, संपत रामभाऊ  नेटके",
          "अंजना दिलीप बोरगे, गोरख रामभाऊ दवणे, चांगुणा चंदर होलम, अरुण रामभाऊ दवणे, अंकुश रामभाऊ दवणे",
          "सूरेश भिमा बिबे",
          "नंदाबाई महादेव गदादे, जनाबाई सुनील सायकर, सोमनाथ महादेव गदादे, राणी नितिन शिंदे, यमुनाबाई महादेव गदादे, धनराज महादेव गदादे"
        ],
        "khata_no": "210, 2627, 271, 272, 353, 421",
        "area_sqm": 61178.28,
        "area_acres": 15.12,
        "area_guntha": 604.71,
        "land_type": "जिरायत शेती (Jirayat - Rainfed Agricultural)",
        "source": "MahaBhuNaksha Official Live Cadastre",
        "status": "needs_review",
        "confidence_score": 84.8,
        "old_survey_area_acres": 15.12,
        "old_survey_area_sqm": 61178.28,
        "new_survey_area_acres": 15.53,
        "new_survey_area_sqm": 62830.1,
        "area_diff_pct": 2.7,
        "mean_shift_m": 2.0,
        "iou_overlap_pct": 93.3,
        "review_reason": "Drone RTK photogrammetry detects a 2.7% area discrepancy (1652 m²) with a mean bund shift of 2.0m along the farm boundary. Verification recommended.",
        "bhunaksha_geometry": {
          "type": "Polygon",
          "coordinates": [
            [
              [
                74.9885909,
                18.4878113
              ],
              [
                74.9884316,
                18.487212
              ],
              [
                74.9883343,
                18.4868423
              ],
              [
                74.9882233,
                18.4864606
              ],
              [
                74.9875224,
                18.4868341
              ],
              [
                74.9869979,
                18.4871177
              ],
              [
                74.986774,
                18.4872513
              ],
              [
                74.9868702,
                18.4877898
              ],
              [
                74.9861708,
                18.4880701
              ],
              [
                74.9848368,
                18.4883541
              ],
              [
                74.9841773,
                18.488504
              ],
              [
                74.9843947,
                18.4896241
              ],
              [
                74.9851562,
                18.489487
              ],
              [
                74.9857226,
                18.489249
              ],
              [
                74.9866227,
                18.4888727
              ],
              [
                74.9875745,
                18.4883515
              ],
              [
                74.9885909,
                18.4878113
              ]
            ]
          ]
        }
      },
      "geometry": {
        "type": "Polygon",
        "coordinates": [
          [
            [
              74.988627,
              18.4877936
            ],
            [
              74.9884655,
              18.4871863
            ],
            [
              74.9883669,
              18.4868117
            ],
            [
              74.9882545,
              18.4864248
            ],
            [
              74.9875442,
              18.4868033
            ],
            [
              74.9870126,
              18.4870907
            ],
            [
              74.9867857,
              18.4872261
            ],
            [
              74.9868832,
              18.4877719
            ],
            [
              74.9861744,
              18.4880559
            ],
            [
              74.9848225,
              18.4883437
            ],
            [
              74.9841542,
              18.4884956
            ],
            [
              74.9843745,
              18.4896308
            ],
            [
              74.9851462,
              18.4894918
            ],
            [
              74.9857202,
              18.4892506
            ],
            [
              74.9866324,
              18.4888693
            ],
            [
              74.987597,
              18.4883411
            ],
            [
              74.988627,
              18.4877936
            ]
          ]
        ]
      }
    }
  ]
}