{
  "type": "FeatureCollection",
  "name": "Benwadi_Gat_231_Drone_Resurvey",
  "crs": {
    "type": "name",
    "properties": {
      "name": "urn:ogc:def:crs:OGC:1.3:CRS84"
    }
  },
  "features": [
    {
      "type": "Feature",
      "properties": {
        "parcel_id": "MH-AHM-KAR-BEN-231",
        "survey_no": "231",
        "gat_no": "231",
        "village": "Benwadi (बेनवडी)",
        "taluka": "Karjat (कर्जत)",
        "district": "Ahmednagar (अहमदनगर)",
        "state": "Maharashtra",
        "gis_code": "RVM2613272600130334420000",
        "owner_name": "पंढरीनाथ शंकर देशमूख, पार्वती शंकर देशमूख",
        "all_owners": [
          "पंढरीनाथ शंकर देशमूख",
          "पार्वती शंकर देशमूख",
          "बूवासाहेब शंकर देशमूख",
          "श्वेता कल्याण देशमुख, सारिका प्रशांत शिंदे, सोनाली समीर जगताप, हनुमंत दिगांबर देशमुख, ईश्वर कल्याण देशमुख, मीरा कल्याण देशमुख, केशर महादेव यादव, ठकूबाई दिगांबर देशमुख"
        ],
        "khata_no": "141, 149, 184, 3004",
        "area_sqm": 73967.7,
        "area_acres": 18.28,
        "area_guntha": 731.12,
        "land_type": "जिरायत शेती (Jirayat - Rainfed Agricultural)",
        "source": "MahaBhuNaksha Official Live Cadastre",
        "status": "needs_review",
        "confidence_score": 84.8,
        "old_survey_area_acres": 18.28,
        "old_survey_area_sqm": 73967.7,
        "new_survey_area_acres": 18.77,
        "new_survey_area_sqm": 75964.8,
        "area_diff_pct": 2.7,
        "mean_shift_m": 1.4,
        "iou_overlap_pct": 93.3,
        "review_reason": "Drone RTK photogrammetry detects a 2.7% area discrepancy (1997 m²) with a mean bund shift of 1.4m along the farm boundary. Verification recommended.",
        "bhunaksha_geometry": {
          "type": "Polygon",
          "coordinates": [
            [
              [
                74.9629844,
                18.4890001
              ],
              [
                74.9644914,
                18.4883126
              ],
              [
                74.9638218,
                18.4874587
              ],
              [
                74.9634009,
                18.4869009
              ],
              [
                74.9633053,
                18.4868132
              ],
              [
                74.9624369,
                18.4869756
              ],
              [
                74.9625765,
                18.4877649
              ],
              [
                74.9604796,
                18.4878882
              ],
              [
                74.9602658,
                18.4879101
              ],
              [
                74.9601488,
                18.4887267
              ],
              [
                74.9600656,
                18.4895563
              ],
              [
                74.9616421,
                18.4892361
              ],
              [
                74.9629385,
                18.4889863
              ],
              [
                74.9629844,
                18.4890001
              ]
            ]
          ]
        }
      },
      "geometry": {
        "type": "Polygon",
        "coordinates": [
          [
            [
              74.9630039,
              18.4890026
            ],
            [
              74.9645311,
              18.4883059
            ],
            [
              74.9638525,
              18.4874405
            ],
            [
              74.9634259,
              18.4868752
            ],
            [
              74.9633291,
              18.4867863
            ],
            [
              74.962449,
              18.4869509
            ],
            [
              74.9625905,
              18.4877508
            ],
            [
              74.9604655,
              18.4878758
            ],
            [
              74.9602488,
              18.487898
            ],
            [
              74.9601302,
              18.4887255
            ],
            [
              74.9600459,
              18.4895662
            ],
            [
              74.9616435,
              18.4892417
            ],
            [
              74.9629573,
              18.4889886
            ],
            [
              74.9630039,
              18.4890026
            ]
          ]
        ]
      }
    }
  ]
}