{
  "type": "FeatureCollection",
  "name": "Benwadi_Gat_385_Drone_Resurvey",
  "crs": {
    "type": "name",
    "properties": {
      "name": "urn:ogc:def:crs:OGC:1.3:CRS84"
    }
  },
  "features": [
    {
      "type": "Feature",
      "properties": {
        "parcel_id": "MH-AHM-KAR-BEN-385",
        "survey_no": "385",
        "gat_no": "385",
        "village": "Benwadi (बेनवडी)",
        "taluka": "Karjat (कर्जत)",
        "district": "Ahmednagar (अहमदनगर)",
        "state": "Maharashtra",
        "gis_code": "RVM2613272600130334420000",
        "owner_name": "बबन तूकाराम गदादे, दत्तू तूकाराम गदादे, आबा तूकाराम गदादे, सोमनाथ  महादेव  गदादे",
        "all_owners": [
          "बबन तूकाराम गदादे, दत्तू तूकाराम गदादे, आबा तूकाराम गदादे",
          "सोमनाथ  महादेव  गदादे",
          "रामदास धोंडीबा गदादे, लक्ष्मण धोंडीबा गदादे, शिवराम धोंडीबा गदादे, दशरथ धोंडीबा गदादे, मारुती धोंडीबा गदादे, देविदास धोंडीबा गदादे"
        ],
        "khata_no": "2872, 2884, 3018",
        "area_sqm": 941.65,
        "area_acres": 0.23,
        "area_guntha": 9.31,
        "land_type": "जिरायत शेती (Jirayat - Rainfed Agricultural)",
        "source": "MahaBhuNaksha Official Live Cadastre",
        "status": "needs_review",
        "confidence_score": 85.2,
        "old_survey_area_acres": 0.23,
        "old_survey_area_sqm": 941.65,
        "new_survey_area_acres": 0.24,
        "new_survey_area_sqm": 963.3,
        "area_diff_pct": 2.3,
        "mean_shift_m": 2.0,
        "iou_overlap_pct": 93.7,
        "review_reason": "Drone RTK photogrammetry detects a 2.3% area discrepancy (22 m²) with a mean bund shift of 2.0m along the farm boundary. Verification recommended.",
        "bhunaksha_geometry": {
          "type": "Polygon",
          "coordinates": [
            [
              [
                74.9844467,
                18.5030626
              ],
              [
                74.9844079,
                18.5028549
              ],
              [
                74.984015,
                18.5029061
              ],
              [
                74.9840612,
                18.5031028
              ],
              [
                74.9844467,
                18.5030626
              ]
            ]
          ]
        }
      },
      "geometry": {
        "type": "Polygon",
        "coordinates": [
          [
            [
              74.9844478,
              18.5030815
            ],
            [
              74.9844086,
              18.5028714
            ],
            [
              74.9840112,
              18.5029232
            ],
            [
              74.9840579,
              18.5031221
            ],
            [
              74.9844478,
              18.5030815
            ]
          ]
        ]
      }
    }
  ]
}