{
  "type": "FeatureCollection",
  "name": "Benwadi_Gat_124_Cadastre",
  "crs": {
    "type": "name",
    "properties": {
      "name": "urn:ogc:def:crs:OGC:1.3:CRS84"
    }
  },
  "features": [
    {
      "type": "Feature",
      "properties": {
        "parcel_id": "MH-AHM-KAR-BEN-124",
        "survey_no": "124",
        "gat_no": "124",
        "village": "Benwadi (बेनवडी)",
        "taluka": "Karjat (कर्जत)",
        "district": "Ahmednagar (अहमदनगर)",
        "state": "Maharashtra",
        "gis_code": "RVM2613272600130334420000",
        "owner_name": "भागवत दगडू गदादे, कल्याण दगडू गदादे",
        "all_owners": [
          "भागवत दगडू गदादे",
          "कल्याण दगडू गदादे"
        ],
        "khata_no": "195, 26",
        "area_sqm": 11321.27,
        "area_acres": 2.8,
        "area_guntha": 111.9,
        "land_type": "जिरायत शेती (Jirayat - Rainfed Agricultural)",
        "source": "MahaBhuNaksha Official Live Cadastre",
        "status": "verified",
        "confidence_score": 98.8,
        "old_survey_area_acres": 2.8,
        "old_survey_area_sqm": 11321.27,
        "new_survey_area_acres": 2.8,
        "new_survey_area_sqm": 11321.27
      },
      "geometry": {
        "type": "Polygon",
        "coordinates": [
          [
            [
              74.9805543,
              18.4851345
            ],
            [
              74.980406,
              18.4849963
            ],
            [
              74.9792153,
              18.4854411
            ],
            [
              74.9769617,
              18.4862433
            ],
            [
              74.9756602,
              18.4867131
            ],
            [
              74.9756737,
              18.4869074
            ],
            [
              74.9765527,
              18.4866021
            ],
            [
              74.9778998,
              18.4861076
            ],
            [
              74.9794671,
              18.4855486
            ],
            [
              74.9805543,
              18.4851345
            ]
          ]
        ]
      }
    }
  ]
}