{
  "type": "FeatureCollection",
  "name": "Benwadi_Gat_229_Cadastre",
  "crs": {
    "type": "name",
    "properties": {
      "name": "urn:ogc:def:crs:OGC:1.3:CRS84"
    }
  },
  "features": [
    {
      "type": "Feature",
      "properties": {
        "parcel_id": "MH-AHM-KAR-BEN-229",
        "survey_no": "229",
        "gat_no": "229",
        "village": "Benwadi (बेनवडी)",
        "taluka": "Karjat (कर्जत)",
        "district": "Ahmednagar (अहमदनगर)",
        "state": "Maharashtra",
        "gis_code": "RVM2613272600130334420000",
        "owner_name": "गूरूदास ज्ञानदेव देशमूख, उत्तम ज्ञानदेव देशमूख",
        "all_owners": [
          "गूरूदास ज्ञानदेव देशमूख",
          "उत्तम ज्ञानदेव देशमूख",
          "शशिकला बलभीम देशमुख"
        ],
        "khata_no": "2793, 2959, 3155",
        "area_sqm": 11047.53,
        "area_acres": 2.73,
        "area_guntha": 109.2,
        "land_type": "जिरायत शेती (Jirayat - Rainfed Agricultural)",
        "source": "MahaBhuNaksha Official Live Cadastre",
        "status": "verified",
        "confidence_score": 98.8,
        "old_survey_area_acres": 2.73,
        "old_survey_area_sqm": 11047.53,
        "new_survey_area_acres": 2.73,
        "new_survey_area_sqm": 11047.53
      },
      "geometry": {
        "type": "Polygon",
        "coordinates": [
          [
            [
              74.9624369,
              18.4869756
            ],
            [
              74.9633053,
              18.4868132
            ],
            [
              74.9628964,
              18.4861818
            ],
            [
              74.9614049,
              18.4866933
            ],
            [
              74.9615689,
              18.4870559
            ],
            [
              74.9624369,
              18.4869756
            ]
          ]
        ]
      }
    }
  ]
}