{
  "type": "FeatureCollection",
  "name": "Benwadi_Gat_233_Cadastre",
  "crs": {
    "type": "name",
    "properties": {
      "name": "urn:ogc:def:crs:OGC:1.3:CRS84"
    }
  },
  "features": [
    {
      "type": "Feature",
      "properties": {
        "parcel_id": "MH-AHM-KAR-BEN-233",
        "survey_no": "233",
        "gat_no": "233",
        "village": "Benwadi (बेनवडी)",
        "taluka": "Karjat (कर्जत)",
        "district": "Ahmednagar (अहमदनगर)",
        "state": "Maharashtra",
        "gis_code": "RVM2613272600130334420000",
        "owner_name": "गूरूदास ज्ञानदेव देशमूख, उत्तम ज्ञानदेव देशमूख",
        "all_owners": [
          "गूरूदास ज्ञानदेव देशमूख",
          "उत्तम ज्ञानदेव देशमूख",
          "रघुनाथ बलभीम देशमुख"
        ],
        "khata_no": "2793, 2959, 3157",
        "area_sqm": 19787.55,
        "area_acres": 4.89,
        "area_guntha": 195.59,
        "land_type": "जिरायत शेती (Jirayat - Rainfed Agricultural)",
        "source": "MahaBhuNaksha Official Live Cadastre",
        "status": "verified",
        "confidence_score": 98.8,
        "old_survey_area_acres": 4.89,
        "old_survey_area_sqm": 19787.55,
        "new_survey_area_acres": 4.89,
        "new_survey_area_sqm": 19787.55
      },
      "geometry": {
        "type": "Polygon",
        "coordinates": [
          [
            [
              74.9600656,
              18.4895563
            ],
            [
              74.9601488,
              18.4887267
            ],
            [
              74.9602658,
              18.4879101
            ],
            [
              74.9604796,
              18.4878882
            ],
            [
              74.9603758,
              18.4870963
            ],
            [
              74.9595307,
              18.4871359
            ],
            [
              74.959601,
              18.4877184
            ],
            [
              74.9594808,
              18.4877658
            ],
            [
              74.9596392,
              18.489641
            ],
            [
              74.9600656,
              18.4895563
            ]
          ]
        ]
      }
    }
  ]
}