{
  "type": "FeatureCollection",
  "name": "Benwadi_Gat_117_Drone_Resurvey",
  "crs": {
    "type": "name",
    "properties": {
      "name": "urn:ogc:def:crs:OGC:1.3:CRS84"
    }
  },
  "features": [
    {
      "type": "Feature",
      "properties": {
        "parcel_id": "MH-AHM-KAR-BEN-117",
        "survey_no": "117",
        "gat_no": "117",
        "village": "Benwadi (बेनवडी)",
        "taluka": "Karjat (कर्जत)",
        "district": "Ahmednagar (अहमदनगर)",
        "state": "Maharashtra",
        "gis_code": "RVM2613272600130334420000",
        "owner_name": "मीराबाई दादा खुडे, लाला दादा खुडे, नाना दादा खुडे, मधुकर दादा खुडे, आजिनाथ बापू खुडे",
        "all_owners": [
          "मीराबाई दादा खुडे, लाला दादा खुडे, नाना दादा खुडे, मधुकर दादा खुडे",
          "आजिनाथ बापू खुडे",
          "सोजाबाई संतराम भिसे, शालन जवान भिसे, धोंडिबा विठठल खुडे, वैजाबाई साहेबराव भिसे, मालन हनुमंत टावरे",
          "ओंकार नवनाथ खुडे, महेश नवनाथ खुडे, मिराबाई  पंडित  वेळेकर, छाया \t नामदेव  शिंदे, लता नवनाथ खुडे, संगिता  बाळू  शिंदे, दत्तू  धर्मा  खुडे, अलका  संभाजी  उल्हारे, हिराबाई  दादू  शिंदे",
          "कांतीलाल छगन खुडे, इंदू छगन खुडे, अनिल विजय खुडे, मनिषा शशिकांत कांबळे, निर्मला शिवाजी खुडे, नर्मदा शिवाजी खुडे, त्रिंबक विश्वनाथ खुडे, दिव्या विजय खुडे, राजेंद्र शिवाजी खुडे, संतोष छगन खुडे, सपना विजय खुडे, सोमनाथ विजय खुडे, बबन विश्वनाथ  खुडे",
          "सूखदेव बापु खूडे"
        ],
        "khata_no": "102, 18, 2288, 2602, 290, 350",
        "area_sqm": 1043.92,
        "area_acres": 0.26,
        "area_guntha": 10.32,
        "land_type": "जिरायत शेती (Jirayat - Rainfed Agricultural)",
        "source": "MahaBhuNaksha Official Live Cadastre",
        "status": "needs_review",
        "confidence_score": 85.5,
        "old_survey_area_acres": 0.26,
        "old_survey_area_sqm": 1043.92,
        "new_survey_area_acres": 0.27,
        "new_survey_area_sqm": 1065.8,
        "area_diff_pct": 2.1,
        "mean_shift_m": 2.0,
        "iou_overlap_pct": 93.9,
        "review_reason": "Drone RTK photogrammetry detects a 2.1% area discrepancy (22 m²) with a mean bund shift of 2.0m along the farm boundary. Verification recommended.",
        "bhunaksha_geometry": {
          "type": "Polygon",
          "coordinates": [
            [
              [
                74.9751034,
                18.4898589
              ],
              [
                74.9751005,
                18.4898295
              ],
              [
                74.9750996,
                18.4898209
              ],
              [
                74.9750911,
                18.4897336
              ],
              [
                74.9750668,
                18.4895379
              ],
              [
                74.975029,
                18.4895402
              ],
              [
                74.9748088,
                18.4895539
              ],
              [
                74.9748067,
                18.4897751
              ],
              [
                74.9748464,
                18.4898838
              ],
              [
                74.9751034,
                18.4898589
              ]
            ]
          ]
        }
      },
      "geometry": {
        "type": "Polygon",
        "coordinates": [
          [
            [
              74.975121,
              18.4898693
            ],
            [
              74.975118,
              18.4898396
            ],
            [
              74.9751171,
              18.4898309
            ],
            [
              74.9751085,
              18.4897427
            ],
            [
              74.975084,
              18.4895449
            ],
            [
              74.9750458,
              18.4895473
            ],
            [
              74.9748233,
              18.4895611
            ],
            [
              74.9748212,
              18.4897846
            ],
            [
              74.9748613,
              18.4898944
            ],
            [
              74.975121,
              18.4898693
            ]
          ]
        ]
      }
    }
  ]
}