{
  "type": "FeatureCollection",
  "name": "Benwadi_Gat_516_Drone_Resurvey",
  "crs": {
    "type": "name",
    "properties": {
      "name": "urn:ogc:def:crs:OGC:1.3:CRS84"
    }
  },
  "features": [
    {
      "type": "Feature",
      "properties": {
        "parcel_id": "MH-AHM-KAR-BEN-516",
        "survey_no": "516",
        "gat_no": "516",
        "village": "Benwadi (बेनवडी)",
        "taluka": "Karjat (कर्जत)",
        "district": "Ahmednagar (अहमदनगर)",
        "state": "Maharashtra",
        "gis_code": "RVM2613272600130334420000",
        "owner_name": "छगन नामदेव गदादे, ज्ञानदेव नामदेव गदादे",
        "all_owners": [
          "छगन नामदेव गदादे",
          "ज्ञानदेव नामदेव गदादे"
        ],
        "khata_no": "815, 813",
        "area_sqm": 8116.65,
        "area_acres": 2.01,
        "area_guntha": 80.23,
        "land_type": "जिरायत शेती (Jirayat - Rainfed Agricultural)",
        "source": "MahaBhuNaksha Official Live Cadastre",
        "status": "needs_review",
        "confidence_score": 85.4,
        "old_survey_area_acres": 2.01,
        "old_survey_area_sqm": 8116.65,
        "new_survey_area_acres": 2.05,
        "new_survey_area_sqm": 8295.2,
        "area_diff_pct": 2.2,
        "mean_shift_m": 1.7,
        "iou_overlap_pct": 93.8,
        "review_reason": "Drone RTK photogrammetry detects a 2.2% area discrepancy (179 m²) with a mean bund shift of 1.7m along the farm boundary. Verification recommended.",
        "bhunaksha_geometry": {
          "type": "Polygon",
          "coordinates": [
            [
              [
                74.9830898,
                18.4943535
              ],
              [
                74.9833445,
                18.4943266
              ],
              [
                74.9832906,
                18.4939519
              ],
              [
                74.982648,
                18.4940331
              ],
              [
                74.9822348,
                18.4940893
              ],
              [
                74.9821942,
                18.494097
              ],
              [
                74.9818766,
                18.4941338
              ],
              [
                74.9813157,
                18.494209
              ],
              [
                74.9813899,
                18.494521
              ],
              [
                74.9820598,
                18.4944574
              ],
              [
                74.9822385,
                18.4944382
              ],
              [
                74.9825095,
                18.4944126
              ],
              [
                74.9830221,
                18.4943622
              ],
              [
                74.9830898,
                18.4943535
              ]
            ]
          ]
        }
      },
      "geometry": {
        "type": "Polygon",
        "coordinates": [
          [
            [
              74.9831083,
              18.4943657
            ],
            [
              74.9833658,
              18.4943385
            ],
            [
              74.9833113,
              18.4939597
            ],
            [
              74.9826617,
              18.4940418
            ],
            [
              74.982244,
              18.4940986
            ],
            [
              74.9822029,
              18.4941064
            ],
            [
              74.9818819,
              18.4941436
            ],
            [
              74.9813148,
              18.4942196
            ],
            [
              74.9813898,
              18.494535
            ],
            [
              74.9820671,
              18.4944707
            ],
            [
              74.9822477,
              18.4944513
            ],
            [
              74.9825217,
              18.4944255
            ],
            [
              74.9830399,
              18.4943745
            ],
            [
              74.9831083,
              18.4943657
            ]
          ]
        ]
      }
    }
  ]
}