{
  "type": "FeatureCollection",
  "name": "Benwadi_Gat_422_Cadastre",
  "crs": {
    "type": "name",
    "properties": {
      "name": "urn:ogc:def:crs:OGC:1.3:CRS84"
    }
  },
  "features": [
    {
      "type": "Feature",
      "properties": {
        "parcel_id": "MH-AHM-KAR-BEN-422",
        "survey_no": "422",
        "gat_no": "422",
        "village": "Benwadi (बेनवडी)",
        "taluka": "Karjat (कर्जत)",
        "district": "Ahmednagar (अहमदनगर)",
        "state": "Maharashtra",
        "gis_code": "RVM2613272600130334420000",
        "owner_name": "प्रसाद कांतीलाल शहा, शेखर कांतीलाल शहा",
        "all_owners": [
          "प्रसाद कांतीलाल शहा, शेखर कांतीलाल शहा"
        ],
        "khata_no": "2",
        "area_sqm": 12065.83,
        "area_acres": 2.98,
        "area_guntha": 119.26,
        "land_type": "जिरायत शेती (Jirayat - Rainfed Agricultural)",
        "source": "MahaBhuNaksha Official Live Cadastre",
        "status": "verified",
        "confidence_score": 98.8,
        "old_survey_area_acres": 2.98,
        "old_survey_area_sqm": 12065.83,
        "new_survey_area_acres": 2.98,
        "new_survey_area_sqm": 12065.83
      },
      "geometry": {
        "type": "Polygon",
        "coordinates": [
          [
            [
              74.9983762,
              18.4897086
            ],
            [
              74.9982038,
              18.4894107
            ],
            [
              74.9977151,
              18.488406
            ],
            [
              74.9970817,
              18.4887283
            ],
            [
              74.9977117,
              18.4900209
            ],
            [
              74.9983762,
              18.4897086
            ]
          ]
        ]
      }
    }
  ]
}