{
  "type": "FeatureCollection",
  "name": "Benwadi_Gat_113_Cadastre",
  "crs": {
    "type": "name",
    "properties": {
      "name": "urn:ogc:def:crs:OGC:1.3:CRS84"
    }
  },
  "features": [
    {
      "type": "Feature",
      "properties": {
        "parcel_id": "MH-AHM-KAR-BEN-113",
        "survey_no": "113",
        "gat_no": "113",
        "village": "Benwadi (बेनवडी)",
        "taluka": "Karjat (कर्जत)",
        "district": "Ahmednagar (अहमदनगर)",
        "state": "Maharashtra",
        "gis_code": "RVM2613272600130334420000",
        "owner_name": "लाला दादा खुडे, नाना दादा खुडे, मधुकर दादा खुडे, मीराबाई दादा खुडे, आजिनाथ बापू खुडे",
        "all_owners": [
          "लाला दादा खुडे, नाना दादा खुडे, मधुकर दादा खुडे, मीराबाई दादा खुडे",
          "आजिनाथ बापू खुडे",
          "लता नवनाथ खुडे, हिराबाई  दादू  शिंदे, ओंकार नवनाथ खुडे, महेश नवनाथ खुडे, मिराबाई  पंडित  वेळेकर, छाया \t नामदेव  शिंदे, संगिता  बाळू  शिंदे, अलका  संभाजी  उल्हारे, दत्तू  धर्मा  खुडे",
          "सोमनाथ विजय खुडे, नर्मदा शिवाजी खुडे, निर्मला शिवाजी खुडे, मनिषा शशिकांत कांबळे, अनिल विजय खुडे, इंदू छगन खुडे, कांतीलाल छगन खुडे, त्रिंबक विश्वनाथ खुडे, दिव्या विजय खुडे, राजेंद्र शिवाजी खुडे, संतोष छगन खुडे, सपना विजय खुडे, बबन विश्वनाथ  खुडे",
          "शालन जबान भिसे, मालन हनुमंत डावरे, वैजाबाई साहेबराव भिसे, धोंडीबा विठ्ठल खुडे, सोजाबाई संतराम भिसे",
          "सूखदेव बापु खूडे"
        ],
        "khata_no": "102, 18, 2602, 290, 3095, 350",
        "area_sqm": 5089.7,
        "area_acres": 1.26,
        "area_guntha": 50.31,
        "land_type": "जिरायत शेती (Jirayat - Rainfed Agricultural)",
        "source": "MahaBhuNaksha Official Live Cadastre",
        "status": "verified",
        "confidence_score": 98.8,
        "old_survey_area_acres": 1.26,
        "old_survey_area_sqm": 5089.7,
        "new_survey_area_acres": 1.26,
        "new_survey_area_sqm": 5089.7
      },
      "geometry": {
        "type": "Polygon",
        "coordinates": [
          [
            [
              74.9754346,
              18.4885562
            ],
            [
              74.9755439,
              18.4885307
            ],
            [
              74.9754967,
              18.4883589
            ],
            [
              74.9754445,
              18.4881804
            ],
            [
              74.9755834,
              18.4881077
            ],
            [
              74.9755454,
              18.4879327
            ],
            [
              74.9754752,
              18.4875517
            ],
            [
              74.9754259,
              18.4873313
            ],
            [
              74.9750963,
              18.4874465
            ],
            [
              74.9750863,
              18.4877189
            ],
            [
              74.9750801,
              18.487885
            ],
            [
              74.9750768,
              18.4880178
            ],
            [
              74.9750758,
              18.4880535
            ],
            [
              74.9750877,
              18.488245
            ],
            [
              74.9752395,
              18.488243
            ],
            [
              74.9752572,
              18.4883332
            ],
            [
              74.9752739,
              18.4884074
            ],
            [
              74.9753088,
              18.4885904
            ],
            [
              74.9754346,
              18.4885562
            ]
          ]
        ]
      }
    }
  ]
}