{
  "type": "FeatureCollection",
  "name": "Benwadi_Gat_267_Cadastre",
  "crs": {
    "type": "name",
    "properties": {
      "name": "urn:ogc:def:crs:OGC:1.3:CRS84"
    }
  },
  "features": [
    {
      "type": "Feature",
      "properties": {
        "parcel_id": "MH-AHM-KAR-BEN-267",
        "survey_no": "267",
        "gat_no": "267",
        "village": "Benwadi (बेनवडी)",
        "taluka": "Karjat (कर्जत)",
        "district": "Ahmednagar (अहमदनगर)",
        "state": "Maharashtra",
        "gis_code": "RVM2613272600130334420000",
        "owner_name": "बाळु विठ्ठल धुमाळ, नारायण तुकाराम धूमाळ",
        "all_owners": [
          "बाळु विठ्ठल धुमाळ",
          "नारायण तुकाराम धूमाळ",
          "दादा विठ्ठल  धुमाळ",
          "सिंधुबाई नवनाथ फरांडे",
          "वसंत बयाजी धूमाळ",
          "हनुमान सखाराम भोसले, दादा आप्पा कवडे, शारदा कल्याण धुमाळ, आश्रू भाऊसाहेब धुमाळ",
          "बापूराव रंगनाथ कांबळे, निखिल पांडुरंग कांबळे अ पा क आई सुनिता पांडुरंग कांबळे, निवृत्ती गेना धुमाळ, बायडा भिमराव गाडे, मनीषा सतीश नवले, मिराबाई प्रकाश उजागरे, राहीबाई रंगनाथ कांबळे, विठाबाई दत्तात्रय फरांडे, विमल हरिभाऊ धुमाळ, शितल नितीन गाडे, सचिन पांडुरंग कांबळे, सतिश दत्तू धुमाळ, संतोष हरिभाऊ धुमाळ, सुनिता पांडुरंग कांबळे, आजीनाथ दत्तू धुमाळ, कोमल पांडुरंग कांबळे अ पा क आई सुनिता पांडुरंग कांबळे, काशिबाई रंगनाथ कांबळे, गंगूबाई दत्तू धुमाळ, छाया विलास घोडके, तुळसाबाई रामभाऊ अडबल, धोंडीराम रंगनाथ कांबळे, नारायण तुकाराम धुमाळ, नारायण हरिभाऊ धुमाळ",
          "साईनाथ विठठल धुमाळ",
          "नवनाथ विठठल धूमाळ"
        ],
        "khata_no": "2388, 2430, 2633, 2639, 285, 2882, 3032, 864, 866",
        "area_sqm": 15686.61,
        "area_acres": 3.88,
        "area_guntha": 155.05,
        "land_type": "जिरायत शेती (Jirayat - Rainfed Agricultural)",
        "source": "MahaBhuNaksha Official Live Cadastre",
        "status": "verified",
        "confidence_score": 98.8,
        "old_survey_area_acres": 3.88,
        "old_survey_area_sqm": 15686.61,
        "new_survey_area_acres": 3.88,
        "new_survey_area_sqm": 15686.61
      },
      "geometry": {
        "type": "Polygon",
        "coordinates": [
          [
            [
              74.9659371,
              18.4943087
            ],
            [
              74.9659879,
              18.4938329
            ],
            [
              74.966804,
              18.4936131
            ],
            [
              74.9667056,
              18.493136
            ],
            [
              74.9659226,
              18.4933402
            ],
            [
              74.9650777,
              18.4935429
            ],
            [
              74.9655764,
              18.4950065
            ],
            [
              74.9658691,
              18.4947801
            ],
            [
              74.9659371,
              18.4943087
            ]
          ]
        ]
      }
    }
  ]
}