{
  "type": "FeatureCollection",
  "name": "Benwadi_Gat_361_Cadastre",
  "crs": {
    "type": "name",
    "properties": {
      "name": "urn:ogc:def:crs:OGC:1.3:CRS84"
    }
  },
  "features": [
    {
      "type": "Feature",
      "properties": {
        "parcel_id": "MH-AHM-KAR-BEN-361",
        "survey_no": "361",
        "gat_no": "361",
        "village": "Benwadi (बेनवडी)",
        "taluka": "Karjat (कर्जत)",
        "district": "Ahmednagar (अहमदनगर)",
        "state": "Maharashtra",
        "gis_code": "RVM2613272600130334420000",
        "owner_name": "शारदा संतोष भिताडे, संतोष लाला भिताडे",
        "all_owners": [
          "शारदा संतोष भिताडे",
          "संतोष लाला भिताडे"
        ],
        "khata_no": "2776, 622",
        "area_sqm": 26157.25,
        "area_acres": 6.46,
        "area_guntha": 258.55,
        "land_type": "जिरायत शेती (Jirayat - Rainfed Agricultural)",
        "source": "MahaBhuNaksha Official Live Cadastre",
        "status": "verified",
        "confidence_score": 98.8,
        "old_survey_area_acres": 6.46,
        "old_survey_area_sqm": 26157.25,
        "new_survey_area_acres": 6.46,
        "new_survey_area_sqm": 26157.25
      },
      "geometry": {
        "type": "Polygon",
        "coordinates": [
          [
            [
              74.9763905,
              18.4993707
            ],
            [
              74.9773588,
              18.4992172
            ],
            [
              74.9776333,
              18.4991749
            ],
            [
              74.9780744,
              18.499103
            ],
            [
              74.9783263,
              18.499068
            ],
            [
              74.9781005,
              18.49844
            ],
            [
              74.977955,
              18.4980068
            ],
            [
              74.977695,
              18.498273
            ],
            [
              74.9765443,
              18.4983621
            ],
            [
              74.9758992,
              18.4984053
            ],
            [
              74.975775,
              18.4983978
            ],
            [
              74.9757448,
              18.4987884
            ],
            [
              74.9760852,
              18.4994215
            ],
            [
              74.9763905,
              18.4993707
            ]
          ]
        ]
      }
    }
  ]
}