{
  "type": "FeatureCollection",
  "name": "Benwadi_Gat_429_Cadastre",
  "crs": {
    "type": "name",
    "properties": {
      "name": "urn:ogc:def:crs:OGC:1.3:CRS84"
    }
  },
  "features": [
    {
      "type": "Feature",
      "properties": {
        "parcel_id": "MH-AHM-KAR-BEN-429",
        "survey_no": "429",
        "gat_no": "429",
        "village": "Benwadi (बेनवडी)",
        "taluka": "Karjat (कर्जत)",
        "district": "Ahmednagar (अहमदनगर)",
        "state": "Maharashtra",
        "gis_code": "RVM2613272600130334420000",
        "owner_name": "सचिन मच्छिंद्र दवणे, जिजाबाई बापूराव वापसे, तुकाराम भिमराव बिबे, विष्णु भिमराव बिबे, इंद्राबाई भिमराव बिबे, सुरेश भिमराव बिबे",
        "all_owners": [
          "सचिन मच्छिंद्र दवणे",
          "जिजाबाई बापूराव वापसे, तुकाराम भिमराव बिबे, विष्णु भिमराव बिबे, इंद्राबाई भिमराव बिबे, सुरेश भिमराव बिबे",
          "मा मुख्य कार्यकारी अधिकारी जि प अहमदनगर  करिता विद्यमान ग्राम विकास अधिकारी  ग्रा प बेनवडी ता  कर्जत रामा चंदू धनवडे",
          "संतोष दत्तू दवने",
          "ओंकार लहू दवने",
          "तूकाराम भिमा बिबे",
          "विष्णू भिमा बिबे",
          "अरूण रामभाऊ दवणे",
          "मच्छिंद्र भिमराव दवणे",
          "सूरेखा लहू दवणे"
        ],
        "khata_no": "1038, 207, 2767, 3036, 3037, 398, 399, 613, 627, 967",
        "area_sqm": 38961.5,
        "area_acres": 9.63,
        "area_guntha": 385.11,
        "land_type": "जिरायत शेती (Jirayat - Rainfed Agricultural)",
        "source": "MahaBhuNaksha Official Live Cadastre",
        "status": "verified",
        "confidence_score": 98.8,
        "old_survey_area_acres": 9.63,
        "old_survey_area_sqm": 38961.5,
        "new_survey_area_acres": 9.63,
        "new_survey_area_sqm": 38961.5
      },
      "geometry": {
        "type": "Polygon",
        "coordinates": [
          [
            [
              74.9933334,
              18.4908305
            ],
            [
              74.9931925,
              18.490033
            ],
            [
              74.9929543,
              18.4885469
            ],
            [
              74.9929487,
              18.4883889
            ],
            [
              74.9923974,
              18.4880148
            ],
            [
              74.9919717,
              18.4881137
            ],
            [
              74.9918529,
              18.4886327
            ],
            [
              74.9918509,
              18.4897877
            ],
            [
              74.9919147,
              18.4900929
            ],
            [
              74.9920538,
              18.4909511
            ],
            [
              74.9933334,
              18.4908305
            ]
          ]
        ]
      }
    }
  ]
}