{
  "type": "FeatureCollection",
  "name": "Benwadi_Gat_509_Drone_Resurvey",
  "crs": {
    "type": "name",
    "properties": {
      "name": "urn:ogc:def:crs:OGC:1.3:CRS84"
    }
  },
  "features": [
    {
      "type": "Feature",
      "properties": {
        "parcel_id": "MH-AHM-KAR-BEN-509",
        "survey_no": "509",
        "gat_no": "509",
        "village": "Benwadi (बेनवडी)",
        "taluka": "Karjat (कर्जत)",
        "district": "Ahmednagar (अहमदनगर)",
        "state": "Maharashtra",
        "gis_code": "RVM2613272600130334420000",
        "owner_name": "अंकूश भगवान गदादे, आबई भगवान गदादे, आबा तुकाराम गदादे, काका भगवान गदादे, गेना गणपती गदादे, दत्तात्रय तुकाराम गदादे, दिगांबर गणपती गदादे, पंढरीनाथ दगडू गदादे, बबन तुकाराम गदादे, बाबा रामा गदादे, भामाबाई बाबा सायकर, विठठल सावळा गदादे, समाबाई बाबू जाधव, नारायण गोविंद गदादे",
        "all_owners": [
          "अंकूश भगवान गदादे, आबई भगवान गदादे, आबा तुकाराम गदादे, काका भगवान गदादे, गेना गणपती गदादे, दत्तात्रय तुकाराम गदादे, दिगांबर गणपती गदादे, पंढरीनाथ दगडू गदादे, बबन तुकाराम गदादे, बाबा रामा गदादे, भामाबाई बाबा सायकर, विठठल सावळा गदादे, समाबाई बाबू जाधव, नारायण गोविंद गदादे"
        ],
        "khata_no": "1024",
        "area_sqm": 287.14,
        "area_acres": 0.07,
        "area_guntha": 2.84,
        "land_type": "जिरायत शेती (Jirayat - Rainfed Agricultural)",
        "source": "MahaBhuNaksha Official Live Cadastre",
        "status": "needs_review",
        "confidence_score": 84.5,
        "old_survey_area_acres": 0.07,
        "old_survey_area_sqm": 287.14,
        "new_survey_area_acres": 0.07,
        "new_survey_area_sqm": 295.5,
        "area_diff_pct": 2.9,
        "mean_shift_m": 2.0,
        "iou_overlap_pct": 93.1,
        "review_reason": "Drone RTK photogrammetry detects a 2.9% area discrepancy (8 m²) with a mean bund shift of 2.0m along the farm boundary. Verification recommended.",
        "bhunaksha_geometry": {
          "type": "Polygon",
          "coordinates": [
            [
              [
                74.9835658,
                18.4958557
              ],
              [
                74.9835589,
                18.4958091
              ],
              [
                74.9835355,
                18.4956471
              ],
              [
                74.983445,
                18.4956703
              ],
              [
                74.9834304,
                18.4958929
              ],
              [
                74.9835658,
                18.4958557
              ]
            ]
          ]
        }
      },
      "geometry": {
        "type": "Polygon",
        "coordinates": [
          [
            [
              74.9835855,
              18.4958587
            ],
            [
              74.9835785,
              18.4958115
            ],
            [
              74.9835548,
              18.4956471
            ],
            [
              74.983463,
              18.4956707
            ],
            [
              74.9834482,
              18.4958965
            ],
            [
              74.9835855,
              18.4958587
            ]
          ]
        ]
      }
    }
  ]
}