{
  "type": "FeatureCollection",
  "name": "Benwadi_Gat_476_Cadastre",
  "crs": {
    "type": "name",
    "properties": {
      "name": "urn:ogc:def:crs:OGC:1.3:CRS84"
    }
  },
  "features": [
    {
      "type": "Feature",
      "properties": {
        "parcel_id": "MH-AHM-KAR-BEN-476",
        "survey_no": "476",
        "gat_no": "476",
        "village": "Benwadi (बेनवडी)",
        "taluka": "Karjat (कर्जत)",
        "district": "Ahmednagar (अहमदनगर)",
        "state": "Maharashtra",
        "gis_code": "RVM2613272600130334420000",
        "owner_name": "कावेरी संजय गदादे, सरस्वती आंबादास गदादे",
        "all_owners": [
          "कावेरी संजय गदादे",
          "सरस्वती आंबादास गदादे"
        ],
        "khata_no": "3252, 678",
        "area_sqm": 5189.26,
        "area_acres": 1.28,
        "area_guntha": 51.29,
        "land_type": "जिरायत शेती (Jirayat - Rainfed Agricultural)",
        "source": "MahaBhuNaksha Official Live Cadastre",
        "status": "verified",
        "confidence_score": 98.8,
        "old_survey_area_acres": 1.28,
        "old_survey_area_sqm": 5189.26,
        "new_survey_area_acres": 1.28,
        "new_survey_area_sqm": 5189.26
      },
      "geometry": {
        "type": "Polygon",
        "coordinates": [
          [
            [
              74.9854856,
              18.491087
            ],
            [
              74.9849232,
              18.4910294
            ],
            [
              74.9848325,
              18.4917951
            ],
            [
              74.9854125,
              18.4918594
            ],
            [
              74.9854856,
              18.491087
            ]
          ]
        ]
      }
    }
  ]
}