{
  "type": "FeatureCollection",
  "name": "Benwadi_Gat_191_Cadastre",
  "crs": {
    "type": "name",
    "properties": {
      "name": "urn:ogc:def:crs:OGC:1.3:CRS84"
    }
  },
  "features": [
    {
      "type": "Feature",
      "properties": {
        "parcel_id": "MH-AHM-KAR-BEN-191",
        "survey_no": "191",
        "gat_no": "191",
        "village": "Benwadi (बेनवडी)",
        "taluka": "Karjat (कर्जत)",
        "district": "Ahmednagar (अहमदनगर)",
        "state": "Maharashtra",
        "gis_code": "RVM2613272600130334420000",
        "owner_name": "मनिषा रमेश राऊत, सरुबाई महादेव गदादे, सुरेखा विकास रासकर, सोनाली दत्ताञय अनारसे, अशोक महादेव गदादे, हरिदास रघूनाथ गदादे",
        "all_owners": [
          "मनिषा रमेश राऊत, सरुबाई महादेव गदादे, सुरेखा विकास रासकर, सोनाली दत्ताञय अनारसे, अशोक महादेव गदादे",
          "हरिदास रघूनाथ गदादे"
        ],
        "khata_no": "2686, 988",
        "area_sqm": 7602.3,
        "area_acres": 1.88,
        "area_guntha": 75.14,
        "land_type": "जिरायत शेती (Jirayat - Rainfed Agricultural)",
        "source": "MahaBhuNaksha Official Live Cadastre",
        "status": "verified",
        "confidence_score": 98.8,
        "old_survey_area_acres": 1.88,
        "old_survey_area_sqm": 7602.3,
        "new_survey_area_acres": 1.88,
        "new_survey_area_sqm": 7602.3
      },
      "geometry": {
        "type": "Polygon",
        "coordinates": [
          [
            [
              74.9596834,
              18.4791578
            ],
            [
              74.9588787,
              18.4793692
            ],
            [
              74.9597266,
              18.4800645
            ],
            [
              74.9603645,
              18.4807641
            ],
            [
              74.9602627,
              18.4805021
            ],
            [
              74.9596834,
              18.4791578
            ]
          ]
        ]
      }
    }
  ]
}