{
  "type": "FeatureCollection",
  "name": "Benwadi_Gat_200_Cadastre",
  "crs": {
    "type": "name",
    "properties": {
      "name": "urn:ogc:def:crs:OGC:1.3:CRS84"
    }
  },
  "features": [
    {
      "type": "Feature",
      "properties": {
        "parcel_id": "MH-AHM-KAR-BEN-200",
        "survey_no": "200",
        "gat_no": "200",
        "village": "Benwadi (बेनवडी)",
        "taluka": "Karjat (कर्जत)",
        "district": "Ahmednagar (अहमदनगर)",
        "state": "Maharashtra",
        "gis_code": "RVM2613272600130334420000",
        "owner_name": "शिवाजी विठोबा गदादे",
        "all_owners": [
          "शिवाजी विठोबा गदादे"
        ],
        "khata_no": "319",
        "area_sqm": 4419.76,
        "area_acres": 1.09,
        "area_guntha": 43.69,
        "land_type": "जिरायत शेती (Jirayat - Rainfed Agricultural)",
        "source": "MahaBhuNaksha Official Live Cadastre",
        "status": "verified",
        "confidence_score": 98.8,
        "old_survey_area_acres": 1.09,
        "old_survey_area_sqm": 4419.76,
        "new_survey_area_acres": 1.09,
        "new_survey_area_sqm": 4419.76
      },
      "geometry": {
        "type": "Polygon",
        "coordinates": [
          [
            [
              74.9602869,
              18.4839811
            ],
            [
              74.9602965,
              18.4838582
            ],
            [
              74.9600936,
              18.4829052
            ],
            [
              74.9600708,
              18.4826732
            ],
            [
              74.9599827,
              18.4828024
            ],
            [
              74.9597517,
              18.4826492
            ],
            [
              74.9600198,
              18.4840158
            ],
            [
              74.9602869,
              18.4839811
            ]
          ]
        ]
      }
    }
  ]
}