{
  "type": "FeatureCollection",
  "name": "Benwadi_Gat_468_Cadastre",
  "crs": {
    "type": "name",
    "properties": {
      "name": "urn:ogc:def:crs:OGC:1.3:CRS84"
    }
  },
  "features": [
    {
      "type": "Feature",
      "properties": {
        "parcel_id": "MH-AHM-KAR-BEN-468",
        "survey_no": "468",
        "gat_no": "468",
        "village": "Benwadi (बेनवडी)",
        "taluka": "Karjat (कर्जत)",
        "district": "Ahmednagar (अहमदनगर)",
        "state": "Maharashtra",
        "gis_code": "RVM2613272600130334420000",
        "owner_name": "रमेश मारूती गायकवाड, गोकूळ वसंत गायकवाड",
        "all_owners": [
          "रमेश मारूती गायकवाड",
          "गोकूळ वसंत गायकवाड",
          "अरूण दादासाहेब गायकवाड",
          "विठठल मारूती गायकवाड"
        ],
        "khata_no": "867, 566, 807, 868",
        "area_sqm": 23797.56,
        "area_acres": 5.88,
        "area_guntha": 235.22,
        "land_type": "जिरायत शेती (Jirayat - Rainfed Agricultural)",
        "source": "MahaBhuNaksha Official Live Cadastre",
        "status": "verified",
        "confidence_score": 98.8,
        "old_survey_area_acres": 5.88,
        "old_survey_area_sqm": 23797.56,
        "new_survey_area_acres": 5.88,
        "new_survey_area_sqm": 23797.56
      },
      "geometry": {
        "type": "Polygon",
        "coordinates": [
          [
            [
              74.9888712,
              18.4915603
            ],
            [
              74.9894409,
              18.4914796
            ],
            [
              74.989282,
              18.4901602
            ],
            [
              74.9892511,
              18.4897794
            ],
            [
              74.9891093,
              18.4896038
            ],
            [
              74.9888183,
              18.4896052
            ],
            [
              74.9880831,
              18.4896138
            ],
            [
              74.9880191,
              18.4897167
            ],
            [
              74.9885774,
              18.4916042
            ],
            [
              74.9888712,
              18.4915603
            ]
          ]
        ]
      }
    }
  ]
}