{
  "type": "FeatureCollection",
  "name": "Benwadi_Gat_105_Cadastre",
  "crs": {
    "type": "name",
    "properties": {
      "name": "urn:ogc:def:crs:OGC:1.3:CRS84"
    }
  },
  "features": [
    {
      "type": "Feature",
      "properties": {
        "parcel_id": "MH-AHM-KAR-BEN-105",
        "survey_no": "105",
        "gat_no": "105",
        "village": "Benwadi (बेनवडी)",
        "taluka": "Karjat (कर्जत)",
        "district": "Ahmednagar (अहमदनगर)",
        "state": "Maharashtra",
        "gis_code": "RVM2613272600130334420000",
        "owner_name": "छबाबाई हरीभाऊ खुडे, दमा धर्मा खडे",
        "all_owners": [
          "छबाबाई हरीभाऊ खुडे",
          "दमा धर्मा खडे",
          "पांडुरंग प्रकाश राऊत",
          "शितल संतोष खुडे",
          "मनीषा शशिकांत  कांबळे, संतोष छगन  खुडे, कांतीलाल छगन  खुडे, इंदुबाई छगन खुडे"
        ],
        "khata_no": "2329, 2330, 2964, 2972, 718",
        "area_sqm": 12940.78,
        "area_acres": 3.2,
        "area_guntha": 127.91,
        "land_type": "जिरायत शेती (Jirayat - Rainfed Agricultural)",
        "source": "MahaBhuNaksha Official Live Cadastre",
        "status": "verified",
        "confidence_score": 98.8,
        "old_survey_area_acres": 3.2,
        "old_survey_area_sqm": 12940.78,
        "new_survey_area_acres": 3.2,
        "new_survey_area_sqm": 12940.78
      },
      "geometry": {
        "type": "Polygon",
        "coordinates": [
          [
            [
              74.9773369,
              18.4887867
            ],
            [
              74.9777616,
              18.4885256
            ],
            [
              74.9778556,
              18.4884679
            ],
            [
              74.9777474,
              18.4883032
            ],
            [
              74.9776127,
              18.4881093
            ],
            [
              74.9773432,
              18.4877213
            ],
            [
              74.9771268,
              18.4874098
            ],
            [
              74.9767313,
              18.4868404
            ],
            [
              74.9763666,
              18.4869802
            ],
            [
              74.9764221,
              18.4871025
            ],
            [
              74.976617,
              18.487592
            ],
            [
              74.9767043,
              18.4878074
            ],
            [
              74.9767316,
              18.4878395
            ],
            [
              74.9768911,
              18.4880542
            ],
            [
              74.976946,
              18.4881314
            ],
            [
              74.9770868,
              18.4884251
            ],
            [
              74.9772754,
              18.4888245
            ],
            [
              74.9773369,
              18.4887867
            ]
          ]
        ]
      }
    }
  ]
}