{
  "type": "FeatureCollection",
  "name": "Benwadi_Gat_146_Drone_Resurvey",
  "crs": {
    "type": "name",
    "properties": {
      "name": "urn:ogc:def:crs:OGC:1.3:CRS84"
    }
  },
  "features": [
    {
      "type": "Feature",
      "properties": {
        "parcel_id": "MH-AHM-KAR-BEN-146",
        "survey_no": "146",
        "gat_no": "146",
        "village": "Benwadi (बेनवडी)",
        "taluka": "Karjat (कर्जत)",
        "district": "Ahmednagar (अहमदनगर)",
        "state": "Maharashtra",
        "gis_code": "RVM2613272600130334420000",
        "owner_name": "उद्धव श्रीराम गदादे, सौरव गेनदेव गदादे",
        "all_owners": [
          "उद्धव श्रीराम गदादे",
          "सौरव गेनदेव गदादे",
          "अफ्रोज अकबर सय्यद, असिफ रसुल सय्यद, अश्माबी राजू शेख, मिनाबी रसुल सय्यद",
          "शाबीरा  इसाक  इनामदार",
          "नबिलाल रहिमान सय्यद",
          "शाबीरा  इसाक  इनामदार",
          "श्रीकांत महादेव गदादे",
          "शेवंता महादेव गदादे",
          "सुलताना महमद शेख, अल्ताफ अब्बास सय्यद",
          "पांडुरंग महादेव गदादे",
          "तैनिश रमजान सय्यद"
        ],
        "khata_no": "2938, 3086, 2420, 2598, 96, 2598, 3364, 3394, 2940, 3363, 3287",
        "area_sqm": 42252.59,
        "area_acres": 10.44,
        "area_guntha": 417.64,
        "land_type": "जिरायत शेती (Jirayat - Rainfed Agricultural)",
        "source": "MahaBhuNaksha Official Live Cadastre",
        "status": "needs_review",
        "confidence_score": 85.4,
        "old_survey_area_acres": 10.44,
        "old_survey_area_sqm": 42252.59,
        "new_survey_area_acres": 10.67,
        "new_survey_area_sqm": 43182.1,
        "area_diff_pct": 2.2,
        "mean_shift_m": 1.5,
        "iou_overlap_pct": 93.8,
        "review_reason": "Drone RTK photogrammetry detects a 2.2% area discrepancy (930 m²) with a mean bund shift of 1.5m along the farm boundary. Verification recommended.",
        "bhunaksha_geometry": {
          "type": "Polygon",
          "coordinates": [
            [
              [
                74.9669092,
                18.4873652
              ],
              [
                74.9674452,
                18.4869726
              ],
              [
                74.96839,
                18.4863126
              ],
              [
                74.9677601,
                18.4861032
              ],
              [
                74.967576,
                18.4859728
              ],
              [
                74.9670932,
                18.4856811
              ],
              [
                74.9666791,
                18.4854105
              ],
              [
                74.9644532,
                18.4858686
              ],
              [
                74.9648093,
                18.4861324
              ],
              [
                74.9654936,
                18.4864493
              ],
              [
                74.9660527,
                18.4867201
              ],
              [
                74.9668495,
                18.487387
              ],
              [
                74.9669092,
                18.4873652
              ]
            ]
          ]
        }
      },
      "geometry": {
        "type": "Polygon",
        "coordinates": [
          [
            [
              74.9669058,
              18.4873882
            ],
            [
              74.9674477,
              18.4869913
            ],
            [
              74.9684028,
              18.4863241
            ],
            [
              74.967766,
              18.4861124
            ],
            [
              74.9675799,
              18.4859805
            ],
            [
              74.9670919,
              18.4856856
            ],
            [
              74.9666732,
              18.4854121
            ],
            [
              74.964423,
              18.4858752
            ],
            [
              74.964783,
              18.4861419
            ],
            [
              74.9654748,
              18.4864623
            ],
            [
              74.96604,
              18.486736
            ],
            [
              74.9668455,
              18.4874102
            ],
            [
              74.9669058,
              18.4873882
            ]
          ]
        ]
      }
    }
  ]
}