{
  "type": "FeatureCollection",
  "name": "Benwadi_Gat_123_Cadastre",
  "crs": {
    "type": "name",
    "properties": {
      "name": "urn:ogc:def:crs:OGC:1.3:CRS84"
    }
  },
  "features": [
    {
      "type": "Feature",
      "properties": {
        "parcel_id": "MH-AHM-KAR-BEN-123",
        "survey_no": "123",
        "gat_no": "123",
        "village": "Benwadi (बेनवडी)",
        "taluka": "Karjat (कर्जत)",
        "district": "Ahmednagar (अहमदनगर)",
        "state": "Maharashtra",
        "gis_code": "RVM2613272600130334420000",
        "owner_name": "सहदेव निवृत्ती धूमाळ, ज्ञानेश्वर सहदेव धुमाळ",
        "all_owners": [
          "सहदेव निवृत्ती धूमाळ",
          "ज्ञानेश्वर सहदेव धुमाळ",
          "ज्ञानेश्वर सहदेव धुमाळ",
          "शिवाजी आत्माराम गदादे"
        ],
        "khata_no": "2277, 2303, 2303, 2304",
        "area_sqm": 17233.86,
        "area_acres": 4.26,
        "area_guntha": 170.35,
        "land_type": "जिरायत शेती (Jirayat - Rainfed Agricultural)",
        "source": "MahaBhuNaksha Official Live Cadastre",
        "status": "verified",
        "confidence_score": 98.8,
        "old_survey_area_acres": 4.26,
        "old_survey_area_sqm": 17233.86,
        "new_survey_area_acres": 4.26,
        "new_survey_area_sqm": 17233.86
      },
      "geometry": {
        "type": "Polygon",
        "coordinates": [
          [
            [
              74.9763666,
              18.4869802
            ],
            [
              74.9767313,
              18.4868404
            ],
            [
              74.9768524,
              18.4867959
            ],
            [
              74.9781789,
              18.4863102
            ],
            [
              74.978305,
              18.4862641
            ],
            [
              74.9788233,
              18.4860672
            ],
            [
              74.9792989,
              18.4858866
            ],
            [
              74.9799014,
              18.4856577
            ],
            [
              74.9807571,
              18.485348
            ],
            [
              74.9805543,
              18.4851345
            ],
            [
              74.9794671,
              18.4855486
            ],
            [
              74.9778998,
              18.4861076
            ],
            [
              74.9765527,
              18.4866021
            ],
            [
              74.9756737,
              18.4869074
            ],
            [
              74.9757123,
              18.4872312
            ],
            [
              74.9763666,
              18.4869802
            ]
          ]
        ]
      }
    }
  ]
}