{
  "type": "FeatureCollection",
  "name": "Benwadi_Gat_185_Cadastre",
  "crs": {
    "type": "name",
    "properties": {
      "name": "urn:ogc:def:crs:OGC:1.3:CRS84"
    }
  },
  "features": [
    {
      "type": "Feature",
      "properties": {
        "parcel_id": "MH-AHM-KAR-BEN-185",
        "survey_no": "185",
        "gat_no": "185",
        "village": "Benwadi (बेनवडी)",
        "taluka": "Karjat (कर्जत)",
        "district": "Ahmednagar (अहमदनगर)",
        "state": "Maharashtra",
        "gis_code": "RVM2613272600130334420000",
        "owner_name": "अफ्रोज अकबर सय्यद, अश्माबी राजू शेख, असिफ रसुल सय्यद, मिनाबी रसुल सय्यद, नबिलाल रहिमान सय्यद",
        "all_owners": [
          "अफ्रोज अकबर सय्यद, अश्माबी राजू शेख, असिफ रसुल सय्यद, मिनाबी रसुल सय्यद",
          "नबिलाल रहिमान सय्यद"
        ],
        "khata_no": "2420, 96",
        "area_sqm": 10079.92,
        "area_acres": 2.49,
        "area_guntha": 99.63,
        "land_type": "जिरायत शेती (Jirayat - Rainfed Agricultural)",
        "source": "MahaBhuNaksha Official Live Cadastre",
        "status": "verified",
        "confidence_score": 98.8,
        "old_survey_area_acres": 2.49,
        "old_survey_area_sqm": 10079.92,
        "new_survey_area_acres": 2.49,
        "new_survey_area_sqm": 10079.92
      },
      "geometry": {
        "type": "Polygon",
        "coordinates": [
          [
            [
              74.9640554,
              18.4855611
            ],
            [
              74.9643812,
              18.485006
            ],
            [
              74.9638981,
              18.4846506
            ],
            [
              74.9637213,
              18.4845167
            ],
            [
              74.96354,
              18.4843811
            ],
            [
              74.9630647,
              18.4849342
            ],
            [
              74.9636682,
              18.4854611
            ],
            [
              74.9639258,
              18.4857044
            ],
            [
              74.9640554,
              18.4855611
            ]
          ]
        ]
      }
    }
  ]
}