{
  "type": "FeatureCollection",
  "name": "Benwadi_Gat_502_Drone_Resurvey",
  "crs": {
    "type": "name",
    "properties": {
      "name": "urn:ogc:def:crs:OGC:1.3:CRS84"
    }
  },
  "features": [
    {
      "type": "Feature",
      "properties": {
        "parcel_id": "MH-AHM-KAR-BEN-502",
        "survey_no": "502",
        "gat_no": "502",
        "village": "Benwadi (बेनवडी)",
        "taluka": "Karjat (कर्जत)",
        "district": "Ahmednagar (अहमदनगर)",
        "state": "Maharashtra",
        "gis_code": "RVM2613272600130334420000",
        "owner_name": "राजेश शरद शहा, शरदकूमार हेमचंद शहा",
        "all_owners": [
          "राजेश शरद शहा",
          "शरदकूमार हेमचंद शहा",
          "आदित्य  सुनील गदादे",
          "विष्णु बबन गदादे",
          "शितल बापू गदादे",
          "छाया संतोष गदादे",
          "निलीमा दत्तात्रय गदादे",
          "संपत नामदेव गदादे",
          "बाबासाहेब शंकर क्षिरसागर",
          "संगीता नवनाथ गदादे"
        ],
        "khata_no": "255, 304, 3490, 3491, 3492, 3493, 3494, 814, 820, 844",
        "area_sqm": 67632.59,
        "area_acres": 16.71,
        "area_guntha": 668.5,
        "land_type": "जिरायत शेती (Jirayat - Rainfed Agricultural)",
        "source": "MahaBhuNaksha Official Live Cadastre",
        "status": "needs_review",
        "confidence_score": 84.9,
        "old_survey_area_acres": 16.71,
        "old_survey_area_sqm": 67632.59,
        "new_survey_area_acres": 17.14,
        "new_survey_area_sqm": 69391.0,
        "area_diff_pct": 2.6,
        "mean_shift_m": 1.9,
        "iou_overlap_pct": 93.4,
        "review_reason": "Drone RTK photogrammetry detects a 2.6% area discrepancy (1758 m²) with a mean bund shift of 1.9m along the farm boundary. Verification recommended.",
        "bhunaksha_geometry": {
          "type": "Polygon",
          "coordinates": [
            [
              [
                74.9820375,
                18.499381
              ],
              [
                74.9828798,
                18.4993853
              ],
              [
                74.9830004,
                18.4993772
              ],
              [
                74.9829864,
                18.4993199
              ],
              [
                74.9831257,
                18.4976307
              ],
              [
                74.9831283,
                18.4975055
              ],
              [
                74.9831591,
                18.4971625
              ],
              [
                74.9828853,
                18.497076
              ],
              [
                74.9827333,
                18.4970167
              ],
              [
                74.9825158,
                18.4969318
              ],
              [
                74.9823005,
                18.4968478
              ],
              [
                74.9820849,
                18.4967637
              ],
              [
                74.9819102,
                18.4966955
              ],
              [
                74.9818162,
                18.4966436
              ],
              [
                74.980876,
                18.4969449
              ],
              [
                74.9803041,
                18.4971578
              ],
              [
                74.9806405,
                18.4978936
              ],
              [
                74.9809821,
                18.4986862
              ],
              [
                74.9811531,
                18.4991358
              ],
              [
                74.9812428,
                18.4993785
              ],
              [
                74.9820375,
                18.499381
              ]
            ]
          ]
        }
      },
      "geometry": {
        "type": "Polygon",
        "coordinates": [
          [
            [
              74.9820241,
              18.4993887
            ],
            [
              74.9828773,
              18.4993931
            ],
            [
              74.9829994,
              18.4993849
            ],
            [
              74.9829853,
              18.4993268
            ],
            [
              74.9831264,
              18.4976158
            ],
            [
              74.983129,
              18.497489
            ],
            [
              74.9831602,
              18.4971416
            ],
            [
              74.9828829,
              18.497054
            ],
            [
              74.9827289,
              18.4969939
            ],
            [
              74.9825086,
              18.4969079
            ],
            [
              74.9822905,
              18.4968228
            ],
            [
              74.9820721,
              18.4967376
            ],
            [
              74.9818952,
              18.4966685
            ],
            [
              74.9817999,
              18.496616
            ],
            [
              74.9808476,
              18.4969212
            ],
            [
              74.9802683,
              18.4971368
            ],
            [
              74.9806091,
              18.4978821
            ],
            [
              74.9809551,
              18.498685
            ],
            [
              74.9811283,
              18.4991404
            ],
            [
              74.9812191,
              18.4993862
            ],
            [
              74.9820241,
              18.4993887
            ]
          ]
        ]
      }
    }
  ]
}