{
  "type": "FeatureCollection",
  "name": "Benwadi_Gat_62_Drone_Resurvey",
  "crs": {
    "type": "name",
    "properties": {
      "name": "urn:ogc:def:crs:OGC:1.3:CRS84"
    }
  },
  "features": [
    {
      "type": "Feature",
      "properties": {
        "parcel_id": "MH-AHM-KAR-BEN-62",
        "survey_no": "62",
        "gat_no": "62",
        "village": "Benwadi (बेनवडी)",
        "taluka": "Karjat (कर्जत)",
        "district": "Ahmednagar (अहमदनगर)",
        "state": "Maharashtra",
        "gis_code": "RVM2613272600130334420000",
        "owner_name": "बाबासाहेब धोंडीबा गदादे, महादेव बाळासाहेब गदादे",
        "all_owners": [
          "बाबासाहेब धोंडीबा गदादे",
          "महादेव बाळासाहेब गदादे",
          "हरीचंद्र रामकृष्ण गदादे"
        ],
        "khata_no": "2458, 2854, 2926",
        "area_sqm": 6732.99,
        "area_acres": 1.66,
        "area_guntha": 66.55,
        "land_type": "जिरायत शेती (Jirayat - Rainfed Agricultural)",
        "source": "MahaBhuNaksha Official Live Cadastre",
        "status": "needs_review",
        "confidence_score": 84.9,
        "old_survey_area_acres": 1.66,
        "old_survey_area_sqm": 6732.99,
        "new_survey_area_acres": 1.7,
        "new_survey_area_sqm": 6908.0,
        "area_diff_pct": 2.6,
        "mean_shift_m": 1.9,
        "iou_overlap_pct": 93.4,
        "review_reason": "Drone RTK photogrammetry detects a 2.6% area discrepancy (175 m²) with a mean bund shift of 1.9m along the farm boundary. Verification recommended.",
        "bhunaksha_geometry": {
          "type": "Polygon",
          "coordinates": [
            [
              [
                74.9755343,
                18.4909788
              ],
              [
                74.9754365,
                18.4909101
              ],
              [
                74.9756894,
                18.4907957
              ],
              [
                74.9758488,
                18.4907238
              ],
              [
                74.9762112,
                18.4905503
              ],
              [
                74.9761414,
                18.4905039
              ],
              [
                74.9761216,
                18.4904915
              ],
              [
                74.9761016,
                18.4904794
              ],
              [
                74.9760813,
                18.4904677
              ],
              [
                74.9760609,
                18.4904563
              ],
              [
                74.9760403,
                18.4904453
              ],
              [
                74.9760195,
                18.4904346
              ],
              [
                74.9759985,
                18.4904243
              ],
              [
                74.9759773,
                18.4904143
              ],
              [
                74.975956,
                18.4904048
              ],
              [
                74.9759345,
                18.4903956
              ],
              [
                74.9759128,
                18.4903868
              ],
              [
                74.9758817,
                18.4903749
              ],
              [
                74.9758631,
                18.4903678
              ],
              [
                74.9758447,
                18.4903605
              ],
              [
                74.9758263,
                18.4903528
              ],
              [
                74.9758081,
                18.4903448
              ],
              [
                74.9757901,
                18.4903365
              ],
              [
                74.9757721,
                18.4903279
              ],
              [
                74.9757544,
                18.4903189
              ],
              [
                74.9757368,
                18.4903097
              ],
              [
                74.9757193,
                18.4903001
              ],
              [
                74.9756992,
                18.4902886
              ],
              [
                74.9756935,
                18.4902853
              ],
              [
                74.9756878,
                18.4902822
              ],
              [
                74.975682,
                18.4902791
              ],
              [
                74.9756762,
                18.4902762
              ],
              [
                74.9756703,
                18.4902733
              ],
              [
                74.9756643,
                18.4902706
              ],
              [
                74.9756584,
                18.4902679
              ],
              [
                74.9756524,
                18.4902654
              ],
              [
                74.9756463,
                18.4902629
              ],
              [
                74.9756402,
                18.4902606
              ],
              [
                74.975634,
                18.4902584
              ],
              [
                74.9756279,
                18.4902563
              ],
              [
                74.9756216,
                18.4902543
              ],
              [
                74.9756154,
                18.4902524
              ],
              [
                74.9756091,
                18.4902506
              ],
              [
                74.9756028,
                18.4902489
              ],
              [
                74.9755965,
                18.4902473
              ],
              [
                74.9755901,
                18.4902459
              ],
              [
                74.9755837,
                18.4902445
              ],
              [
                74.9755773,
                18.4902433
              ],
              [
                74.9755709,
                18.4902422
              ],
              [
                74.9755644,
                18.4902412
              ],
              [
                74.9755537,
                18.4902397
              ],
              [
                74.975542,
                18.4902383
              ],
              [
                74.9755302,
                18.4902366
              ],
              [
                74.9755186,
                18.4902347
              ],
              [
                74.9755069,
                18.4902326
              ],
              [
                74.9754953,
                18.4902303
              ],
              [
                74.9754837,
                18.4902278
              ],
              [
                74.9754722,
                18.490225
              ],
              [
                74.9754608,
                18.4902221
              ],
              [
                74.9754493,
                18.490219
              ],
              [
                74.975438,
                18.4902157
              ],
              [
                74.9754267,
                18.4902122
              ],
              [
                74.9754154,
                18.4902085
              ],
              [
                74.9754042,
                18.4902046
              ],
              [
                74.9753931,
                18.4902005
              ],
              [
                74.9753821,
                18.4901962
              ],
              [
                74.9753711,
                18.4901917
              ],
              [
                74.9753602,
                18.4901871
              ],
              [
                74.9753494,
                18.4901822
              ],
              [
                74.9753387,
                18.4901772
              ],
              [
                74.9753281,
                18.4901719
              ],
              [
                74.9753176,
                18.4901665
              ],
              [
                74.9753071,
                18.4901609
              ],
              [
                74.9752968,
                18.4901551
              ],
              [
                74.9752865,
                18.4901492
              ],
              [
                74.9752764,
                18.490143
              ],
              [
                74.9752664,
                18.4901367
              ],
              [
                74.9752565,
                18.4901302
              ],
              [
                74.9752466,
                18.4901235
              ],
              [
                74.975237,
                18.4901167
              ],
              [
                74.9752274,
                18.4901097
              ],
              [
                74.9752138,
                18.4900993
              ],
              [
                74.9752123,
                18.4905195
              ],
              [
                74.9753826,
                18.4908229
              ],
              [
                74.9750665,
                18.4909582
              ],
              [
                74.9750196,
                18.4909786
              ],
              [
                74.9748502,
                18.491048
              ],
              [
                74.9749214,
                18.4911798
              ],
              [
                74.9749816,
                18.4913111
              ],
              [
                74.9754183,
                18.4911021
              ],
              [
                74.9754138,
                18.4910377
              ],
              [
                74.9755343,
                18.4909788
              ]
            ]
          ]
        }
      },
      "geometry": {
        "type": "Polygon",
        "coordinates": [
          [
            [
              74.9755322,
              18.4909696
            ],
            [
              74.9754332,
              18.4909001
            ],
            [
              74.9756893,
              18.4907842
            ],
            [
              74.9758508,
              18.4907114
            ],
            [
              74.9762179,
              18.4905356
            ],
            [
              74.9761472,
              18.4904886
            ],
            [
              74.9761271,
              18.4904761
            ],
            [
              74.9761069,
              18.4904638
            ],
            [
              74.9760863,
              18.4904519
            ],
            [
              74.9760656,
              18.4904404
            ],
            [
              74.9760448,
              18.4904293
            ],
            [
              74.9760237,
              18.4904184
            ],
            [
              74.9760024,
              18.490408
            ],
            [
              74.975981,
              18.4903979
            ],
            [
              74.9759594,
              18.4903882
            ],
            [
              74.9759376,
              18.4903789
            ],
            [
              74.9759156,
              18.49037
            ],
            [
              74.9758841,
              18.4903579
            ],
            [
              74.9758653,
              18.4903508
            ],
            [
              74.9758467,
              18.4903434
            ],
            [
              74.975828,
              18.4903356
            ],
            [
              74.9758096,
              18.4903275
            ],
            [
              74.9757913,
              18.4903191
            ],
            [
              74.9757731,
              18.4903103
            ],
            [
              74.9757552,
              18.4903012
            ],
            [
              74.9757374,
              18.4902919
            ],
            [
              74.9757196,
              18.4902822
            ],
            [
              74.9756993,
              18.4902705
            ],
            [
              74.9756935,
              18.4902672
            ],
            [
              74.9756877,
              18.4902641
            ],
            [
              74.9756819,
              18.4902609
            ],
            [
              74.975676,
              18.490258
            ],
            [
              74.97567,
              18.490255
            ],
            [
              74.9756639,
              18.4902523
            ],
            [
              74.9756579,
              18.4902496
            ],
            [
              74.9756519,
              18.490247
            ],
            [
              74.9756457,
              18.4902445
            ],
            [
              74.9756395,
              18.4902422
            ],
            [
              74.9756332,
              18.4902399
            ],
            [
              74.9756271,
              18.4902378
            ],
            [
              74.9756207,
              18.4902358
            ],
            [
              74.9756144,
              18.4902339
            ],
            [
              74.975608,
              18.490232
            ],
            [
              74.9756016,
              18.4902303
            ],
            [
              74.9755952,
              18.4902287
            ],
            [
              74.9755888,
              18.4902273
            ],
            [
              74.9755823,
              18.4902259
            ],
            [
              74.9755758,
              18.4902246
            ],
            [
              74.9755693,
              18.4902235
            ],
            [
              74.9755627,
              18.4902225
            ],
            [
              74.9755519,
              18.490221
            ],
            [
              74.97554,
              18.4902196
            ],
            [
              74.9755281,
              18.4902179
            ],
            [
              74.9755163,
              18.4902159
            ],
            [
              74.9755045,
              18.4902138
            ],
            [
              74.9754927,
              18.4902115
            ],
            [
              74.975481,
              18.4902089
            ],
            [
              74.9754693,
              18.4902061
            ],
            [
              74.9754578,
              18.4902032
            ],
            [
              74.9754461,
              18.4902
            ],
            [
              74.9754347,
              18.4901967
            ],
            [
              74.9754233,
              18.4901931
            ],
            [
              74.9754118,
              18.4901894
            ],
            [
              74.9754005,
              18.4901854
            ],
            [
              74.9753892,
              18.4901813
            ],
            [
              74.9753781,
              18.4901769
            ],
            [
              74.9753669,
              18.4901724
            ],
            [
              74.9753559,
              18.4901677
            ],
            [
              74.975345,
              18.4901628
            ],
            [
              74.9753341,
              18.4901577
            ],
            [
              74.9753234,
              18.4901523
            ],
            [
              74.9753127,
              18.4901469
            ],
            [
              74.9753021,
              18.4901412
            ],
            [
              74.9752917,
              18.4901353
            ],
            [
              74.9752812,
              18.4901293
            ],
            [
              74.975271,
              18.4901231
            ],
            [
              74.9752609,
              18.4901167
            ],
            [
              74.9752509,
              18.4901101
            ],
            [
              74.9752408,
              18.4901033
            ],
            [
              74.9752311,
              18.4900964
            ],
            [
              74.9752214,
              18.4900893
            ],
            [
              74.9752076,
              18.4900788
            ],
            [
              74.9752061,
              18.4905044
            ],
            [
              74.9753786,
              18.4908117
            ],
            [
              74.9750584,
              18.4909488
            ],
            [
              74.9750109,
              18.4909694
            ],
            [
              74.9748393,
              18.4910397
            ],
            [
              74.9749114,
              18.4911732
            ],
            [
              74.9749724,
              18.4913062
            ],
            [
              74.9754147,
              18.4910945
            ],
            [
              74.9754102,
              18.4910293
            ],
            [
              74.9755322,
              18.4909696
            ]
          ]
        ]
      }
    }
  ]
}