{
  "type": "FeatureCollection",
  "name": "Benwadi_Gat_246_Cadastre",
  "crs": {
    "type": "name",
    "properties": {
      "name": "urn:ogc:def:crs:OGC:1.3:CRS84"
    }
  },
  "features": [
    {
      "type": "Feature",
      "properties": {
        "parcel_id": "MH-AHM-KAR-BEN-246",
        "survey_no": "246",
        "gat_no": "246",
        "village": "Benwadi (बेनवडी)",
        "taluka": "Karjat (कर्जत)",
        "district": "Ahmednagar (अहमदनगर)",
        "state": "Maharashtra",
        "gis_code": "RVM2613272600130334420000",
        "owner_name": "भिमराव सावळा भिताडे, सारिका  नामदेव  भिताडे",
        "all_owners": [
          "भिमराव सावळा भिताडे",
          "सारिका  नामदेव  भिताडे",
          "गणेश भिमराव भिताडे"
        ],
        "khata_no": "211, 3016, 2535",
        "area_sqm": 46607.51,
        "area_acres": 11.52,
        "area_guntha": 460.69,
        "land_type": "जिरायत शेती (Jirayat - Rainfed Agricultural)",
        "source": "MahaBhuNaksha Official Live Cadastre",
        "status": "verified",
        "confidence_score": 98.8,
        "old_survey_area_acres": 11.52,
        "old_survey_area_sqm": 46607.51,
        "new_survey_area_acres": 11.52,
        "new_survey_area_sqm": 46607.51
      },
      "geometry": {
        "type": "Polygon",
        "coordinates": [
          [
            [
              74.9613014,
              18.4922694
            ],
            [
              74.9606316,
              18.4907422
            ],
            [
              74.9608776,
              18.490647
            ],
            [
              74.960629,
              18.4903037
            ],
            [
              74.9600656,
              18.4895563
            ],
            [
              74.9596392,
              18.489641
            ],
            [
              74.9590363,
              18.4897713
            ],
            [
              74.9590756,
              18.4899312
            ],
            [
              74.9593732,
              18.4912931
            ],
            [
              74.9595101,
              18.4915403
            ],
            [
              74.960042,
              18.4925026
            ],
            [
              74.9601381,
              18.4926565
            ],
            [
              74.9613014,
              18.4922694
            ]
          ]
        ]
      }
    }
  ]
}