{
  "type": "FeatureCollection",
  "name": "Benwadi_Gat_300_Cadastre",
  "crs": {
    "type": "name",
    "properties": {
      "name": "urn:ogc:def:crs:OGC:1.3:CRS84"
    }
  },
  "features": [
    {
      "type": "Feature",
      "properties": {
        "parcel_id": "MH-AHM-KAR-BEN-300",
        "survey_no": "300",
        "gat_no": "300",
        "village": "Benwadi (बेनवडी)",
        "taluka": "Karjat (कर्जत)",
        "district": "Ahmednagar (अहमदनगर)",
        "state": "Maharashtra",
        "gis_code": "RVM2613272600130334420000",
        "owner_name": "बाळू रघुनाथ धुमाळ",
        "all_owners": [
          "बाळू रघुनाथ धुमाळ"
        ],
        "khata_no": "2933",
        "area_sqm": 6529.84,
        "area_acres": 1.61,
        "area_guntha": 64.54,
        "land_type": "जिरायत शेती (Jirayat - Rainfed Agricultural)",
        "source": "MahaBhuNaksha Official Live Cadastre",
        "status": "verified",
        "confidence_score": 98.8,
        "old_survey_area_acres": 1.61,
        "old_survey_area_sqm": 6529.84,
        "new_survey_area_acres": 1.61,
        "new_survey_area_sqm": 6529.84
      },
      "geometry": {
        "type": "Polygon",
        "coordinates": [
          [
            [
              74.9655776,
              18.5026188
            ],
            [
              74.9661336,
              18.5024862
            ],
            [
              74.9660824,
              18.5022692
            ],
            [
              74.9651354,
              18.5025363
            ],
            [
              74.964517,
              18.5027092
            ],
            [
              74.9630151,
              18.5031482
            ],
            [
              74.962912,
              18.5031784
            ],
            [
              74.9629174,
              18.503295
            ],
            [
              74.963018,
              18.5032695
            ],
            [
              74.9639106,
              18.5030434
            ],
            [
              74.9646307,
              18.5028591
            ],
            [
              74.9655776,
              18.5026188
            ]
          ]
        ]
      }
    }
  ]
}