{
  "type": "FeatureCollection",
  "name": "Benwadi_Gat_96_Drone_Resurvey",
  "crs": {
    "type": "name",
    "properties": {
      "name": "urn:ogc:def:crs:OGC:1.3:CRS84"
    }
  },
  "features": [
    {
      "type": "Feature",
      "properties": {
        "parcel_id": "MH-AHM-KAR-BEN-96",
        "survey_no": "96",
        "gat_no": "96",
        "village": "Benwadi (बेनवडी)",
        "taluka": "Karjat (कर्जत)",
        "district": "Ahmednagar (अहमदनगर)",
        "state": "Maharashtra",
        "gis_code": "RVM2613272600130334420000",
        "owner_name": "आजिनाथ बापू खुडे, छाया \t नामदेव  शिंदे, महेश नवनाथ खुडे, मिराबाई  पंडित  वेळेकर, लता नवनाथ खुडे, अलका  संभाजी  उल्हारे, ओंकार नवनाथ खुडे, संगिता  बाळू  शिंदे, हिराबाई  दादू  शिंदे, दत्तू  धर्मा  खुडे",
        "all_owners": [
          "आजिनाथ बापू खुडे",
          "छाया \t नामदेव  शिंदे, महेश नवनाथ खुडे, मिराबाई  पंडित  वेळेकर, लता नवनाथ खुडे, अलका  संभाजी  उल्हारे, ओंकार नवनाथ खुडे, संगिता  बाळू  शिंदे, हिराबाई  दादू  शिंदे, दत्तू  धर्मा  खुडे",
          "कलावती बापूराव",
          "देवराव चंदर खुडे",
          "निलावती बाबूलाल भिसे",
          "यमुना साहेबराव दिवटे",
          "शालिनी अशोक भिसे, गोपाळ अशोक भिसे, कांतीलाल सिताराम भिसे, सुशिला श्रीरंग लोंढे, चंदन अशोक भिसे",
          "सूखदेव बापु खूडे"
        ],
        "khata_no": "18, 2602, 2648, 2649, 2659, 2754, 2954, 350",
        "area_sqm": 9342.96,
        "area_acres": 2.31,
        "area_guntha": 92.35,
        "land_type": "जिरायत शेती (Jirayat - Rainfed Agricultural)",
        "source": "MahaBhuNaksha Official Live Cadastre",
        "status": "needs_review",
        "confidence_score": 85.4,
        "old_survey_area_acres": 2.31,
        "old_survey_area_sqm": 9342.96,
        "new_survey_area_acres": 2.36,
        "new_survey_area_sqm": 9548.5,
        "area_diff_pct": 2.2,
        "mean_shift_m": 2.1,
        "iou_overlap_pct": 93.8,
        "review_reason": "Drone RTK photogrammetry detects a 2.2% area discrepancy (206 m²) with a mean bund shift of 2.1m along the farm boundary. Verification recommended.",
        "bhunaksha_geometry": {
          "type": "Polygon",
          "coordinates": [
            [
              [
                74.9812057,
                18.4880883
              ],
              [
                74.9812195,
                18.4879588
              ],
              [
                74.9813697,
                18.4865978
              ],
              [
                74.9804275,
                18.4871011
              ],
              [
                74.9806904,
                18.4876083
              ],
              [
                74.9809752,
                18.4881521
              ],
              [
                74.9812057,
                18.4880883
              ]
            ]
          ]
        }
      },
      "geometry": {
        "type": "Polygon",
        "coordinates": [
          [
            [
              74.9812159,
              18.4881112
            ],
            [
              74.9812299,
              18.4879803
            ],
            [
              74.9813817,
              18.4866044
            ],
            [
              74.9804292,
              18.4871132
            ],
            [
              74.980695,
              18.487626
            ],
            [
              74.9809829,
              18.4881757
            ],
            [
              74.9812159,
              18.4881112
            ]
          ]
        ]
      }
    }
  ]
}