{
  "type": "FeatureCollection",
  "name": "Benwadi_Gat_379_Drone_Resurvey",
  "crs": {
    "type": "name",
    "properties": {
      "name": "urn:ogc:def:crs:OGC:1.3:CRS84"
    }
  },
  "features": [
    {
      "type": "Feature",
      "properties": {
        "parcel_id": "MH-AHM-KAR-BEN-379",
        "survey_no": "379",
        "gat_no": "379",
        "village": "Benwadi (बेनवडी)",
        "taluka": "Karjat (कर्जत)",
        "district": "Ahmednagar (अहमदनगर)",
        "state": "Maharashtra",
        "gis_code": "RVM2613272600130334420000",
        "owner_name": "प्रयागाबाई खंडू गदादे, हनुमंत खंडू गदादे",
        "all_owners": [
          "प्रयागाबाई खंडू गदादे",
          "हनुमंत खंडू गदादे",
          "रावसाहेब खंडू गदादे"
        ],
        "khata_no": "2887, 3070, 268",
        "area_sqm": 53019.41,
        "area_acres": 13.1,
        "area_guntha": 524.06,
        "land_type": "जिरायत शेती (Jirayat - Rainfed Agricultural)",
        "source": "MahaBhuNaksha Official Live Cadastre",
        "status": "needs_review",
        "confidence_score": 84.5,
        "old_survey_area_acres": 13.1,
        "old_survey_area_sqm": 53019.41,
        "new_survey_area_acres": 13.48,
        "new_survey_area_sqm": 54557.0,
        "area_diff_pct": 2.9,
        "mean_shift_m": 1.4,
        "iou_overlap_pct": 93.1,
        "review_reason": "Drone RTK photogrammetry detects a 2.9% area discrepancy (1538 m²) with a mean bund shift of 1.4m along the farm boundary. Verification recommended.",
        "bhunaksha_geometry": {
          "type": "Polygon",
          "coordinates": [
            [
              [
                74.98058,
                18.5043138
              ],
              [
                74.9805421,
                18.5035076
              ],
              [
                74.980482,
                18.5020241
              ],
              [
                74.9793798,
                18.5017703
              ],
              [
                74.9786104,
                18.5015973
              ],
              [
                74.9786241,
                18.5017056
              ],
              [
                74.9787614,
                18.5026984
              ],
              [
                74.9787333,
                18.5028156
              ],
              [
                74.978643,
                18.5042493
              ],
              [
                74.9797127,
                18.504299
              ],
              [
                74.980508,
                18.5043246
              ],
              [
                74.98058,
                18.5043138
              ]
            ]
          ]
        }
      },
      "geometry": {
        "type": "Polygon",
        "coordinates": [
          [
            [
              74.9806013,
              18.504321
            ],
            [
              74.9805628,
              18.5035032
            ],
            [
              74.9805019,
              18.5019983
            ],
            [
              74.9793838,
              18.5017409
            ],
            [
              74.9786033,
              18.5015654
            ],
            [
              74.9786172,
              18.5016752
            ],
            [
              74.9787565,
              18.5026823
            ],
            [
              74.978728,
              18.5028012
            ],
            [
              74.9786364,
              18.5042556
            ],
            [
              74.9797215,
              18.504306
            ],
            [
              74.9805282,
              18.5043319
            ],
            [
              74.9806013,
              18.504321
            ]
          ]
        ]
      }
    }
  ]
}