{
  "type": "FeatureCollection",
  "name": "Benwadi_Gat_339_Cadastre",
  "crs": {
    "type": "name",
    "properties": {
      "name": "urn:ogc:def:crs:OGC:1.3:CRS84"
    }
  },
  "features": [
    {
      "type": "Feature",
      "properties": {
        "parcel_id": "MH-AHM-KAR-BEN-339",
        "survey_no": "339",
        "gat_no": "339",
        "village": "Benwadi (बेनवडी)",
        "taluka": "Karjat (कर्जत)",
        "district": "Ahmednagar (अहमदनगर)",
        "state": "Maharashtra",
        "gis_code": "RVM2613272600130334420000",
        "owner_name": "Registered Landholder",
        "all_owners": [],
        "khata_no": "—",
        "area_sqm": 3263.98,
        "area_acres": 0.81,
        "area_guntha": 32.26,
        "land_type": "जिरायत शेती (Jirayat - Rainfed Agricultural)",
        "source": "MahaBhuNaksha Official Live Cadastre",
        "status": "verified",
        "confidence_score": 98.8,
        "old_survey_area_acres": 0.81,
        "old_survey_area_sqm": 3263.98,
        "new_survey_area_acres": 0.81,
        "new_survey_area_sqm": 3263.98
      },
      "geometry": {
        "type": "Polygon",
        "coordinates": [
          [
            [
              74.973915,
              18.501742
            ],
            [
              74.9744009,
              18.5016381
            ],
            [
              74.9741354,
              18.5011387
            ],
            [
              74.9736276,
              18.5013199
            ],
            [
              74.9738697,
              18.5017528
            ],
            [
              74.973915,
              18.501742
            ]
          ]
        ]
      }
    }
  ]
}