{
  "type": "FeatureCollection",
  "name": "Benwadi_Gat_304_Cadastre",
  "crs": {
    "type": "name",
    "properties": {
      "name": "urn:ogc:def:crs:OGC:1.3:CRS84"
    }
  },
  "features": [
    {
      "type": "Feature",
      "properties": {
        "parcel_id": "MH-AHM-KAR-BEN-304",
        "survey_no": "304",
        "gat_no": "304",
        "village": "Benwadi (बेनवडी)",
        "taluka": "Karjat (कर्जत)",
        "district": "Ahmednagar (अहमदनगर)",
        "state": "Maharashtra",
        "gis_code": "RVM2613272600130334420000",
        "owner_name": "कल्याण भगवान धुमाळ",
        "all_owners": [
          "कल्याण भगवान धुमाळ"
        ],
        "khata_no": "3379",
        "area_sqm": 4386.22,
        "area_acres": 1.08,
        "area_guntha": 43.35,
        "land_type": "जिरायत शेती (Jirayat - Rainfed Agricultural)",
        "source": "MahaBhuNaksha Official Live Cadastre",
        "status": "verified",
        "confidence_score": 98.8,
        "old_survey_area_acres": 1.08,
        "old_survey_area_sqm": 4386.22,
        "new_survey_area_acres": 1.08,
        "new_survey_area_sqm": 4386.22
      },
      "geometry": {
        "type": "Polygon",
        "coordinates": [
          [
            [
              74.9645672,
              18.5041536
            ],
            [
              74.9652967,
              18.5041048
            ],
            [
              74.965519,
              18.5040778
            ],
            [
              74.9655672,
              18.5040746
            ],
            [
              74.9659949,
              18.5040399
            ],
            [
              74.9661573,
              18.504023
            ],
            [
              74.9660451,
              18.5039196
            ],
            [
              74.9652073,
              18.5039897
            ],
            [
              74.9642248,
              18.5040684
            ],
            [
              74.9630476,
              18.5041605
            ],
            [
              74.9629581,
              18.5041675
            ],
            [
              74.9629642,
              18.5042994
            ],
            [
              74.963053,
              18.5042913
            ],
            [
              74.9645672,
              18.5041536
            ]
          ]
        ]
      }
    }
  ]
}