{
  "type": "FeatureCollection",
  "name": "Benwadi_Gat_240_Drone_Resurvey",
  "crs": {
    "type": "name",
    "properties": {
      "name": "urn:ogc:def:crs:OGC:1.3:CRS84"
    }
  },
  "features": [
    {
      "type": "Feature",
      "properties": {
        "parcel_id": "MH-AHM-KAR-BEN-240",
        "survey_no": "240",
        "gat_no": "240",
        "village": "Benwadi (बेनवडी)",
        "taluka": "Karjat (कर्जत)",
        "district": "Ahmednagar (अहमदनगर)",
        "state": "Maharashtra",
        "gis_code": "RVM2613272600130334420000",
        "owner_name": "बलभिम भानूदास धूमाळ, सारिका मुकुंदा न्हाने, शिवगंगा लालासाहेब धुमाळ, संदीप लालासाहेब धुमाळ",
        "all_owners": [
          "बलभिम भानूदास धूमाळ",
          "सारिका मुकुंदा न्हाने, शिवगंगा लालासाहेब धुमाळ, संदीप लालासाहेब धुमाळ",
          "अर्जुन  पोपट  धुमाळ",
          "सायली  अर्जुन  धुमाळ",
          "बिभीषण पोपट  धुमाळ",
          "शुभांगी  बिभिषण धुमाळ",
          "शिवगंगा लालासाहेब धुमाळ",
          "सुदाम बलभिम धुमाळ",
          "सोनाली सुदाम धुमाळ",
          "अर्चना सतिष धुमाळ"
        ],
        "khata_no": "160, 281, 2920, 2921, 2922, 2923, 2925, 3059, 3060, 3061",
        "area_sqm": 112108.53,
        "area_acres": 27.7,
        "area_guntha": 1108.12,
        "land_type": "जिरायत शेती (Jirayat - Rainfed Agricultural)",
        "source": "MahaBhuNaksha Official Live Cadastre",
        "status": "needs_review",
        "confidence_score": 84.6,
        "old_survey_area_acres": 27.7,
        "old_survey_area_sqm": 112108.53,
        "new_survey_area_acres": 28.48,
        "new_survey_area_sqm": 115247.6,
        "area_diff_pct": 2.8,
        "mean_shift_m": 1.7,
        "iou_overlap_pct": 93.2,
        "review_reason": "Drone RTK photogrammetry detects a 2.8% area discrepancy (3139 m²) with a mean bund shift of 1.7m along the farm boundary. Verification recommended.",
        "bhunaksha_geometry": {
          "type": "Polygon",
          "coordinates": [
            [
              [
                74.9570375,
                18.4917088
              ],
              [
                74.956561,
                18.4908516
              ],
              [
                74.957879,
                18.4908144
              ],
              [
                74.9581801,
                18.4916324
              ],
              [
                74.9595101,
                18.4915403
              ],
              [
                74.9593732,
                18.4912931
              ],
              [
                74.9590756,
                18.4899312
              ],
              [
                74.958545,
                18.4899748
              ],
              [
                74.9584581,
                18.4896889
              ],
              [
                74.9580029,
                18.4898054
              ],
              [
                74.9577172,
                18.4898867
              ],
              [
                74.9575624,
                18.4892466
              ],
              [
                74.9547882,
                18.4898153
              ],
              [
                74.9532757,
                18.4901252
              ],
              [
                74.953363,
                18.4902467
              ],
              [
                74.95383,
                18.490735
              ],
              [
                74.9538725,
                18.4907795
              ],
              [
                74.9541618,
                18.491082
              ],
              [
                74.9541957,
                18.4911115
              ],
              [
                74.9550509,
                18.4918577
              ],
              [
                74.955174,
                18.4918484
              ],
              [
                74.9570375,
                18.4917088
              ]
            ]
          ]
        }
      },
      "geometry": {
        "type": "Polygon",
        "coordinates": [
          [
            [
              74.9570577,
              18.4917133
            ],
            [
              74.9565746,
              18.4908442
            ],
            [
              74.9579109,
              18.4908064
            ],
            [
              74.9582162,
              18.4916358
            ],
            [
              74.9595647,
              18.4915424
            ],
            [
              74.9594259,
              18.4912918
            ],
            [
              74.9591242,
              18.489911
            ],
            [
              74.9585862,
              18.4899552
            ],
            [
              74.9584981,
              18.4896653
            ],
            [
              74.9580366,
              18.4897834
            ],
            [
              74.9577469,
              18.4898658
            ],
            [
              74.9575899,
              18.4892168
            ],
            [
              74.9547772,
              18.4897934
            ],
            [
              74.9532436,
              18.4901077
            ],
            [
              74.9533321,
              18.4902308
            ],
            [
              74.9538056,
              18.4907259
            ],
            [
              74.9538487,
              18.490771
            ],
            [
              74.9541421,
              18.4910778
            ],
            [
              74.9541764,
              18.4911077
            ],
            [
              74.9550435,
              18.4918642
            ],
            [
              74.9551683,
              18.4918548
            ],
            [
              74.9570577,
              18.4917133
            ]
          ]
        ]
      }
    }
  ]
}