{
  "type": "FeatureCollection",
  "name": "Benwadi_Gat_373_Cadastre",
  "crs": {
    "type": "name",
    "properties": {
      "name": "urn:ogc:def:crs:OGC:1.3:CRS84"
    }
  },
  "features": [
    {
      "type": "Feature",
      "properties": {
        "parcel_id": "MH-AHM-KAR-BEN-373",
        "survey_no": "373",
        "gat_no": "373",
        "village": "Benwadi (बेनवडी)",
        "taluka": "Karjat (कर्जत)",
        "district": "Ahmednagar (अहमदनगर)",
        "state": "Maharashtra",
        "gis_code": "RVM2613272600130334420000",
        "owner_name": "देविदास धोंडीबा गदादे, मारुती धोंडीबा गदादे, रामदास धोंडीबा गदादे, लक्ष्मण धोंडीबा गदादे, शिवराम धोंडीबा गदादे, दशरथ धोंडीबा गदादे, मूक्ताबाई धोंडिबा गदादे",
        "all_owners": [
          "देविदास धोंडीबा गदादे, मारुती धोंडीबा गदादे, रामदास धोंडीबा गदादे, लक्ष्मण धोंडीबा गदादे, शिवराम धोंडीबा गदादे, दशरथ धोंडीबा गदादे",
          "मूक्ताबाई धोंडिबा गदादे"
        ],
        "khata_no": "3018, 463",
        "area_sqm": 49545.37,
        "area_acres": 12.24,
        "area_guntha": 489.72,
        "land_type": "जिरायत शेती (Jirayat - Rainfed Agricultural)",
        "source": "MahaBhuNaksha Official Live Cadastre",
        "status": "verified",
        "confidence_score": 98.8,
        "old_survey_area_acres": 12.24,
        "old_survey_area_sqm": 49545.37,
        "new_survey_area_acres": 12.24,
        "new_survey_area_sqm": 49545.37
      },
      "geometry": {
        "type": "Polygon",
        "coordinates": [
          [
            [
              74.9834183,
              18.5026551
            ],
            [
              74.983284,
              18.501603
            ],
            [
              74.9831456,
              18.5005809
            ],
            [
              74.9830004,
              18.4993772
            ],
            [
              74.9828798,
              18.4993853
            ],
            [
              74.9820375,
              18.499381
            ],
            [
              74.9821824,
              18.5000629
            ],
            [
              74.9812828,
              18.500207
            ],
            [
              74.9813077,
              18.5007899
            ],
            [
              74.9813423,
              18.5013282
            ],
            [
              74.9813511,
              18.50154
            ],
            [
              74.9823567,
              18.5014545
            ],
            [
              74.9825564,
              18.5025486
            ],
            [
              74.9827967,
              18.5026053
            ],
            [
              74.983131,
              18.5027046
            ],
            [
              74.9834183,
              18.5026551
            ]
          ]
        ]
      }
    }
  ]
}