{
  "type": "FeatureCollection",
  "name": "Benwadi_Gat_294_Cadastre",
  "crs": {
    "type": "name",
    "properties": {
      "name": "urn:ogc:def:crs:OGC:1.3:CRS84"
    }
  },
  "features": [
    {
      "type": "Feature",
      "properties": {
        "parcel_id": "MH-AHM-KAR-BEN-294",
        "survey_no": "294",
        "gat_no": "294",
        "village": "Benwadi (बेनवडी)",
        "taluka": "Karjat (कर्जत)",
        "district": "Ahmednagar (अहमदनगर)",
        "state": "Maharashtra",
        "gis_code": "RVM2613272600130334420000",
        "owner_name": "संदीप उत्तम धुमाळ, काशिनाथ नारायण धुमाळ",
        "all_owners": [
          "संदीप उत्तम धुमाळ",
          "काशिनाथ नारायण धुमाळ",
          "नितीन मोहन धुमाळ, प्रदिप मोहन धुमाळ, पद्मिनी मोहन धुमाळ",
          "उत्तम काशिनाथ धूमाळ",
          "हनूमंत काशिनाथ धूमाळ",
          "आत्माराम विश्वनाथ धूमाळ",
          "नवनाथ विश्वनाथ धूमाळ",
          "गूलाब विश्वनाथ धूमाळ"
        ],
        "khata_no": "3368, 34, 525, 526, 527, 579, 580, 581",
        "area_sqm": 111814.11,
        "area_acres": 27.63,
        "area_guntha": 1105.21,
        "land_type": "जिरायत शेती (Jirayat - Rainfed Agricultural)",
        "source": "MahaBhuNaksha Official Live Cadastre",
        "status": "verified",
        "confidence_score": 98.8,
        "old_survey_area_acres": 27.63,
        "old_survey_area_sqm": 111814.11,
        "new_survey_area_acres": 27.63,
        "new_survey_area_sqm": 111814.11
      },
      "geometry": {
        "type": "Polygon",
        "coordinates": [
          [
            [
              74.9660824,
              18.5022692
            ],
            [
              74.9659467,
              18.5017647
            ],
            [
              74.9658942,
              18.5016022
            ],
            [
              74.9658523,
              18.5014504
            ],
            [
              74.9661911,
              18.5012884
            ],
            [
              74.9667111,
              18.5010541
            ],
            [
              74.9667199,
              18.5019614
            ],
            [
              74.9667422,
              18.5028411
            ],
            [
              74.9673244,
              18.5027175
            ],
            [
              74.9682797,
              18.5025201
            ],
            [
              74.968402,
              18.5030304
            ],
            [
              74.9691505,
              18.5029518
            ],
            [
              74.969784,
              18.502897
            ],
            [
              74.970382,
              18.5028407
            ],
            [
              74.970397,
              18.5026305
            ],
            [
              74.9704235,
              18.5023043
            ],
            [
              74.9696525,
              18.5023366
            ],
            [
              74.9696704,
              18.5021108
            ],
            [
              74.9704437,
              18.5020748
            ],
            [
              74.9704945,
              18.5015411
            ],
            [
              74.9703962,
              18.5009494
            ],
            [
              74.9703678,
              18.5009594
            ],
            [
              74.9695684,
              18.5011076
            ],
            [
              74.9680517,
              18.5013754
            ],
            [
              74.9680047,
              18.5011546
            ],
            [
              74.9679544,
              18.500885
            ],
            [
              74.9679124,
              18.5006441
            ],
            [
              74.9678889,
              18.5005254
            ],
            [
              74.967267,
              18.5007151
            ],
            [
              74.9666484,
              18.5008778
            ],
            [
              74.9665377,
              18.5009398
            ],
            [
              74.9657643,
              18.5013131
            ],
            [
              74.9653856,
              18.5014415
            ],
            [
              74.9650664,
              18.5015539
            ],
            [
              74.9638713,
              18.5020056
            ],
            [
              74.963013,
              18.5023185
            ],
            [
              74.9629062,
              18.5027067
            ],
            [
              74.9628924,
              18.5027573
            ],
            [
              74.962912,
              18.5031784
            ],
            [
              74.9630151,
              18.5031482
            ],
            [
              74.964517,
              18.5027092
            ],
            [
              74.9651354,
              18.5025363
            ],
            [
              74.9660824,
              18.5022692
            ]
          ]
        ]
      }
    }
  ]
}