{
  "type": "FeatureCollection",
  "name": "Benwadi_Gat_404_Cadastre",
  "crs": {
    "type": "name",
    "properties": {
      "name": "urn:ogc:def:crs:OGC:1.3:CRS84"
    }
  },
  "features": [
    {
      "type": "Feature",
      "properties": {
        "parcel_id": "MH-AHM-KAR-BEN-404",
        "survey_no": "404",
        "gat_no": "404",
        "village": "Benwadi (बेनवडी)",
        "taluka": "Karjat (कर्जत)",
        "district": "Ahmednagar (अहमदनगर)",
        "state": "Maharashtra",
        "gis_code": "RVM2613272600130334420000",
        "owner_name": "चंद्रकला किसन शिंदे, भिमराव मारुती उकीरडे",
        "all_owners": [
          "चंद्रकला किसन शिंदे",
          "भिमराव मारुती उकीरडे"
        ],
        "khata_no": "1053, 212",
        "area_sqm": 16831.66,
        "area_acres": 4.16,
        "area_guntha": 166.37,
        "land_type": "जिरायत शेती (Jirayat - Rainfed Agricultural)",
        "source": "MahaBhuNaksha Official Live Cadastre",
        "status": "verified",
        "confidence_score": 98.8,
        "old_survey_area_acres": 4.16,
        "old_survey_area_sqm": 16831.66,
        "new_survey_area_acres": 4.16,
        "new_survey_area_sqm": 16831.66
      },
      "geometry": {
        "type": "Polygon",
        "coordinates": [
          [
            [
              75.0018727,
              18.5035395
            ],
            [
              75.0019748,
              18.5029352
            ],
            [
              75.0020095,
              18.5027296
            ],
            [
              75.0016541,
              18.5029403
            ],
            [
              75.0009359,
              18.5033561
            ],
            [
              75.0001682,
              18.5038006
            ],
            [
              74.9992724,
              18.5043278
            ],
            [
              74.9998416,
              18.5044959
            ],
            [
              75.0007209,
              18.504079
            ],
            [
              75.0012959,
              18.5038097
            ],
            [
              75.0018727,
              18.5035395
            ]
          ]
        ]
      }
    }
  ]
}