{
  "type": "FeatureCollection",
  "name": "Benwadi_Gat_505_Cadastre",
  "crs": {
    "type": "name",
    "properties": {
      "name": "urn:ogc:def:crs:OGC:1.3:CRS84"
    }
  },
  "features": [
    {
      "type": "Feature",
      "properties": {
        "parcel_id": "MH-AHM-KAR-BEN-505",
        "survey_no": "505",
        "gat_no": "505",
        "village": "Benwadi (बेनवडी)",
        "taluka": "Karjat (कर्जत)",
        "district": "Ahmednagar (अहमदनगर)",
        "state": "Maharashtra",
        "gis_code": "RVM2613272600130334420000",
        "owner_name": "मोहन रामा गदादे",
        "all_owners": [
          "मोहन रामा गदादे"
        ],
        "khata_no": "931",
        "area_sqm": 3720.69,
        "area_acres": 0.92,
        "area_guntha": 36.78,
        "land_type": "जिरायत शेती (Jirayat - Rainfed Agricultural)",
        "source": "MahaBhuNaksha Official Live Cadastre",
        "status": "verified",
        "confidence_score": 98.8,
        "old_survey_area_acres": 0.92,
        "old_survey_area_sqm": 3720.69,
        "new_survey_area_acres": 0.92,
        "new_survey_area_sqm": 3720.69
      },
      "geometry": {
        "type": "Polygon",
        "coordinates": [
          [
            [
              74.9819853,
              18.4952197
            ],
            [
              74.9819456,
              18.4952243
            ],
            [
              74.9819333,
              18.495236
            ],
            [
              74.9817953,
              18.4953304
            ],
            [
              74.9818073,
              18.4953922
            ],
            [
              74.9818584,
              18.4956312
            ],
            [
              74.9819803,
              18.4962461
            ],
            [
              74.9820849,
              18.4967637
            ],
            [
              74.9823005,
              18.4968478
            ],
            [
              74.9821737,
              18.4961804
            ],
            [
              74.982073,
              18.4956502
            ],
            [
              74.9819853,
              18.4952197
            ]
          ]
        ]
      }
    }
  ]
}