{
  "type": "FeatureCollection",
  "name": "Benwadi_Gat_492_Drone_Resurvey",
  "crs": {
    "type": "name",
    "properties": {
      "name": "urn:ogc:def:crs:OGC:1.3:CRS84"
    }
  },
  "features": [
    {
      "type": "Feature",
      "properties": {
        "parcel_id": "MH-AHM-KAR-BEN-492",
        "survey_no": "492",
        "gat_no": "492",
        "village": "Benwadi (बेनवडी)",
        "taluka": "Karjat (कर्जत)",
        "district": "Ahmednagar (अहमदनगर)",
        "state": "Maharashtra",
        "gis_code": "RVM2613272600130334420000",
        "owner_name": "ज्ञानदेव नामदेव गदादे",
        "all_owners": [
          "ज्ञानदेव नामदेव गदादे"
        ],
        "khata_no": "813",
        "area_sqm": 12241.72,
        "area_acres": 3.02,
        "area_guntha": 121.0,
        "land_type": "जिरायत शेती (Jirayat - Rainfed Agricultural)",
        "source": "MahaBhuNaksha Official Live Cadastre",
        "status": "needs_review",
        "confidence_score": 84.9,
        "old_survey_area_acres": 3.02,
        "old_survey_area_sqm": 12241.72,
        "new_survey_area_acres": 3.1,
        "new_survey_area_sqm": 12560.0,
        "area_diff_pct": 2.6,
        "mean_shift_m": 2.1,
        "iou_overlap_pct": 93.4,
        "review_reason": "Drone RTK photogrammetry detects a 2.6% area discrepancy (318 m²) with a mean bund shift of 2.1m along the farm boundary. Verification recommended.",
        "bhunaksha_geometry": {
          "type": "Polygon",
          "coordinates": [
            [
              [
                74.9889896,
                18.4980209
              ],
              [
                74.9881623,
                18.4980187
              ],
              [
                74.9868588,
                18.4980354
              ],
              [
                74.9867978,
                18.498453
              ],
              [
                74.9880981,
                18.4984818
              ],
              [
                74.9892538,
                18.4985073
              ],
              [
                74.9892235,
                18.4984122
              ],
              [
                74.9889896,
                18.4980209
              ]
            ]
          ]
        }
      },
      "geometry": {
        "type": "Polygon",
        "coordinates": [
          [
            [
              74.9889884,
              18.4980021
            ],
            [
              74.9881504,
              18.4979999
            ],
            [
              74.9868301,
              18.4980168
            ],
            [
              74.9867683,
              18.4984398
            ],
            [
              74.9880854,
              18.498469
            ],
            [
              74.989256,
              18.4984948
            ],
            [
              74.9892253,
              18.4983985
            ],
            [
              74.9889884,
              18.4980021
            ]
          ]
        ]
      }
    }
  ]
}