{
  "type": "FeatureCollection",
  "name": "Benwadi_Gat_372_Drone_Resurvey",
  "crs": {
    "type": "name",
    "properties": {
      "name": "urn:ogc:def:crs:OGC:1.3:CRS84"
    }
  },
  "features": [
    {
      "type": "Feature",
      "properties": {
        "parcel_id": "MH-AHM-KAR-BEN-372",
        "survey_no": "372",
        "gat_no": "372",
        "village": "Benwadi (बेनवडी)",
        "taluka": "Karjat (कर्जत)",
        "district": "Ahmednagar (अहमदनगर)",
        "state": "Maharashtra",
        "gis_code": "RVM2613272600130334420000",
        "owner_name": "मच्छिंद्र तात्यासाहेब गदादे, गोपीनाथ भागवत गदादे",
        "all_owners": [
          "मच्छिंद्र तात्यासाहेब गदादे",
          "गोपीनाथ भागवत गदादे"
        ],
        "khata_no": "2255, 629",
        "area_sqm": 7548.46,
        "area_acres": 1.87,
        "area_guntha": 74.61,
        "land_type": "जिरायत शेती (Jirayat - Rainfed Agricultural)",
        "source": "MahaBhuNaksha Official Live Cadastre",
        "status": "needs_review",
        "confidence_score": 84.9,
        "old_survey_area_acres": 1.87,
        "old_survey_area_sqm": 7548.46,
        "new_survey_area_acres": 1.92,
        "new_survey_area_sqm": 7744.7,
        "area_diff_pct": 2.6,
        "mean_shift_m": 1.7,
        "iou_overlap_pct": 93.4,
        "review_reason": "Drone RTK photogrammetry detects a 2.6% area discrepancy (196 m²) with a mean bund shift of 1.7m along the farm boundary. Verification recommended.",
        "bhunaksha_geometry": {
          "type": "Polygon",
          "coordinates": [
            [
              [
                74.9820375,
                18.499381
              ],
              [
                74.9812428,
                18.4993785
              ],
              [
                74.9812828,
                18.500207
              ],
              [
                74.9821824,
                18.5000629
              ],
              [
                74.9820375,
                18.499381
              ]
            ]
          ]
        }
      },
      "geometry": {
        "type": "Polygon",
        "coordinates": [
          [
            [
              74.9820379,
              18.4993614
            ],
            [
              74.9812329,
              18.4993588
            ],
            [
              74.9812734,
              18.500198
            ],
            [
              74.9821846,
              18.5000521
            ],
            [
              74.9820379,
              18.4993614
            ]
          ]
        ]
      }
    }
  ]
}