{
  "type": "FeatureCollection",
  "name": "Benwadi_Gat_244_Cadastre",
  "crs": {
    "type": "name",
    "properties": {
      "name": "urn:ogc:def:crs:OGC:1.3:CRS84"
    }
  },
  "features": [
    {
      "type": "Feature",
      "properties": {
        "parcel_id": "MH-AHM-KAR-BEN-244",
        "survey_no": "244",
        "gat_no": "244",
        "village": "Benwadi (बेनवडी)",
        "taluka": "Karjat (कर्जत)",
        "district": "Ahmednagar (अहमदनगर)",
        "state": "Maharashtra",
        "gis_code": "RVM2613272600130334420000",
        "owner_name": "पोपटलाल गोकुळदास बोरा",
        "all_owners": [
          "पोपटलाल गोकुळदास बोरा"
        ],
        "khata_no": "2484",
        "area_sqm": 5187.47,
        "area_acres": 1.28,
        "area_guntha": 51.27,
        "land_type": "जिरायत शेती (Jirayat - Rainfed Agricultural)",
        "source": "MahaBhuNaksha Official Live Cadastre",
        "status": "verified",
        "confidence_score": 98.8,
        "old_survey_area_acres": 1.28,
        "old_survey_area_sqm": 5187.47,
        "new_survey_area_acres": 1.28,
        "new_survey_area_sqm": 5187.47
      },
      "geometry": {
        "type": "Polygon",
        "coordinates": [
          [
            [
              74.9603221,
              18.4940024
            ],
            [
              74.9602422,
              18.4933441
            ],
            [
              74.9595067,
              18.4935058
            ],
            [
              74.9596123,
              18.4940499
            ],
            [
              74.9603221,
              18.4940024
            ]
          ]
        ]
      }
    }
  ]
}