{
  "type": "FeatureCollection",
  "name": "Benwadi_Gat_524_Drone_Resurvey",
  "crs": {
    "type": "name",
    "properties": {
      "name": "urn:ogc:def:crs:OGC:1.3:CRS84"
    }
  },
  "features": [
    {
      "type": "Feature",
      "properties": {
        "parcel_id": "MH-AHM-KAR-BEN-524",
        "survey_no": "524",
        "gat_no": "524",
        "village": "Benwadi (बेनवडी)",
        "taluka": "Karjat (कर्जत)",
        "district": "Ahmednagar (अहमदनगर)",
        "state": "Maharashtra",
        "gis_code": "RVM2613272600130334420000",
        "owner_name": "सुनिता बबन गदादे",
        "all_owners": [
          "सुनिता बबन गदादे"
        ],
        "khata_no": "354",
        "area_sqm": 3228.34,
        "area_acres": 0.8,
        "area_guntha": 31.91,
        "land_type": "जिरायत शेती (Jirayat - Rainfed Agricultural)",
        "source": "MahaBhuNaksha Official Live Cadastre",
        "status": "needs_review",
        "confidence_score": 85.1,
        "old_survey_area_acres": 0.8,
        "old_survey_area_sqm": 3228.34,
        "new_survey_area_acres": 0.82,
        "new_survey_area_sqm": 3305.8,
        "area_diff_pct": 2.4,
        "mean_shift_m": 2.1,
        "iou_overlap_pct": 93.6,
        "review_reason": "Drone RTK photogrammetry detects a 2.4% area discrepancy (77 m²) with a mean bund shift of 2.1m along the farm boundary. Verification recommended.",
        "bhunaksha_geometry": {
          "type": "Polygon",
          "coordinates": [
            [
              [
                74.9830963,
                18.4926002
              ],
              [
                74.9829927,
                18.4926065
              ],
              [
                74.9829227,
                18.4921994
              ],
              [
                74.982684,
                18.4922154
              ],
              [
                74.9826949,
                18.4923456
              ],
              [
                74.9827239,
                18.4924443
              ],
              [
                74.9827979,
                18.4926691
              ],
              [
                74.9828573,
                18.4928544
              ],
              [
                74.9825955,
                18.4928404
              ],
              [
                74.9821283,
                18.4928201
              ],
              [
                74.9821424,
                18.4928952
              ],
              [
                74.9824129,
                18.4929224
              ],
              [
                74.9826518,
                18.4929493
              ],
              [
                74.9831538,
                18.4930029
              ],
              [
                74.9830963,
                18.4926002
              ]
            ]
          ]
        }
      },
      "geometry": {
        "type": "Polygon",
        "coordinates": [
          [
            [
              74.9830813,
              18.4926023
            ],
            [
              74.9829765,
              18.4926087
            ],
            [
              74.9829056,
              18.4921968
            ],
            [
              74.9826641,
              18.4922129
            ],
            [
              74.9826751,
              18.4923447
            ],
            [
              74.9827045,
              18.4924446
            ],
            [
              74.9827793,
              18.4926721
            ],
            [
              74.9828395,
              18.4928596
            ],
            [
              74.9825745,
              18.4928454
            ],
            [
              74.9821018,
              18.4928249
            ],
            [
              74.982116,
              18.4929009
            ],
            [
              74.9823898,
              18.4929284
            ],
            [
              74.9826315,
              18.4929556
            ],
            [
              74.9831395,
              18.4930098
            ],
            [
              74.9830813,
              18.4926023
            ]
          ]
        ]
      }
    }
  ]
}