{
  "type": "FeatureCollection",
  "name": "Benwadi_Gat_286_Drone_Resurvey",
  "crs": {
    "type": "name",
    "properties": {
      "name": "urn:ogc:def:crs:OGC:1.3:CRS84"
    }
  },
  "features": [
    {
      "type": "Feature",
      "properties": {
        "parcel_id": "MH-AHM-KAR-BEN-286",
        "survey_no": "286",
        "gat_no": "286",
        "village": "Benwadi (बेनवडी)",
        "taluka": "Karjat (कर्जत)",
        "district": "Ahmednagar (अहमदनगर)",
        "state": "Maharashtra",
        "gis_code": "RVM2613272600130334420000",
        "owner_name": "किसनाबाई डिगांबर धुमाळ, राजश्री बबन तोरमल, रामदास दिगंबर धुमाळ, पोपट दिगांबर धुमाळ",
        "all_owners": [
          "किसनाबाई डिगांबर धुमाळ, राजश्री बबन तोरमल, रामदास दिगंबर धुमाळ, पोपट दिगांबर धुमाळ"
        ],
        "khata_no": "105",
        "area_sqm": 2714.06,
        "area_acres": 0.67,
        "area_guntha": 26.83,
        "land_type": "जिरायत शेती (Jirayat - Rainfed Agricultural)",
        "source": "MahaBhuNaksha Official Live Cadastre",
        "status": "needs_review",
        "confidence_score": 85.4,
        "old_survey_area_acres": 0.67,
        "old_survey_area_sqm": 2714.06,
        "new_survey_area_acres": 0.68,
        "new_survey_area_sqm": 2773.8,
        "area_diff_pct": 2.2,
        "mean_shift_m": 1.5,
        "iou_overlap_pct": 93.8,
        "review_reason": "Drone RTK photogrammetry detects a 2.2% area discrepancy (60 m²) with a mean bund shift of 1.5m along the farm boundary. Verification recommended.",
        "bhunaksha_geometry": {
          "type": "Polygon",
          "coordinates": [
            [
              [
                74.9689596,
                18.5005644
              ],
              [
                74.9689402,
                18.5003611
              ],
              [
                74.9689307,
                18.5002407
              ],
              [
                74.9685282,
                18.5003608
              ],
              [
                74.9682474,
                18.500416
              ],
              [
                74.9678889,
                18.5005254
              ],
              [
                74.9679124,
                18.5006441
              ],
              [
                74.9684485,
                18.5005968
              ],
              [
                74.9689596,
                18.5005644
              ]
            ]
          ]
        }
      },
      "geometry": {
        "type": "Polygon",
        "coordinates": [
          [
            [
              74.968968,
              18.5005787
            ],
            [
              74.9689484,
              18.5003731
            ],
            [
              74.9689388,
              18.5002514
            ],
            [
              74.9685319,
              18.5003728
            ],
            [
              74.968248,
              18.5004286
            ],
            [
              74.9678856,
              18.5005392
            ],
            [
              74.9679094,
              18.5006592
            ],
            [
              74.9684513,
              18.5006114
            ],
            [
              74.968968,
              18.5005787
            ]
          ]
        ]
      }
    }
  ]
}