{
  "type": "FeatureCollection",
  "name": "Benwadi_Gat_396_Drone_Resurvey",
  "crs": {
    "type": "name",
    "properties": {
      "name": "urn:ogc:def:crs:OGC:1.3:CRS84"
    }
  },
  "features": [
    {
      "type": "Feature",
      "properties": {
        "parcel_id": "MH-AHM-KAR-BEN-396",
        "survey_no": "396",
        "gat_no": "396",
        "village": "Benwadi (बेनवडी)",
        "taluka": "Karjat (कर्जत)",
        "district": "Ahmednagar (अहमदनगर)",
        "state": "Maharashtra",
        "gis_code": "RVM2613272600130334420000",
        "owner_name": "उत्कर्ष अरुण गायकवाड, गणेश दादासाहेब गायकवाड",
        "all_owners": [
          "उत्कर्ष अरुण गायकवाड",
          "गणेश दादासाहेब गायकवाड",
          "औदुंबर  संपत  गायकवाड",
          "आशा  औदुंबर  गायकवाड",
          "अमोल संपत गायकवाड",
          "दिपाली राहुल यादव, उदय भरत गायकवाड, जयदिप भरत गायकवाड, भरत बबनराव गायकवाड",
          "संदीप संभाजी गायकवाड",
          "उदय भरत गायकवाड",
          "बाळासाहेब भाऊसाहेब रणदिवे",
          "भगवान शंकर कदम",
          "गणेश दादासाहेब गायकवाड"
        ],
        "khata_no": "3285, 803, 2734, 2735, 798, 2397, 3190, 801, 890, 491, 803",
        "area_sqm": 102882.23,
        "area_acres": 25.42,
        "area_guntha": 1016.92,
        "land_type": "जिरायत शेती (Jirayat - Rainfed Agricultural)",
        "source": "MahaBhuNaksha Official Live Cadastre",
        "status": "needs_review",
        "confidence_score": 85.4,
        "old_survey_area_acres": 25.42,
        "old_survey_area_sqm": 102882.23,
        "new_survey_area_acres": 25.98,
        "new_survey_area_sqm": 105145.6,
        "area_diff_pct": 2.2,
        "mean_shift_m": 2.1,
        "iou_overlap_pct": 93.8,
        "review_reason": "Drone RTK photogrammetry detects a 2.2% area discrepancy (2263 m²) with a mean bund shift of 2.1m along the farm boundary. Verification recommended.",
        "bhunaksha_geometry": {
          "type": "Polygon",
          "coordinates": [
            [
              [
                74.9949924,
                18.5047413
              ],
              [
                74.994831,
                18.5039423
              ],
              [
                74.9944574,
                18.502296
              ],
              [
                74.9942344,
                18.5012856
              ],
              [
                74.9936829,
                18.501541
              ],
              [
                74.9930595,
                18.5018073
              ],
              [
                74.9923205,
                18.5018932
              ],
              [
                74.9916951,
                18.5019594
              ],
              [
                74.9916184,
                18.5019888
              ],
              [
                74.991738,
                18.5023892
              ],
              [
                74.9923673,
                18.5045222
              ],
              [
                74.9925854,
                18.5053152
              ],
              [
                74.9932294,
                18.5051689
              ],
              [
                74.9949924,
                18.5047413
              ]
            ]
          ]
        }
      },
      "geometry": {
        "type": "Polygon",
        "coordinates": [
          [
            [
              74.9950205,
              18.5047779
            ],
            [
              74.9948573,
              18.5039701
            ],
            [
              74.9944796,
              18.5023058
            ],
            [
              74.9942542,
              18.5012844
            ],
            [
              74.9936966,
              18.5015426
            ],
            [
              74.9930664,
              18.5018118
            ],
            [
              74.9923193,
              18.5018986
            ],
            [
              74.9916871,
              18.5019655
            ],
            [
              74.9916095,
              18.5019953
            ],
            [
              74.9917305,
              18.5024
            ],
            [
              74.9923666,
              18.5045564
            ],
            [
              74.9925871,
              18.505358
            ],
            [
              74.9932382,
              18.5052101
            ],
            [
              74.9950205,
              18.5047779
            ]
          ]
        ]
      }
    }
  ]
}