{
  "type": "FeatureCollection",
  "name": "Benwadi_Gat_126_Drone_Resurvey",
  "crs": {
    "type": "name",
    "properties": {
      "name": "urn:ogc:def:crs:OGC:1.3:CRS84"
    }
  },
  "features": [
    {
      "type": "Feature",
      "properties": {
        "parcel_id": "MH-AHM-KAR-BEN-126",
        "survey_no": "126",
        "gat_no": "126",
        "village": "Benwadi (बेनवडी)",
        "taluka": "Karjat (कर्जत)",
        "district": "Ahmednagar (अहमदनगर)",
        "state": "Maharashtra",
        "gis_code": "RVM2613272600130334420000",
        "owner_name": "विनायक साहेबराव गदादे, बबई देविदास गदादे",
        "all_owners": [
          "विनायक साहेबराव गदादे",
          "बबई देविदास गदादे",
          "पांडूरंग देविदास गदादे",
          "खंडू देविदास गदादे",
          "राधाबाई भरत वाघमारे",
          "मच्छिंद्र साहेबराव गदादे",
          "छबाबाई माणिक जाधव",
          "महाराष्ट्र राज्याचे मा.राज्यपाल यांचे वतीने जलसंपदा विभाग महाराष्ट्र शासनाचे प्राधिकृत प्रतिनिधी – कार्यकारी अभियंता, कुकडी वितरण विभाग कोळवडी, ता.कर्जत यांचे कबुलीजबाबासाठी कुलमखत्यार म्हणून- कनिष्ठ लिपिक कुकडी वितरण बांधकाम विभाग कोळवडी ता कर्जत –",
          "संजय माणिक जाधव",
          "महाराष्ट्र राज्याचे मा.राज्यपाल यांचे वतीने जलसंपदा विभाग महाराष्ट्र शासनाचे प्राधिकृत प्रतिनिधी – कार्यकारी अभियंता, कुकडी वितरण विभाग कोळवडी, ता.कर्जत यांचे कबुलीजबाबासाठी कुलमखत्यार म्हणून- कनिष्ठ लिपिक कुकडी वितरण बांधकाम विभाग कोळवडी ता कर्जत –",
          "धनराज माणिक जाधव"
        ],
        "khata_no": "534, 893, 894, 895, 896, 536, 992, 3185, 993, 3183, 991",
        "area_sqm": 62257.78,
        "area_acres": 15.38,
        "area_guntha": 615.38,
        "land_type": "जिरायत शेती (Jirayat - Rainfed Agricultural)",
        "source": "MahaBhuNaksha Official Live Cadastre",
        "status": "needs_review",
        "confidence_score": 85.4,
        "old_survey_area_acres": 15.38,
        "old_survey_area_sqm": 62257.78,
        "new_survey_area_acres": 15.72,
        "new_survey_area_sqm": 63627.5,
        "area_diff_pct": 2.2,
        "mean_shift_m": 1.5,
        "iou_overlap_pct": 93.8,
        "review_reason": "Drone RTK photogrammetry detects a 2.2% area discrepancy (1370 m²) with a mean bund shift of 1.5m along the farm boundary. Verification recommended.",
        "bhunaksha_geometry": {
          "type": "Polygon",
          "coordinates": [
            [
              [
                74.9801126,
                18.4846916
              ],
              [
                74.9792142,
                18.4837075
              ],
              [
                74.9777312,
                18.4842673
              ],
              [
                74.9750987,
                18.4852803
              ],
              [
                74.9756444,
                18.4862395
              ],
              [
                74.9767326,
                18.4858683
              ],
              [
                74.9787538,
                18.4851683
              ],
              [
                74.9801126,
                18.4846916
              ]
            ]
          ]
        }
      },
      "geometry": {
        "type": "Polygon",
        "coordinates": [
          [
            [
              74.9801513,
              18.484696
            ],
            [
              74.9792431,
              18.4837011
            ],
            [
              74.9777439,
              18.4842671
            ],
            [
              74.9750826,
              18.4852911
            ],
            [
              74.9756342,
              18.4862608
            ],
            [
              74.9767343,
              18.4858856
            ],
            [
              74.9787777,
              18.4851779
            ],
            [
              74.9801513,
              18.484696
            ]
          ]
        ]
      }
    }
  ]
}