{
  "type": "FeatureCollection",
  "name": "Benwadi_Gat_445_Drone_Resurvey",
  "crs": {
    "type": "name",
    "properties": {
      "name": "urn:ogc:def:crs:OGC:1.3:CRS84"
    }
  },
  "features": [
    {
      "type": "Feature",
      "properties": {
        "parcel_id": "MH-AHM-KAR-BEN-445",
        "survey_no": "445",
        "gat_no": "445",
        "village": "Benwadi (बेनवडी)",
        "taluka": "Karjat (कर्जत)",
        "district": "Ahmednagar (अहमदनगर)",
        "state": "Maharashtra",
        "gis_code": "RVM2613272600130334420000",
        "owner_name": "मंगल वसंत गायकवाड, सूभाष बाळासाहेब गायकवाड",
        "all_owners": [
          "मंगल वसंत गायकवाड",
          "सूभाष बाळासाहेब गायकवाड",
          "रोहिणी सुभाष  गायकवाड, सुवर्णा रविंद्र गायकवाड",
          "जयदीप भरत गायकवाड",
          "रविंद्र अंबादास सोनवणे",
          "सौरभ  श्रीमंत  गायकवाड",
          "संकेत  श्रीमंत गायकवाड",
          "गुलाब ज्ञानदेव गायकवाड",
          "संदीप संभू गायकवाड",
          "रविंद्र अंबादास सोनवणे",
          "कौशल्या वसंत गायकवाड"
        ],
        "khata_no": "856, 855, 3266, 927, 2413, 3426, 3454, 57, 972, 989, 1035",
        "area_sqm": 114240.64,
        "area_acres": 28.23,
        "area_guntha": 1129.19,
        "land_type": "जिरायत शेती (Jirayat - Rainfed Agricultural)",
        "source": "MahaBhuNaksha Official Live Cadastre",
        "status": "needs_review",
        "confidence_score": 85.2,
        "old_survey_area_acres": 28.23,
        "old_survey_area_sqm": 114240.64,
        "new_survey_area_acres": 28.88,
        "new_survey_area_sqm": 116868.2,
        "area_diff_pct": 2.3,
        "mean_shift_m": 2.0,
        "iou_overlap_pct": 93.7,
        "review_reason": "Drone RTK photogrammetry detects a 2.3% area discrepancy (2628 m²) with a mean bund shift of 2.0m along the farm boundary. Verification recommended.",
        "bhunaksha_geometry": {
          "type": "Polygon",
          "coordinates": [
            [
              [
                74.9923778,
                18.4974303
              ],
              [
                74.9931866,
                18.4973882
              ],
              [
                74.9941866,
                18.4973212
              ],
              [
                74.994081,
                18.4966879
              ],
              [
                74.9937294,
                18.4940896
              ],
              [
                74.9930341,
                18.4936734
              ],
              [
                74.9923417,
                18.4937698
              ],
              [
                74.9908275,
                18.4936154
              ],
              [
                74.9911935,
                18.4952264
              ],
              [
                74.9916154,
                18.4970607
              ],
              [
                74.9917304,
                18.4975957
              ],
              [
                74.9917618,
                18.4976293
              ],
              [
                74.9922546,
                18.4974871
              ],
              [
                74.9923778,
                18.4974303
              ]
            ]
          ]
        }
      },
      "geometry": {
        "type": "Polygon",
        "coordinates": [
          [
            [
              74.9923634,
              18.4974587
            ],
            [
              74.9931814,
              18.4974162
            ],
            [
              74.9941929,
              18.4973484
            ],
            [
              74.9940861,
              18.4967079
            ],
            [
              74.9937304,
              18.4940798
            ],
            [
              74.9930272,
              18.4936589
            ],
            [
              74.9923269,
              18.4937564
            ],
            [
              74.9907954,
              18.4936002
            ],
            [
              74.9911655,
              18.4952296
            ],
            [
              74.9915923,
              18.4970849
            ],
            [
              74.9917086,
              18.497626
            ],
            [
              74.9917403,
              18.49766
            ],
            [
              74.9922388,
              18.4975162
            ],
            [
              74.9923634,
              18.4974587
            ]
          ]
        ]
      }
    }
  ]
}