{
  "type": "FeatureCollection",
  "name": "Benwadi_Gat_522_Cadastre",
  "crs": {
    "type": "name",
    "properties": {
      "name": "urn:ogc:def:crs:OGC:1.3:CRS84"
    }
  },
  "features": [
    {
      "type": "Feature",
      "properties": {
        "parcel_id": "MH-AHM-KAR-BEN-522",
        "survey_no": "522",
        "gat_no": "522",
        "village": "Benwadi (बेनवडी)",
        "taluka": "Karjat (कर्जत)",
        "district": "Ahmednagar (अहमदनगर)",
        "state": "Maharashtra",
        "gis_code": "RVM2613272600130334420000",
        "owner_name": "आण्णा अर्जुन गदादे, भानूदास अर्जून गदादे",
        "all_owners": [
          "आण्णा अर्जुन गदादे",
          "भानूदास अर्जून गदादे"
        ],
        "khata_no": "464, 550",
        "area_sqm": 1325.19,
        "area_acres": 0.33,
        "area_guntha": 13.1,
        "land_type": "जिरायत शेती (Jirayat - Rainfed Agricultural)",
        "source": "MahaBhuNaksha Official Live Cadastre",
        "status": "verified",
        "confidence_score": 98.8,
        "old_survey_area_acres": 0.33,
        "old_survey_area_sqm": 1325.19,
        "new_survey_area_acres": 0.33,
        "new_survey_area_sqm": 1325.19
      },
      "geometry": {
        "type": "Polygon",
        "coordinates": [
          [
            [
              74.9829322,
              18.4935016
            ],
            [
              74.9832214,
              18.4934711
            ],
            [
              74.9832127,
              18.4934104
            ],
            [
              74.9831869,
              18.4934166
            ],
            [
              74.9828576,
              18.4934067
            ],
            [
              74.9823915,
              18.4933986
            ],
            [
              74.982239,
              18.4933956
            ],
            [
              74.9822777,
              18.4935753
            ],
            [
              74.9826244,
              18.4935359
            ],
            [
              74.9829322,
              18.4935016
            ]
          ]
        ]
      }
    }
  ]
}