{
  "type": "FeatureCollection",
  "name": "Benwadi_Gat_118_Cadastre",
  "crs": {
    "type": "name",
    "properties": {
      "name": "urn:ogc:def:crs:OGC:1.3:CRS84"
    }
  },
  "features": [
    {
      "type": "Feature",
      "properties": {
        "parcel_id": "MH-AHM-KAR-BEN-118",
        "survey_no": "118",
        "gat_no": "118",
        "village": "Benwadi (बेनवडी)",
        "taluka": "Karjat (कर्जत)",
        "district": "Ahmednagar (अहमदनगर)",
        "state": "Maharashtra",
        "gis_code": "RVM2613272600130334420000",
        "owner_name": "अविनाश कल्याण खुडे, आप्पा बाबू खुडे, आशा शिवलिंग कांबळे, उद्धव यशवंत सकट, उषा मोहन भोसले, कचर गणपत खुडे, कविता नवनाथ पवार, कविता संतोष जगताप, केराबाई संभाजी वाल्हेकर, गयाबाई दत्तू पवार, गोरख साहेबराव खुडे, तुषार निलेश खुडे, दत्तू साहेबराव खुडे, दादासाहेब उद्धव सकट, नंदाबाई दादाराम खुडे, निता मच्छिंद्र लोखंडे, प्रमिला दुर्योधन पवार, बापू दादाराम खुडे, बाळासाहेब उद्धव सकट, भाऊसाहेब जयवंता खुडे, भानुदास गणपत खुडे, मंगल निलेश खुडे, मच्छिंद्र साहेबराव खुडे, माणिक जयवंता खुडे, मारुती शंकर पवार, रमा दिलीप लांडगे, राजूबाई कल्याण खुडे, राजूबाई भानुदास खुडे, रामा भानुदास खुडे, रावसाहेब जयवंता खुडे, रेखा जालिंदर डाडर, रेश्मा विजय पाथरे, रोहित निलेश खुडे अ पा क आई मंगल, विनायक जयवंता खुडे, शंकर यादव पवार, शशिकला साहेबराव खुडे, शिवाजी भानुदास खुडे, संजय शंकर पवार, सविता संदीपान मोरे, साखरबाई बबन खवळे, हरी भानुदास खुडे, सिताराम बाबू खुडे",
        "all_owners": [
          "अविनाश कल्याण खुडे, आप्पा बाबू खुडे, आशा शिवलिंग कांबळे, उद्धव यशवंत सकट, उषा मोहन भोसले, कचर गणपत खुडे, कविता नवनाथ पवार, कविता संतोष जगताप, केराबाई संभाजी वाल्हेकर, गयाबाई दत्तू पवार, गोरख साहेबराव खुडे, तुषार निलेश खुडे, दत्तू साहेबराव खुडे, दादासाहेब उद्धव सकट, नंदाबाई दादाराम खुडे, निता मच्छिंद्र लोखंडे, प्रमिला दुर्योधन पवार, बापू दादाराम खुडे, बाळासाहेब उद्धव सकट, भाऊसाहेब जयवंता खुडे, भानुदास गणपत खुडे, मंगल निलेश खुडे, मच्छिंद्र साहेबराव खुडे, माणिक जयवंता खुडे, मारुती शंकर पवार, रमा दिलीप लांडगे, राजूबाई कल्याण खुडे, राजूबाई भानुदास खुडे, रामा भानुदास खुडे, रावसाहेब जयवंता खुडे, रेखा जालिंदर डाडर, रेश्मा विजय पाथरे, रोहित निलेश खुडे अ पा क आई मंगल, विनायक जयवंता खुडे, शंकर यादव पवार, शशिकला साहेबराव खुडे, शिवाजी भानुदास खुडे, संजय शंकर पवार, सविता संदीपान मोरे, साखरबाई बबन खवळे, हरी भानुदास खुडे, सिताराम बाबू खुडे"
        ],
        "khata_no": "3236",
        "area_sqm": 815.48,
        "area_acres": 0.2,
        "area_guntha": 8.06,
        "land_type": "जिरायत शेती (Jirayat - Rainfed Agricultural)",
        "source": "MahaBhuNaksha Official Live Cadastre",
        "status": "verified",
        "confidence_score": 98.8,
        "old_survey_area_acres": 0.2,
        "old_survey_area_sqm": 815.48,
        "new_survey_area_acres": 0.2,
        "new_survey_area_sqm": 815.48
      },
      "geometry": {
        "type": "Polygon",
        "coordinates": [
          [
            [
              74.9751323,
              18.4901429
            ],
            [
              74.9751034,
              18.4898589
            ],
            [
              74.9748464,
              18.4898838
            ],
            [
              74.9749722,
              18.4902285
            ],
            [
              74.9751323,
              18.4901429
            ]
          ]
        ]
      }
    }
  ]
}