{
  "type": "FeatureCollection",
  "name": "Benwadi_Gat_387_Cadastre",
  "crs": {
    "type": "name",
    "properties": {
      "name": "urn:ogc:def:crs:OGC:1.3:CRS84"
    }
  },
  "features": [
    {
      "type": "Feature",
      "properties": {
        "parcel_id": "MH-AHM-KAR-BEN-387",
        "survey_no": "387",
        "gat_no": "387",
        "village": "Benwadi (बेनवडी)",
        "taluka": "Karjat (कर्जत)",
        "district": "Ahmednagar (अहमदनगर)",
        "state": "Maharashtra",
        "gis_code": "RVM2613272600130334420000",
        "owner_name": "जनार्धन केरा गदादे, शिवगंगा परशुराम गदादे, सोमनाथ परशुराम गदादे, सुनिल परशुराम गदादे",
        "all_owners": [
          "जनार्धन केरा गदादे",
          "शिवगंगा परशुराम गदादे, सोमनाथ परशुराम गदादे, सुनिल परशुराम गदादे",
          "राजाराम सोपान गदादे",
          "सोमनाथ परशुराम गदादे, शिवगंगा परशुराम गदादे, सुनिल परशुराम गदादे",
          "दत्तात्रय तुकाराम गदादे, द्रौपदी तुकाराम गदादे, बाळासाहेब तुकाराम गदादे",
          "ज्ञानदेव केरा गदादे",
          "सोमनाथ परशुराम गदादे, सुनिल परशुराम गदादे, शिवगंगा परशुराम गदादे",
          "राजाराम सोपान गदादे",
          "द्रौपदी तुकाराम गदादे, बाळासाहेब तुकाराम गदादे, दत्तात्रय तुकाराम गदादे",
          "बाळासाहेब तुकाराम गदादे",
          "रेवणनाथ ज्ञानदेव गदादे"
        ],
        "khata_no": "430, 435, 434, 435, 431, 432, 435, 434, 431, 2247, 2248",
        "area_sqm": 55957.82,
        "area_acres": 13.83,
        "area_guntha": 553.11,
        "land_type": "जिरायत शेती (Jirayat - Rainfed Agricultural)",
        "source": "MahaBhuNaksha Official Live Cadastre",
        "status": "verified",
        "confidence_score": 98.8,
        "old_survey_area_acres": 13.83,
        "old_survey_area_sqm": 55957.82,
        "new_survey_area_acres": 13.83,
        "new_survey_area_sqm": 55957.82
      },
      "geometry": {
        "type": "Polygon",
        "coordinates": [
          [
            [
              74.9850414,
              18.4997143
            ],
            [
              74.9844018,
              18.4996085
            ],
            [
              74.9838891,
              18.499524
            ],
            [
              74.983972,
              18.5001009
            ],
            [
              74.9841997,
              18.5016199
            ],
            [
              74.9843581,
              18.5024951
            ],
            [
              74.9844079,
              18.5028549
            ],
            [
              74.9844467,
              18.5030626
            ],
            [
              74.9844853,
              18.5033533
            ],
            [
              74.9846532,
              18.5033998
            ],
            [
              74.9848182,
              18.5048752
            ],
            [
              74.9851155,
              18.5043918
            ],
            [
              74.9852804,
              18.5042835
            ],
            [
              74.9854987,
              18.5036319
            ],
            [
              74.9853978,
              18.5026561
            ],
            [
              74.9851623,
              18.5006705
            ],
            [
              74.9850414,
              18.4997143
            ]
          ]
        ]
      }
    }
  ]
}