{
  "type": "FeatureCollection",
  "name": "Benwadi_Gat_455_Drone_Resurvey",
  "crs": {
    "type": "name",
    "properties": {
      "name": "urn:ogc:def:crs:OGC:1.3:CRS84"
    }
  },
  "features": [
    {
      "type": "Feature",
      "properties": {
        "parcel_id": "MH-AHM-KAR-BEN-455",
        "survey_no": "455",
        "gat_no": "455",
        "village": "Benwadi (बेनवडी)",
        "taluka": "Karjat (कर्जत)",
        "district": "Ahmednagar (अहमदनगर)",
        "state": "Maharashtra",
        "gis_code": "RVM2613272600130334420000",
        "owner_name": "लिलावती बाळासाहेब गदादे, सतीश बाळासाहेब गदादे, अजिनाथ बाळासाहेब गदादे, विश्वनाथ रामा गदादे",
        "all_owners": [
          "लिलावती बाळासाहेब गदादे, सतीश बाळासाहेब गदादे, अजिनाथ बाळासाहेब गदादे",
          "विश्वनाथ रामा गदादे"
        ],
        "khata_no": "175, 291",
        "area_sqm": 23840.39,
        "area_acres": 5.89,
        "area_guntha": 235.65,
        "land_type": "जिरायत शेती (Jirayat - Rainfed Agricultural)",
        "source": "MahaBhuNaksha Official Live Cadastre",
        "status": "needs_review",
        "confidence_score": 85.2,
        "old_survey_area_acres": 5.89,
        "old_survey_area_sqm": 23840.39,
        "new_survey_area_acres": 6.03,
        "new_survey_area_sqm": 24388.7,
        "area_diff_pct": 2.3,
        "mean_shift_m": 1.8,
        "iou_overlap_pct": 93.7,
        "review_reason": "Drone RTK photogrammetry detects a 2.3% area discrepancy (548 m²) with a mean bund shift of 1.8m along the farm boundary. Verification recommended.",
        "bhunaksha_geometry": {
          "type": "Polygon",
          "coordinates": [
            [
              [
                74.9901064,
                18.4981932
              ],
              [
                74.9908549,
                18.4979571
              ],
              [
                74.9910877,
                18.4978625
              ],
              [
                74.9913354,
                18.4977768
              ],
              [
                74.9917618,
                18.4976293
              ],
              [
                74.9917304,
                18.4975957
              ],
              [
                74.9907397,
                18.4970139
              ],
              [
                74.9905902,
                18.4970977
              ],
              [
                74.9903778,
                18.4971797
              ],
              [
                74.9888431,
                18.4977722
              ],
              [
                74.9889896,
                18.4980209
              ],
              [
                74.9892235,
                18.4984122
              ],
              [
                74.9892538,
                18.4985073
              ],
              [
                74.9901064,
                18.4981932
              ]
            ]
          ]
        }
      },
      "geometry": {
        "type": "Polygon",
        "coordinates": [
          [
            [
              74.9900938,
              18.4982115
            ],
            [
              74.9908508,
              18.4979727
            ],
            [
              74.9910863,
              18.497877
            ],
            [
              74.9913368,
              18.4977903
            ],
            [
              74.9917681,
              18.4976411
            ],
            [
              74.9917363,
              18.4976071
            ],
            [
              74.9907343,
              18.4970187
            ],
            [
              74.9905831,
              18.4971034
            ],
            [
              74.9903683,
              18.4971864
            ],
            [
              74.988816,
              18.4977856
            ],
            [
              74.9889642,
              18.4980372
            ],
            [
              74.9892008,
              18.498433
            ],
            [
              74.9892314,
              18.4985292
            ],
            [
              74.9900938,
              18.4982115
            ]
          ]
        ]
      }
    }
  ]
}