{
  "type": "FeatureCollection",
  "name": "Benwadi_Gat_434_Drone_Resurvey",
  "crs": {
    "type": "name",
    "properties": {
      "name": "urn:ogc:def:crs:OGC:1.3:CRS84"
    }
  },
  "features": [
    {
      "type": "Feature",
      "properties": {
        "parcel_id": "MH-AHM-KAR-BEN-434",
        "survey_no": "434",
        "gat_no": "434",
        "village": "Benwadi (बेनवडी)",
        "taluka": "Karjat (कर्जत)",
        "district": "Ahmednagar (अहमदनगर)",
        "state": "Maharashtra",
        "gis_code": "RVM2613272600130334420000",
        "owner_name": "नवनाथ बापू गायकवाड, जयश्री नवनाथ गायकवाड",
        "all_owners": [
          "नवनाथ बापू गायकवाड",
          "जयश्री नवनाथ गायकवाड"
        ],
        "khata_no": "400, 960",
        "area_sqm": 46462.95,
        "area_acres": 11.48,
        "area_guntha": 459.26,
        "land_type": "जिरायत शेती (Jirayat - Rainfed Agricultural)",
        "source": "MahaBhuNaksha Official Live Cadastre",
        "status": "needs_review",
        "confidence_score": 85.1,
        "old_survey_area_acres": 11.48,
        "old_survey_area_sqm": 46462.95,
        "new_survey_area_acres": 11.76,
        "new_survey_area_sqm": 47578.1,
        "area_diff_pct": 2.4,
        "mean_shift_m": 1.9,
        "iou_overlap_pct": 93.6,
        "review_reason": "Drone RTK photogrammetry detects a 2.4% area discrepancy (1115 m²) with a mean bund shift of 1.9m along the farm boundary. Verification recommended.",
        "bhunaksha_geometry": {
          "type": "Polygon",
          "coordinates": [
            [
              [
                74.9938583,
                18.4930558
              ],
              [
                74.9934764,
                18.4917431
              ],
              [
                74.9928376,
                18.4919946
              ],
              [
                74.9922358,
                18.4922231
              ],
              [
                74.9908091,
                18.4927797
              ],
              [
                74.9907848,
                18.4928978
              ],
              [
                74.9908399,
                18.4929978
              ],
              [
                74.9908983,
                18.4934605
              ],
              [
                74.9924004,
                18.4935783
              ],
              [
                74.992916,
                18.4934118
              ],
              [
                74.9930852,
                18.4935042
              ],
              [
                74.9937606,
                18.4938033
              ],
              [
                74.9941365,
                18.4941003
              ],
              [
                74.9941458,
                18.4940437
              ],
              [
                74.9938583,
                18.4930558
              ]
            ]
          ]
        }
      },
      "geometry": {
        "type": "Polygon",
        "coordinates": [
          [
            [
              74.9938564,
              18.4930607
            ],
            [
              74.99347,
              18.4917323
            ],
            [
              74.9928236,
              18.4919868
            ],
            [
              74.9922146,
              18.492218
            ],
            [
              74.9907709,
              18.4927813
            ],
            [
              74.9907463,
              18.4929008
            ],
            [
              74.990802,
              18.493002
            ],
            [
              74.9908611,
              18.4934702
            ],
            [
              74.9923812,
              18.4935894
            ],
            [
              74.9929029,
              18.4934209
            ],
            [
              74.9930741,
              18.4935144
            ],
            [
              74.9937576,
              18.4938171
            ],
            [
              74.994138,
              18.4941176
            ],
            [
              74.9941474,
              18.4940604
            ],
            [
              74.9938564,
              18.4930607
            ]
          ]
        ]
      }
    }
  ]
}