{
  "type": "FeatureCollection",
  "name": "Benwadi_Gat_277_Cadastre",
  "crs": {
    "type": "name",
    "properties": {
      "name": "urn:ogc:def:crs:OGC:1.3:CRS84"
    }
  },
  "features": [
    {
      "type": "Feature",
      "properties": {
        "parcel_id": "MH-AHM-KAR-BEN-277",
        "survey_no": "277",
        "gat_no": "277",
        "village": "Benwadi (बेनवडी)",
        "taluka": "Karjat (कर्जत)",
        "district": "Ahmednagar (अहमदनगर)",
        "state": "Maharashtra",
        "gis_code": "RVM2613272600130334420000",
        "owner_name": "सुषमा राजेंद्र बोरा, दादा तूकाराम अडबल",
        "all_owners": [
          "सुषमा राजेंद्र बोरा",
          "दादा तूकाराम अडबल",
          "आंबादास तुकाराम अडबल, फुलाबाई हरीदास गायकवाड, शालन कृष्णा वाघमारे, निलावती भगवान यादव, कमल बाबासाहेब अभंग, चतुराबाई दादा तरटे",
          "दत्तू तूकाराम अडबल"
        ],
        "khata_no": "2868, 474, 573, 574",
        "area_sqm": 91185.05,
        "area_acres": 22.53,
        "area_guntha": 901.31,
        "land_type": "जिरायत शेती (Jirayat - Rainfed Agricultural)",
        "source": "MahaBhuNaksha Official Live Cadastre",
        "status": "verified",
        "confidence_score": 98.8,
        "old_survey_area_acres": 22.53,
        "old_survey_area_sqm": 91185.05,
        "new_survey_area_acres": 22.53,
        "new_survey_area_sqm": 91185.05
      },
      "geometry": {
        "type": "Polygon",
        "coordinates": [
          [
            [
              74.9631803,
              18.4986302
            ],
            [
              74.9627876,
              18.4974204
            ],
            [
              74.9624555,
              18.4963874
            ],
            [
              74.9619642,
              18.4949074
            ],
            [
              74.9604619,
              18.4951034
            ],
            [
              74.9597058,
              18.4952136
            ],
            [
              74.9600088,
              18.4955311
            ],
            [
              74.9601679,
              18.4958931
            ],
            [
              74.9608376,
              18.4974169
            ],
            [
              74.9611126,
              18.4980573
            ],
            [
              74.9616182,
              18.4992373
            ],
            [
              74.9616971,
              18.4992041
            ],
            [
              74.9617042,
              18.4992013
            ],
            [
              74.962418,
              18.4989243
            ],
            [
              74.9631803,
              18.4986302
            ]
          ]
        ]
      }
    }
  ]
}