{
  "type": "FeatureCollection",
  "name": "Benwadi_Gat_381_Cadastre",
  "crs": {
    "type": "name",
    "properties": {
      "name": "urn:ogc:def:crs:OGC:1.3:CRS84"
    }
  },
  "features": [
    {
      "type": "Feature",
      "properties": {
        "parcel_id": "MH-AHM-KAR-BEN-381",
        "survey_no": "381",
        "gat_no": "381",
        "village": "Benwadi (बेनवडी)",
        "taluka": "Karjat (कर्जत)",
        "district": "Ahmednagar (अहमदनगर)",
        "state": "Maharashtra",
        "gis_code": "RVM2613272600130334420000",
        "owner_name": "राजेंद्र पोपटलाल बोरा, अक्षय नवनीतलाल मेहेर",
        "all_owners": [
          "राजेंद्र पोपटलाल बोरा",
          "अक्षय नवनीतलाल मेहेर"
        ],
        "khata_no": "919, 920",
        "area_sqm": 30630.67,
        "area_acres": 7.57,
        "area_guntha": 302.76,
        "land_type": "जिरायत शेती (Jirayat - Rainfed Agricultural)",
        "source": "MahaBhuNaksha Official Live Cadastre",
        "status": "verified",
        "confidence_score": 98.8,
        "old_survey_area_acres": 7.57,
        "old_survey_area_sqm": 30630.67,
        "new_survey_area_acres": 7.57,
        "new_survey_area_sqm": 30630.67
      },
      "geometry": {
        "type": "Polygon",
        "coordinates": [
          [
            [
              74.9806295,
              18.5059296
            ],
            [
              74.9809632,
              18.5043366
            ],
            [
              74.98058,
              18.5043138
            ],
            [
              74.980508,
              18.5043246
            ],
            [
              74.9797127,
              18.504299
            ],
            [
              74.979733,
              18.5046518
            ],
            [
              74.9797583,
              18.5063913
            ],
            [
              74.979776,
              18.5071333
            ],
            [
              74.9797762,
              18.5071399
            ],
            [
              74.9803674,
              18.5071913
            ],
            [
              74.9803738,
              18.5071603
            ],
            [
              74.9806295,
              18.5059296
            ]
          ]
        ]
      }
    }
  ]
}