{
  "type": "FeatureCollection",
  "name": "Benwadi_Gat_43_Drone_Resurvey",
  "crs": {
    "type": "name",
    "properties": {
      "name": "urn:ogc:def:crs:OGC:1.3:CRS84"
    }
  },
  "features": [
    {
      "type": "Feature",
      "properties": {
        "parcel_id": "MH-AHM-KAR-BEN-43",
        "survey_no": "43",
        "gat_no": "43",
        "village": "Benwadi (बेनवडी)",
        "taluka": "Karjat (कर्जत)",
        "district": "Ahmednagar (अहमदनगर)",
        "state": "Maharashtra",
        "gis_code": "RVM2613272600130334420000",
        "owner_name": "गणेश राजु गदादे, आशा लालासाहेब होले, हनुमंत अनंता गदादे, उषा नवनाथ शिंदे, छबाबाई अनंता गदादे, धनाबाई प्रल्हाद शिंदे, मनिषा रामहरी होले, लखन राजु गदादे, लताबाई राजु गदादे, सखुबाई मारुती शिंदे, सविता मच्छिन्द्र शिंदे, देविदास धोंडिबा गदादे",
        "all_owners": [
          "गणेश राजु गदादे, आशा लालासाहेब होले, हनुमंत अनंता गदादे, उषा नवनाथ शिंदे, छबाबाई अनंता गदादे, धनाबाई प्रल्हाद शिंदे, मनिषा रामहरी होले, लखन राजु गदादे, लताबाई राजु गदादे, सखुबाई मारुती शिंदे, सविता मच्छिन्द्र शिंदे",
          "देविदास धोंडिबा गदादे",
          "लक्ष्मण धोंडिबा गदादे",
          "मारूती धोंडिबा गदादे"
        ],
        "khata_no": "2302, 458, 461, 462",
        "area_sqm": 40198.71,
        "area_acres": 9.93,
        "area_guntha": 397.34,
        "land_type": "जिरायत शेती (Jirayat - Rainfed Agricultural)",
        "source": "MahaBhuNaksha Official Live Cadastre",
        "status": "needs_review",
        "confidence_score": 85.0,
        "old_survey_area_acres": 9.93,
        "old_survey_area_sqm": 40198.71,
        "new_survey_area_acres": 10.18,
        "new_survey_area_sqm": 41203.7,
        "area_diff_pct": 2.5,
        "mean_shift_m": 1.4,
        "iou_overlap_pct": 93.5,
        "review_reason": "Drone RTK photogrammetry detects a 2.5% area discrepancy (1005 m²) with a mean bund shift of 1.4m along the farm boundary. Verification recommended.",
        "bhunaksha_geometry": {
          "type": "Polygon",
          "coordinates": [
            [
              [
                74.9850499,
                18.485629
              ],
              [
                74.9846625,
                18.4852787
              ],
              [
                74.983633,
                18.4850104
              ],
              [
                74.9834185,
                18.4853685
              ],
              [
                74.9835603,
                18.4858306
              ],
              [
                74.9838764,
                18.4869059
              ],
              [
                74.9839176,
                18.4872145
              ],
              [
                74.9840431,
                18.4878029
              ],
              [
                74.9848878,
                18.4874677
              ],
              [
                74.9853859,
                18.4868116
              ],
              [
                74.9851588,
                18.4859771
              ],
              [
                74.9850916,
                18.485725
              ],
              [
                74.9850499,
                18.485629
              ]
            ]
          ]
        }
      },
      "geometry": {
        "type": "Polygon",
        "coordinates": [
          [
            [
              74.9850451,
              18.4856239
            ],
            [
              74.9846529,
              18.4852692
            ],
            [
              74.9836106,
              18.4849976
            ],
            [
              74.9833934,
              18.4853601
            ],
            [
              74.983537,
              18.485828
            ],
            [
              74.983857,
              18.4869166
            ],
            [
              74.9838987,
              18.4872291
            ],
            [
              74.9840258,
              18.4878248
            ],
            [
              74.984881,
              18.4874854
            ],
            [
              74.9853853,
              18.4868212
            ],
            [
              74.9851554,
              18.4859763
            ],
            [
              74.9850873,
              18.4857211
            ],
            [
              74.9850451,
              18.4856239
            ]
          ]
        ]
      }
    }
  ]
}