{
  "type": "FeatureCollection",
  "name": "Benwadi_Gat_345_Drone_Resurvey",
  "crs": {
    "type": "name",
    "properties": {
      "name": "urn:ogc:def:crs:OGC:1.3:CRS84"
    }
  },
  "features": [
    {
      "type": "Feature",
      "properties": {
        "parcel_id": "MH-AHM-KAR-BEN-345",
        "survey_no": "345",
        "gat_no": "345",
        "village": "Benwadi (बेनवडी)",
        "taluka": "Karjat (कर्जत)",
        "district": "Ahmednagar (अहमदनगर)",
        "state": "Maharashtra",
        "gis_code": "RVM2613272600130334420000",
        "owner_name": "दादा गेणा गदादे, अशोक  संभाजी गदादे",
        "all_owners": [
          "दादा गेणा गदादे",
          "अशोक  संभाजी गदादे",
          "भिमराव संभाजी  गदादे",
          "ज्ञानदेव बाळु गदादे",
          "मच्छिंद्र आप्पा गदादे",
          "रंजना गोरख गदादे, विश्वजित सिध्येश्वर गदादे, गीता सिध्येश्वर गदादे, सत्यजित सिध्येश्वर गदादे",
          "रंजना गोरख गदादे",
          "वैशाली रामदास गदादे",
          "राणुबाई अशोक गदादे",
          "काका भगवान गदादे",
          "अंकुश भगवान गदादे",
          "भगवान गणपती गदादे",
          "जिजाबाई   आप्पा   गदादे, संभा   गेणा   गदादे, बाळु  गेणा   गदादे, रंजना गोरख गदादे, दादा   गेणा   गदादे",
          "दिगांबर गणपती गदादे",
          "काका भगवान गदादे"
        ],
        "khata_no": "545, 2549, 2550, 2551, 2596, 2643, 3323, 3351, 3280, 547, 14, 189, 2553, 2997, 547",
        "area_sqm": 43063.92,
        "area_acres": 10.64,
        "area_guntha": 425.66,
        "land_type": "जिरायत शेती (Jirayat - Rainfed Agricultural)",
        "source": "MahaBhuNaksha Official Live Cadastre",
        "status": "needs_review",
        "confidence_score": 85.2,
        "old_survey_area_acres": 10.64,
        "old_survey_area_sqm": 43063.92,
        "new_survey_area_acres": 10.88,
        "new_survey_area_sqm": 44054.4,
        "area_diff_pct": 2.3,
        "mean_shift_m": 2.0,
        "iou_overlap_pct": 93.7,
        "review_reason": "Drone RTK photogrammetry detects a 2.3% area discrepancy (990 m²) with a mean bund shift of 2.0m along the farm boundary. Verification recommended.",
        "bhunaksha_geometry": {
          "type": "Polygon",
          "coordinates": [
            [
              [
                74.9759143,
                18.5034916
              ],
              [
                74.976033,
                18.5034392
              ],
              [
                74.977977,
                18.5029148
              ],
              [
                74.9787614,
                18.5026984
              ],
              [
                74.9786241,
                18.5017056
              ],
              [
                74.9780549,
                18.5018271
              ],
              [
                74.977441,
                18.5019714
              ],
              [
                74.9766597,
                18.502145
              ],
              [
                74.9752651,
                18.5024559
              ],
              [
                74.9750446,
                18.5025437
              ],
              [
                74.9752985,
                18.5028999
              ],
              [
                74.9754643,
                18.5031829
              ],
              [
                74.9756783,
                18.5035179
              ],
              [
                74.9759143,
                18.5034916
              ]
            ]
          ]
        }
      },
      "geometry": {
        "type": "Polygon",
        "coordinates": [
          [
            [
              74.9758929,
              18.5035139
            ],
            [
              74.976013,
              18.5034609
            ],
            [
              74.9779792,
              18.5029305
            ],
            [
              74.9787726,
              18.5027116
            ],
            [
              74.9786337,
              18.5017074
            ],
            [
              74.978058,
              18.5018303
            ],
            [
              74.9774371,
              18.5019763
            ],
            [
              74.9766468,
              18.5021519
            ],
            [
              74.9752363,
              18.5024663
            ],
            [
              74.9750133,
              18.5025551
            ],
            [
              74.9752701,
              18.5029154
            ],
            [
              74.9754378,
              18.5032016
            ],
            [
              74.9756542,
              18.5035405
            ],
            [
              74.9758929,
              18.5035139
            ]
          ]
        ]
      }
    }
  ]
}