{
  "type": "FeatureCollection",
  "name": "Benwadi_Gat_151_Drone_Resurvey",
  "crs": {
    "type": "name",
    "properties": {
      "name": "urn:ogc:def:crs:OGC:1.3:CRS84"
    }
  },
  "features": [
    {
      "type": "Feature",
      "properties": {
        "parcel_id": "MH-AHM-KAR-BEN-151",
        "survey_no": "151",
        "gat_no": "151",
        "village": "Benwadi (बेनवडी)",
        "taluka": "Karjat (कर्जत)",
        "district": "Ahmednagar (अहमदनगर)",
        "state": "Maharashtra",
        "gis_code": "RVM2613272600130334420000",
        "owner_name": "सुनंदा धुळदेव गायकवाड, लता दत्तात्रय गायकवाड",
        "all_owners": [
          "सुनंदा धुळदेव गायकवाड",
          "लता दत्तात्रय गायकवाड",
          "मिनानाथ दत्तात्रय गायकवाड",
          "आशा सोमनाथ गायकवाड",
          "प्रमिला लाला गायकवाड",
          "सरपंच ग्रामपंचायत बेनवडी"
        ],
        "khata_no": "1057, 1059, 1060, 1061, 1062, 1111",
        "area_sqm": 76785.19,
        "area_acres": 18.97,
        "area_guntha": 758.97,
        "land_type": "जिरायत शेती (Jirayat - Rainfed Agricultural)",
        "source": "MahaBhuNaksha Official Live Cadastre",
        "status": "needs_review",
        "confidence_score": 84.8,
        "old_survey_area_acres": 18.97,
        "old_survey_area_sqm": 76785.19,
        "new_survey_area_acres": 19.48,
        "new_survey_area_sqm": 78858.4,
        "area_diff_pct": 2.7,
        "mean_shift_m": 1.8,
        "iou_overlap_pct": 93.3,
        "review_reason": "Drone RTK photogrammetry detects a 2.7% area discrepancy (2073 m²) with a mean bund shift of 1.8m along the farm boundary. Verification recommended.",
        "bhunaksha_geometry": {
          "type": "Polygon",
          "coordinates": [
            [
              [
                74.967734,
                18.481359
              ],
              [
                74.9675935,
                18.4813879
              ],
              [
                74.9673761,
                18.4805981
              ],
              [
                74.9669708,
                18.4791053
              ],
              [
                74.966919,
                18.478853
              ],
              [
                74.9665998,
                18.4789197
              ],
              [
                74.966077,
                18.479039
              ],
              [
                74.9666424,
                18.4800655
              ],
              [
                74.9673588,
                18.4813964
              ],
              [
                74.9667494,
                18.4814826
              ],
              [
                74.9663202,
                18.4803502
              ],
              [
                74.9658311,
                18.4790891
              ],
              [
                74.9651898,
                18.4792436
              ],
              [
                74.9652848,
                18.4794902
              ],
              [
                74.9653628,
                18.4797704
              ],
              [
                74.9655937,
                18.4803841
              ],
              [
                74.9660112,
                18.4815334
              ],
              [
                74.9665345,
                18.4834054
              ],
              [
                74.9674057,
                18.4835418
              ],
              [
                74.9681914,
                18.4835528
              ],
              [
                74.9679468,
                18.4823904
              ],
              [
                74.967734,
                18.481359
              ]
            ]
          ]
        }
      },
      "geometry": {
        "type": "Polygon",
        "coordinates": [
          [
            [
              74.9677549,
              18.4813527
            ],
            [
              74.9676125,
              18.4813819
            ],
            [
              74.9673922,
              18.4805816
            ],
            [
              74.9669815,
              18.4790687
            ],
            [
              74.966929,
              18.4788131
            ],
            [
              74.9666055,
              18.4788806
            ],
            [
              74.9660757,
              18.4790015
            ],
            [
              74.9666487,
              18.4800418
            ],
            [
              74.9673747,
              18.4813906
            ],
            [
              74.9667571,
              18.4814779
            ],
            [
              74.9663221,
              18.4803303
            ],
            [
              74.9658265,
              18.4790523
            ],
            [
              74.9651766,
              18.4792089
            ],
            [
              74.9652729,
              18.4794588
            ],
            [
              74.9653519,
              18.4797428
            ],
            [
              74.9655859,
              18.4803647
            ],
            [
              74.966009,
              18.4815294
            ],
            [
              74.9665393,
              18.4834265
            ],
            [
              74.9674222,
              18.4835647
            ],
            [
              74.9682184,
              18.4835759
            ],
            [
              74.9679706,
              18.4823979
            ],
            [
              74.9677549,
              18.4813527
            ]
          ]
        ]
      }
    }
  ]
}