{
  "type": "FeatureCollection",
  "name": "Benwadi_Gat_377_Cadastre",
  "crs": {
    "type": "name",
    "properties": {
      "name": "urn:ogc:def:crs:OGC:1.3:CRS84"
    }
  },
  "features": [
    {
      "type": "Feature",
      "properties": {
        "parcel_id": "MH-AHM-KAR-BEN-377",
        "survey_no": "377",
        "gat_no": "377",
        "village": "Benwadi (बेनवडी)",
        "taluka": "Karjat (कर्जत)",
        "district": "Ahmednagar (अहमदनगर)",
        "state": "Maharashtra",
        "gis_code": "RVM2613272600130334420000",
        "owner_name": "धनराज महादेव गदादे, नंदाबाई महादेव गदादे, यमुनाबाई महादेव गदादे, राणी नितिन शिंदे, सोमनाथ महादेव गदादे, जनाबाई सुनील सायकर, धनराज महादेव गदादे",
        "all_owners": [
          "धनराज महादेव गदादे, नंदाबाई महादेव गदादे, यमुनाबाई महादेव गदादे, राणी नितिन शिंदे, सोमनाथ महादेव गदादे, जनाबाई सुनील सायकर",
          "धनराज महादेव गदादे"
        ],
        "khata_no": "421, 2771",
        "area_sqm": 11291.85,
        "area_acres": 2.79,
        "area_guntha": 111.61,
        "land_type": "जिरायत शेती (Jirayat - Rainfed Agricultural)",
        "source": "MahaBhuNaksha Official Live Cadastre",
        "status": "verified",
        "confidence_score": 98.8,
        "old_survey_area_acres": 2.79,
        "old_survey_area_sqm": 11291.85,
        "new_survey_area_acres": 2.79,
        "new_survey_area_sqm": 11291.85
      },
      "geometry": {
        "type": "Polygon",
        "coordinates": [
          [
            [
              74.9813511,
              18.50154
            ],
            [
              74.9813841,
              18.5022448
            ],
            [
              74.9825564,
              18.5025486
            ],
            [
              74.9823567,
              18.5014545
            ],
            [
              74.9813511,
              18.50154
            ]
          ]
        ]
      }
    }
  ]
}