{
  "type": "FeatureCollection",
  "name": "Benwadi_Gat_362_Cadastre",
  "crs": {
    "type": "name",
    "properties": {
      "name": "urn:ogc:def:crs:OGC:1.3:CRS84"
    }
  },
  "features": [
    {
      "type": "Feature",
      "properties": {
        "parcel_id": "MH-AHM-KAR-BEN-362",
        "survey_no": "362",
        "gat_no": "362",
        "village": "Benwadi (बेनवडी)",
        "taluka": "Karjat (कर्जत)",
        "district": "Ahmednagar (अहमदनगर)",
        "state": "Maharashtra",
        "gis_code": "RVM2613272600130334420000",
        "owner_name": "ज्ञानदेव खंडू गदादे",
        "all_owners": [
          "ज्ञानदेव खंडू गदादे"
        ],
        "khata_no": "222",
        "area_sqm": 3132.01,
        "area_acres": 0.77,
        "area_guntha": 30.96,
        "land_type": "जिरायत शेती (Jirayat - Rainfed Agricultural)",
        "source": "MahaBhuNaksha Official Live Cadastre",
        "status": "verified",
        "confidence_score": 98.8,
        "old_survey_area_acres": 0.77,
        "old_survey_area_sqm": 3132.01,
        "new_survey_area_acres": 0.77,
        "new_survey_area_sqm": 3132.01
      },
      "geometry": {
        "type": "Polygon",
        "coordinates": [
          [
            [
              74.9763905,
              18.4993707
            ],
            [
              74.9760852,
              18.4994215
            ],
            [
              74.9763637,
              18.4999367
            ],
            [
              74.9764111,
              18.4999214
            ],
            [
              74.9770163,
              18.5000978
            ],
            [
              74.9768512,
              18.499892
            ],
            [
              74.9763905,
              18.4993707
            ]
          ]
        ]
      }
    }
  ]
}