{
  "type": "FeatureCollection",
  "name": "Benwadi_Gat_452_Drone_Resurvey",
  "crs": {
    "type": "name",
    "properties": {
      "name": "urn:ogc:def:crs:OGC:1.3:CRS84"
    }
  },
  "features": [
    {
      "type": "Feature",
      "properties": {
        "parcel_id": "MH-AHM-KAR-BEN-452",
        "survey_no": "452",
        "gat_no": "452",
        "village": "Benwadi (बेनवडी)",
        "taluka": "Karjat (कर्जत)",
        "district": "Ahmednagar (अहमदनगर)",
        "state": "Maharashtra",
        "gis_code": "RVM2613272600130334420000",
        "owner_name": "छाया लक्ष्मण गदादे, योगेश  झुंबर  गदादे",
        "all_owners": [
          "छाया लक्ष्मण गदादे",
          "योगेश  झुंबर  गदादे",
          "प्रदीप झुंबर  गदादे",
          "रामदास धोंडिबा गदादे",
          "लक्ष्मण धोंडिबा गदादे"
        ],
        "khata_no": "968, 3455, 3456, 821, 461",
        "area_sqm": 35720.97,
        "area_acres": 8.83,
        "area_guntha": 353.08,
        "land_type": "जिरायत शेती (Jirayat - Rainfed Agricultural)",
        "source": "MahaBhuNaksha Official Live Cadastre",
        "status": "needs_review",
        "confidence_score": 84.9,
        "old_survey_area_acres": 8.83,
        "old_survey_area_sqm": 35720.97,
        "new_survey_area_acres": 9.06,
        "new_survey_area_sqm": 36649.7,
        "area_diff_pct": 2.6,
        "mean_shift_m": 2.1,
        "iou_overlap_pct": 93.4,
        "review_reason": "Drone RTK photogrammetry detects a 2.6% area discrepancy (929 m²) with a mean bund shift of 2.1m along the farm boundary. Verification recommended.",
        "bhunaksha_geometry": {
          "type": "Polygon",
          "coordinates": [
            [
              [
                74.9923205,
                18.5018932
              ],
              [
                74.9922806,
                18.501578
              ],
              [
                74.9920211,
                18.4996114
              ],
              [
                74.9918687,
                18.4983928
              ],
              [
                74.9918045,
                18.4979339
              ],
              [
                74.9917618,
                18.4976293
              ],
              [
                74.9913354,
                18.4977768
              ],
              [
                74.9910877,
                18.4978625
              ],
              [
                74.9913363,
                18.4999499
              ],
              [
                74.9915075,
                18.5014369
              ],
              [
                74.9915727,
                18.5018482
              ],
              [
                74.9916184,
                18.5019888
              ],
              [
                74.9916951,
                18.5019594
              ],
              [
                74.9923205,
                18.5018932
              ]
            ]
          ]
        }
      },
      "geometry": {
        "type": "Polygon",
        "coordinates": [
          [
            [
              74.9923301,
              18.501899
            ],
            [
              74.9922897,
              18.5015797
            ],
            [
              74.9920269,
              18.4995877
            ],
            [
              74.9918725,
              18.4983534
            ],
            [
              74.9918075,
              18.4978885
            ],
            [
              74.9917642,
              18.49758
            ],
            [
              74.9913323,
              18.4977294
            ],
            [
              74.9910814,
              18.4978162
            ],
            [
              74.9913332,
              18.4999306
            ],
            [
              74.9915066,
              18.5014368
            ],
            [
              74.9915727,
              18.5018534
            ],
            [
              74.991619,
              18.5019958
            ],
            [
              74.9916967,
              18.501966
            ],
            [
              74.9923301,
              18.501899
            ]
          ]
        ]
      }
    }
  ]
}