{
  "type": "FeatureCollection",
  "name": "Benwadi_Gat_369_Drone_Resurvey",
  "crs": {
    "type": "name",
    "properties": {
      "name": "urn:ogc:def:crs:OGC:1.3:CRS84"
    }
  },
  "features": [
    {
      "type": "Feature",
      "properties": {
        "parcel_id": "MH-AHM-KAR-BEN-369",
        "survey_no": "369",
        "gat_no": "369",
        "village": "Benwadi (बेनवडी)",
        "taluka": "Karjat (कर्जत)",
        "district": "Ahmednagar (अहमदनगर)",
        "state": "Maharashtra",
        "gis_code": "RVM2613272600130334420000",
        "owner_name": "अंकुश भगवान गदादे, अजिनाथ दिगांबर गदादे, आबई भगवान गदादे, काका भगवान गदादे, खंडू निवृत्ती गदादे, तात्या पांडुरंग गदादे, भागवत पांडुरंग गदादे, भामाबाई बाबा सायकर, महादेव पांडुरंग गदादे, लक्ष्मण पांडुरंग गदादे, समाबाई बाबू जाधव, सिध्येश्वर गोरख गदादे, रंजना गोरख गदादे",
        "all_owners": [
          "अंकुश भगवान गदादे, अजिनाथ दिगांबर गदादे, आबई भगवान गदादे, काका भगवान गदादे, खंडू निवृत्ती गदादे, तात्या पांडुरंग गदादे, भागवत पांडुरंग गदादे, भामाबाई बाबा सायकर, महादेव पांडुरंग गदादे, लक्ष्मण पांडुरंग गदादे, समाबाई बाबू जाधव, सिध्येश्वर गोरख गदादे, रंजना गोरख गदादे"
        ],
        "khata_no": "3219",
        "area_sqm": 2612.64,
        "area_acres": 0.65,
        "area_guntha": 25.82,
        "land_type": "जिरायत शेती (Jirayat - Rainfed Agricultural)",
        "source": "MahaBhuNaksha Official Live Cadastre",
        "status": "needs_review",
        "confidence_score": 84.5,
        "old_survey_area_acres": 0.65,
        "old_survey_area_sqm": 2612.64,
        "new_survey_area_acres": 0.67,
        "new_survey_area_sqm": 2688.4,
        "area_diff_pct": 2.9,
        "mean_shift_m": 1.6,
        "iou_overlap_pct": 93.1,
        "review_reason": "Drone RTK photogrammetry detects a 2.9% area discrepancy (76 m²) with a mean bund shift of 1.6m along the farm boundary. Verification recommended.",
        "bhunaksha_geometry": {
          "type": "Polygon",
          "coordinates": [
            [
              [
                74.9788072,
                18.5009815
              ],
              [
                74.9782469,
                18.5010251
              ],
              [
                74.9782633,
                18.501431
              ],
              [
                74.9784672,
                18.5015751
              ],
              [
                74.9784481,
                18.5013878
              ],
              [
                74.9788017,
                18.5013338
              ],
              [
                74.9788072,
                18.5009815
              ]
            ]
          ]
        }
      },
      "geometry": {
        "type": "Polygon",
        "coordinates": [
          [
            [
              74.9788205,
              18.5009654
            ],
            [
              74.9782521,
              18.5010097
            ],
            [
              74.9782687,
              18.5014214
            ],
            [
              74.9784756,
              18.5015676
            ],
            [
              74.9784562,
              18.5013776
            ],
            [
              74.9788149,
              18.5013228
            ],
            [
              74.9788205,
              18.5009654
            ]
          ]
        ]
      }
    }
  ]
}