{
  "type": "FeatureCollection",
  "name": "Benwadi_Gat_315_Drone_Resurvey",
  "crs": {
    "type": "name",
    "properties": {
      "name": "urn:ogc:def:crs:OGC:1.3:CRS84"
    }
  },
  "features": [
    {
      "type": "Feature",
      "properties": {
        "parcel_id": "MH-AHM-KAR-BEN-315",
        "survey_no": "315",
        "gat_no": "315",
        "village": "Benwadi (बेनवडी)",
        "taluka": "Karjat (कर्जत)",
        "district": "Ahmednagar (अहमदनगर)",
        "state": "Maharashtra",
        "gis_code": "RVM2613272600130334420000",
        "owner_name": "आशाबाई सुरेश धुमाळ, बबन रंगनाथ कवडे",
        "all_owners": [
          "आशाबाई सुरेश धुमाळ",
          "बबन रंगनाथ कवडे"
        ],
        "khata_no": "1026, 408",
        "area_sqm": 759.18,
        "area_acres": 0.19,
        "area_guntha": 7.5,
        "land_type": "जिरायत शेती (Jirayat - Rainfed Agricultural)",
        "source": "MahaBhuNaksha Official Live Cadastre",
        "status": "needs_review",
        "confidence_score": 85.2,
        "old_survey_area_acres": 0.19,
        "old_survey_area_sqm": 759.18,
        "new_survey_area_acres": 0.19,
        "new_survey_area_sqm": 776.6,
        "area_diff_pct": 2.3,
        "mean_shift_m": 1.8,
        "iou_overlap_pct": 93.7,
        "review_reason": "Drone RTK photogrammetry detects a 2.3% area discrepancy (17 m²) with a mean bund shift of 1.8m along the farm boundary. Verification recommended.",
        "bhunaksha_geometry": {
          "type": "Polygon",
          "coordinates": [
            [
              [
                74.9695685,
                18.5044997
              ],
              [
                74.9692131,
                18.5046144
              ],
              [
                74.9692624,
                18.5047992
              ],
              [
                74.9695924,
                18.5046679
              ],
              [
                74.9695685,
                18.5044997
              ]
            ]
          ]
        }
      },
      "geometry": {
        "type": "Polygon",
        "coordinates": [
          [
            [
              74.9695539,
              18.5045025
            ],
            [
              74.9691944,
              18.5046185
            ],
            [
              74.9692443,
              18.5048054
            ],
            [
              74.9695781,
              18.5046726
            ],
            [
              74.9695539,
              18.5045025
            ]
          ]
        ]
      }
    }
  ]
}