{
  "type": "FeatureCollection",
  "name": "Benwadi_Gat_462_Cadastre",
  "crs": {
    "type": "name",
    "properties": {
      "name": "urn:ogc:def:crs:OGC:1.3:CRS84"
    }
  },
  "features": [
    {
      "type": "Feature",
      "properties": {
        "parcel_id": "MH-AHM-KAR-BEN-462",
        "survey_no": "462",
        "gat_no": "462",
        "village": "Benwadi (बेनवडी)",
        "taluka": "Karjat (कर्जत)",
        "district": "Ahmednagar (अहमदनगर)",
        "state": "Maharashtra",
        "gis_code": "RVM2613272600130334420000",
        "owner_name": "कांताबाई दादा गायकवाड",
        "all_owners": [
          "कांताबाई दादा गायकवाड"
        ],
        "khata_no": "3294",
        "area_sqm": 3189.48,
        "area_acres": 0.79,
        "area_guntha": 31.53,
        "land_type": "जिरायत शेती (Jirayat - Rainfed Agricultural)",
        "source": "MahaBhuNaksha Official Live Cadastre",
        "status": "verified",
        "confidence_score": 98.8,
        "old_survey_area_acres": 0.79,
        "old_survey_area_sqm": 3189.48,
        "new_survey_area_acres": 0.79,
        "new_survey_area_sqm": 3189.48
      },
      "geometry": {
        "type": "Polygon",
        "coordinates": [
          [
            [
              74.9885774,
              18.4916042
            ],
            [
              74.988301,
              18.4916349
            ],
            [
              74.9885493,
              18.4924882
            ],
            [
              74.9885982,
              18.4925419
            ],
            [
              74.9888746,
              18.4926046
            ],
            [
              74.9885774,
              18.4916042
            ]
          ]
        ]
      }
    }
  ]
}