{
  "type": "FeatureCollection",
  "name": "Benwadi_Gat_368_Cadastre",
  "crs": {
    "type": "name",
    "properties": {
      "name": "urn:ogc:def:crs:OGC:1.3:CRS84"
    }
  },
  "features": [
    {
      "type": "Feature",
      "properties": {
        "parcel_id": "MH-AHM-KAR-BEN-368",
        "survey_no": "368",
        "gat_no": "368",
        "village": "Benwadi (बेनवडी)",
        "taluka": "Karjat (कर्जत)",
        "district": "Ahmednagar (अहमदनगर)",
        "state": "Maharashtra",
        "gis_code": "RVM2613272600130334420000",
        "owner_name": "खंडू निवृत्ती गदादे",
        "all_owners": [
          "खंडू निवृत्ती गदादे"
        ],
        "khata_no": "44",
        "area_sqm": 8884.73,
        "area_acres": 2.2,
        "area_guntha": 87.82,
        "land_type": "जिरायत शेती (Jirayat - Rainfed Agricultural)",
        "source": "MahaBhuNaksha Official Live Cadastre",
        "status": "verified",
        "confidence_score": 98.8,
        "old_survey_area_acres": 2.2,
        "old_survey_area_sqm": 8884.73,
        "new_survey_area_acres": 2.2,
        "new_survey_area_sqm": 8884.73
      },
      "geometry": {
        "type": "Polygon",
        "coordinates": [
          [
            [
              74.9788072,
              18.5009815
            ],
            [
              74.9788706,
              18.4997275
            ],
            [
              74.9785564,
              18.4997563
            ],
            [
              74.9782265,
              18.4998027
            ],
            [
              74.9782059,
              18.4999237
            ],
            [
              74.9782469,
              18.5010251
            ],
            [
              74.9788072,
              18.5009815
            ]
          ]
        ]
      }
    }
  ]
}