{
  "type": "FeatureCollection",
  "name": "Benwadi_Gat_175_Drone_Resurvey",
  "crs": {
    "type": "name",
    "properties": {
      "name": "urn:ogc:def:crs:OGC:1.3:CRS84"
    }
  },
  "features": [
    {
      "type": "Feature",
      "properties": {
        "parcel_id": "MH-AHM-KAR-BEN-175",
        "survey_no": "175",
        "gat_no": "175",
        "village": "Benwadi (बेनवडी)",
        "taluka": "Karjat (कर्जत)",
        "district": "Ahmednagar (अहमदनगर)",
        "state": "Maharashtra",
        "gis_code": "RVM2613272600130334420000",
        "owner_name": "लोचना हरीदास राऊत, ग्यानदेव नारायण गदादे, दत्तू\t नारायण  गदादे, अप्पासाहेब नारायण गदादे, प्रल्हाद नारायण गदादे, बापू सखाराम गदादे",
        "all_owners": [
          "लोचना हरीदास राऊत, ग्यानदेव नारायण गदादे, दत्तू\t नारायण  गदादे, अप्पासाहेब नारायण गदादे, प्रल्हाद नारायण गदादे",
          "बापू सखाराम गदादे",
          "राणी बापू गदादे"
        ],
        "khata_no": "123, 3093, 3176",
        "area_sqm": 63229.83,
        "area_acres": 15.62,
        "area_guntha": 624.99,
        "land_type": "जिरायत शेती (Jirayat - Rainfed Agricultural)",
        "source": "MahaBhuNaksha Official Live Cadastre",
        "status": "needs_review",
        "confidence_score": 85.2,
        "old_survey_area_acres": 15.62,
        "old_survey_area_sqm": 63229.83,
        "new_survey_area_acres": 15.98,
        "new_survey_area_sqm": 64684.1,
        "area_diff_pct": 2.3,
        "mean_shift_m": 1.4,
        "iou_overlap_pct": 93.7,
        "review_reason": "Drone RTK photogrammetry detects a 2.3% area discrepancy (1454 m²) with a mean bund shift of 1.4m along the farm boundary. Verification recommended.",
        "bhunaksha_geometry": {
          "type": "Polygon",
          "coordinates": [
            [
              [
                74.9631503,
                18.4799962
              ],
              [
                74.9645651,
                18.47948
              ],
              [
                74.9651898,
                18.4792436
              ],
              [
                74.9648298,
                18.4782539
              ],
              [
                74.9646303,
                18.4776938
              ],
              [
                74.9645907,
                18.4777095
              ],
              [
                74.9640719,
                18.4779153
              ],
              [
                74.9640061,
                18.4778983
              ],
              [
                74.9635066,
                18.4778952
              ],
              [
                74.9629379,
                18.4778929
              ],
              [
                74.9626088,
                18.4778817
              ],
              [
                74.9624084,
                18.4778749
              ],
              [
                74.9621579,
                18.4779917
              ],
              [
                74.9619013,
                18.4781114
              ],
              [
                74.9621492,
                18.4789783
              ],
              [
                74.96251,
                18.4802478
              ],
              [
                74.9631503,
                18.4799962
              ]
            ]
          ]
        }
      },
      "geometry": {
        "type": "Polygon",
        "coordinates": [
          [
            [
              74.9631436,
              18.4800262
            ],
            [
              74.9645746,
              18.4795041
            ],
            [
              74.9652065,
              18.479265
            ],
            [
              74.9648424,
              18.478264
            ],
            [
              74.9646406,
              18.4776975
            ],
            [
              74.9646005,
              18.4777134
            ],
            [
              74.9640758,
              18.4779215
            ],
            [
              74.9640092,
              18.4779043
            ],
            [
              74.963504,
              18.4779012
            ],
            [
              74.9629288,
              18.4778988
            ],
            [
              74.962596,
              18.4778875
            ],
            [
              74.9623933,
              18.4778806
            ],
            [
              74.9621399,
              18.4779988
            ],
            [
              74.9618804,
              18.4781198
            ],
            [
              74.9621311,
              18.4789967
            ],
            [
              74.962496,
              18.4802807
            ],
            [
              74.9631436,
              18.4800262
            ]
          ]
        ]
      }
    }
  ]
}