{
  "type": "FeatureCollection",
  "name": "Benwadi_Gat_208_Cadastre",
  "crs": {
    "type": "name",
    "properties": {
      "name": "urn:ogc:def:crs:OGC:1.3:CRS84"
    }
  },
  "features": [
    {
      "type": "Feature",
      "properties": {
        "parcel_id": "MH-AHM-KAR-BEN-208",
        "survey_no": "208",
        "gat_no": "208",
        "village": "Benwadi (बेनवडी)",
        "taluka": "Karjat (कर्जत)",
        "district": "Ahmednagar (अहमदनगर)",
        "state": "Maharashtra",
        "gis_code": "RVM2613272600130334420000",
        "owner_name": "जगन्नाथ श्रीराम गदादे, सिंधू रोहिदास गदादे, सुवर्णा देविदास गदादे",
        "all_owners": [
          "जगन्नाथ श्रीराम गदादे",
          "सिंधू रोहिदास गदादे, सुवर्णा देविदास गदादे",
          "संतोष गोरख गदादे, महादेव गोरख गदादे",
          "रामदास  गुलाब गदादे",
          "संतोष  देविदास  गदादे"
        ],
        "khata_no": "2936, 3024, 2685, 3450, 3451",
        "area_sqm": 24417.19,
        "area_acres": 6.03,
        "area_guntha": 241.35,
        "land_type": "जिरायत शेती (Jirayat - Rainfed Agricultural)",
        "source": "MahaBhuNaksha Official Live Cadastre",
        "status": "verified",
        "confidence_score": 98.8,
        "old_survey_area_acres": 6.03,
        "old_survey_area_sqm": 24417.19,
        "new_survey_area_acres": 6.03,
        "new_survey_area_sqm": 24417.19
      },
      "geometry": {
        "type": "Polygon",
        "coordinates": [
          [
            [
              74.9582192,
              18.4825959
            ],
            [
              74.9584846,
              18.4825004
            ],
            [
              74.9587324,
              18.4824319
            ],
            [
              74.958692,
              18.4823131
            ],
            [
              74.9582742,
              18.480421
            ],
            [
              74.9581078,
              18.4796781
            ],
            [
              74.9575522,
              18.4798635
            ],
            [
              74.9575432,
              18.4798665
            ],
            [
              74.9579016,
              18.4812079
            ],
            [
              74.9575001,
              18.481399
            ],
            [
              74.9576381,
              18.4818892
            ],
            [
              74.9578765,
              18.4826967
            ],
            [
              74.9582192,
              18.4825959
            ]
          ]
        ]
      }
    }
  ]
}