{
  "type": "FeatureCollection",
  "name": "Benwadi_Gat_289_Cadastre",
  "crs": {
    "type": "name",
    "properties": {
      "name": "urn:ogc:def:crs:OGC:1.3:CRS84"
    }
  },
  "features": [
    {
      "type": "Feature",
      "properties": {
        "parcel_id": "MH-AHM-KAR-BEN-289",
        "survey_no": "289",
        "gat_no": "289",
        "village": "Benwadi (बेनवडी)",
        "taluka": "Karjat (कर्जत)",
        "district": "Ahmednagar (अहमदनगर)",
        "state": "Maharashtra",
        "gis_code": "RVM2613272600130334420000",
        "owner_name": "सुभाष दत्तू धुमाळ",
        "all_owners": [
          "सुभाष दत्तू धुमाळ"
        ],
        "khata_no": "3308",
        "area_sqm": 4778.33,
        "area_acres": 1.18,
        "area_guntha": 47.23,
        "land_type": "जिरायत शेती (Jirayat - Rainfed Agricultural)",
        "source": "MahaBhuNaksha Official Live Cadastre",
        "status": "verified",
        "confidence_score": 98.8,
        "old_survey_area_acres": 1.18,
        "old_survey_area_sqm": 4778.33,
        "new_survey_area_acres": 1.18,
        "new_survey_area_sqm": 4778.33
      },
      "geometry": {
        "type": "Polygon",
        "coordinates": [
          [
            [
              74.970342,
              18.5006193
            ],
            [
              74.9705597,
              18.5002387
            ],
            [
              74.9696868,
              18.5004321
            ],
            [
              74.9689592,
              18.5006039
            ],
            [
              74.9689825,
              18.5008115
            ],
            [
              74.9691457,
              18.5007788
            ],
            [
              74.969821,
              18.5006936
            ],
            [
              74.970342,
              18.5006193
            ]
          ]
        ]
      }
    }
  ]
}