{
  "type": "FeatureCollection",
  "name": "Benwadi_Gat_102_Cadastre",
  "crs": {
    "type": "name",
    "properties": {
      "name": "urn:ogc:def:crs:OGC:1.3:CRS84"
    }
  },
  "features": [
    {
      "type": "Feature",
      "properties": {
        "parcel_id": "MH-AHM-KAR-BEN-102",
        "survey_no": "102",
        "gat_no": "102",
        "village": "Benwadi (बेनवडी)",
        "taluka": "Karjat (कर्जत)",
        "district": "Ahmednagar (अहमदनगर)",
        "state": "Maharashtra",
        "gis_code": "RVM2613272600130334420000",
        "owner_name": "अनिल विजय खुडे, इंदू छगन खुडे, कांतीलाल छगन खुडे, त्रिंबक विश्वनाथ खुडे, दिव्या विजय खुडे, नर्मदा शिवाजी खुडे, निर्मला शिवाजी खुडे, मनिषा शशिकांत कांबळे, राजेंद्र शिवाजी खुडे, संतोष छगन खुडे, सपना विजय खुडे, सोमनाथ विजय खुडे, बबन विश्वनाथ  खुडे",
        "all_owners": [
          "अनिल विजय खुडे, इंदू छगन खुडे, कांतीलाल छगन खुडे, त्रिंबक विश्वनाथ खुडे, दिव्या विजय खुडे, नर्मदा शिवाजी खुडे, निर्मला शिवाजी खुडे, मनिषा शशिकांत कांबळे, राजेंद्र शिवाजी खुडे, संतोष छगन खुडे, सपना विजय खुडे, सोमनाथ विजय खुडे, बबन विश्वनाथ  खुडे"
        ],
        "khata_no": "290",
        "area_sqm": 5257.27,
        "area_acres": 1.3,
        "area_guntha": 51.96,
        "land_type": "जिरायत शेती (Jirayat - Rainfed Agricultural)",
        "source": "MahaBhuNaksha Official Live Cadastre",
        "status": "verified",
        "confidence_score": 98.8,
        "old_survey_area_acres": 1.3,
        "old_survey_area_sqm": 5257.27,
        "new_survey_area_acres": 1.3,
        "new_survey_area_sqm": 5257.27
      },
      "geometry": {
        "type": "Polygon",
        "coordinates": [
          [
            [
              74.9784075,
              18.4876937
            ],
            [
              74.9782885,
              18.4873046
            ],
            [
              74.9782729,
              18.4872454
            ],
            [
              74.9773432,
              18.4877213
            ],
            [
              74.9776127,
              18.4881093
            ],
            [
              74.9784075,
              18.4876937
            ]
          ]
        ]
      }
    }
  ]
}