{
  "type": "FeatureCollection",
  "name": "Benwadi_Gat_119_Drone_Resurvey",
  "crs": {
    "type": "name",
    "properties": {
      "name": "urn:ogc:def:crs:OGC:1.3:CRS84"
    }
  },
  "features": [
    {
      "type": "Feature",
      "properties": {
        "parcel_id": "MH-AHM-KAR-BEN-119",
        "survey_no": "119",
        "gat_no": "119",
        "village": "Benwadi (बेनवडी)",
        "taluka": "Karjat (कर्जत)",
        "district": "Ahmednagar (अहमदनगर)",
        "state": "Maharashtra",
        "gis_code": "RVM2613272600130334420000",
        "owner_name": "रविंद्र हनुमंत गायकवाड, विष्णू रामदास गायकवाड",
        "all_owners": [
          "रविंद्र हनुमंत गायकवाड",
          "विष्णू रामदास गायकवाड",
          "भिवराज कृष्णा गायकवाड",
          "पोपट पांडूरंग गायकवाड",
          "भिवराज कृष्णा गायकवाड",
          "हेमंत विष्णु गायकवाड",
          "अमोल दत्तात्रय गायकवाड",
          "बबन भिवराज गायकवाड",
          "विष्णू रामदास गायकवाड",
          "बबन भिवराज गायकवाड",
          "विष्णू रामदास गायकवाड",
          "हनूमंत पोपट गायकवाड",
          "हनूमंत पोपट गायकवाड",
          "काकासाहेब भिवराज गायकवाड"
        ],
        "khata_no": "3325, 778, 748, 774, 748, 3227, 717, 773, 778, 773, 778, 940, 940, 771",
        "area_sqm": 109564.67,
        "area_acres": 27.07,
        "area_guntha": 1082.98,
        "land_type": "जिरायत शेती (Jirayat - Rainfed Agricultural)",
        "source": "MahaBhuNaksha Official Live Cadastre",
        "status": "needs_review",
        "confidence_score": 84.5,
        "old_survey_area_acres": 27.07,
        "old_survey_area_sqm": 109564.67,
        "new_survey_area_acres": 27.86,
        "new_survey_area_sqm": 112742.0,
        "area_diff_pct": 2.9,
        "mean_shift_m": 1.8,
        "iou_overlap_pct": 93.1,
        "review_reason": "Drone RTK photogrammetry detects a 2.9% area discrepancy (3177 m²) with a mean bund shift of 1.8m along the farm boundary. Verification recommended.",
        "bhunaksha_geometry": {
          "type": "Polygon",
          "coordinates": [
            [
              [
                74.9748088,
                18.4895539
              ],
              [
                74.9748107,
                18.4893564
              ],
              [
                74.9748526,
                18.4890393
              ],
              [
                74.9749007,
                18.4886744
              ],
              [
                74.9749943,
                18.4880884
              ],
              [
                74.9750604,
                18.4876744
              ],
              [
                74.9750963,
                18.4874465
              ],
              [
                74.974983,
                18.4874551
              ],
              [
                74.9736256,
                18.4873125
              ],
              [
                74.9722448,
                18.4871577
              ],
              [
                74.9708288,
                18.4870124
              ],
              [
                74.9708278,
                18.4870903
              ],
              [
                74.9708976,
                18.4883992
              ],
              [
                74.9709645,
                18.4893508
              ],
              [
                74.9725715,
                18.489515
              ],
              [
                74.9742762,
                18.4897123
              ],
              [
                74.9748067,
                18.4897751
              ],
              [
                74.9748088,
                18.4895539
              ]
            ]
          ]
        }
      },
      "geometry": {
        "type": "Polygon",
        "coordinates": [
          [
            [
              74.9748438,
              18.4895695
            ],
            [
              74.9748457,
              18.4893692
            ],
            [
              74.9748882,
              18.4890475
            ],
            [
              74.974937,
              18.4886774
            ],
            [
              74.975032,
              18.4880829
            ],
            [
              74.975099,
              18.487663
            ],
            [
              74.9751354,
              18.4874318
            ],
            [
              74.9750205,
              18.4874405
            ],
            [
              74.9736436,
              18.4872959
            ],
            [
              74.9722429,
              18.4871388
            ],
            [
              74.9708065,
              18.4869915
            ],
            [
              74.9708055,
              18.4870705
            ],
            [
              74.9708763,
              18.4883982
            ],
            [
              74.9709441,
              18.4893635
            ],
            [
              74.9725743,
              18.4895301
            ],
            [
              74.9743035,
              18.4897302
            ],
            [
              74.9748417,
              18.4897939
            ],
            [
              74.9748438,
              18.4895695
            ]
          ]
        ]
      }
    }
  ]
}