{
  "type": "FeatureCollection",
  "name": "Benwadi_Gat_394_Drone_Resurvey",
  "crs": {
    "type": "name",
    "properties": {
      "name": "urn:ogc:def:crs:OGC:1.3:CRS84"
    }
  },
  "features": [
    {
      "type": "Feature",
      "properties": {
        "parcel_id": "MH-AHM-KAR-BEN-394",
        "survey_no": "394",
        "gat_no": "394",
        "village": "Benwadi (बेनवडी)",
        "taluka": "Karjat (कर्जत)",
        "district": "Ahmednagar (अहमदनगर)",
        "state": "Maharashtra",
        "gis_code": "RVM2613272600130334420000",
        "owner_name": "सखुबाई धोंडीबा जाधव, अरुणा झुंबर चाकने, सुनिल परशुराम गदादे, छबु सोपान गदादे, राजाराम सोपान गदादे, शिवगंगा परशुराम गदादे, सुभद्रा बाळासाहेब सायकर, सोमनाथ परशुराम गदादे, जनार्धन केरा गदादे",
        "all_owners": [
          "सखुबाई धोंडीबा जाधव, अरुणा झुंबर चाकने, सुनिल परशुराम गदादे, छबु सोपान गदादे, राजाराम सोपान गदादे, शिवगंगा परशुराम गदादे, सुभद्रा बाळासाहेब सायकर, सोमनाथ परशुराम गदादे",
          "जनार्धन केरा गदादे",
          "द्रौपदी तुकाराम गदादे, दत्तात्रय तुकाराम गदादे, बाळासाहेब तुकाराम गदादे",
          "ज्ञानदेव केरा गदादे"
        ],
        "khata_no": "2327, 430, 431, 432",
        "area_sqm": 72492.28,
        "area_acres": 17.91,
        "area_guntha": 716.54,
        "land_type": "जिरायत शेती (Jirayat - Rainfed Agricultural)",
        "source": "MahaBhuNaksha Official Live Cadastre",
        "status": "needs_review",
        "confidence_score": 85.1,
        "old_survey_area_acres": 17.91,
        "old_survey_area_sqm": 72492.28,
        "new_survey_area_acres": 18.34,
        "new_survey_area_sqm": 74232.1,
        "area_diff_pct": 2.4,
        "mean_shift_m": 1.9,
        "iou_overlap_pct": 93.6,
        "review_reason": "Drone RTK photogrammetry detects a 2.4% area discrepancy (1740 m²) with a mean bund shift of 1.9m along the farm boundary. Verification recommended.",
        "bhunaksha_geometry": {
          "type": "Polygon",
          "coordinates": [
            [
              [
                74.9922538,
                18.5080786
              ],
              [
                74.9924968,
                18.5080498
              ],
              [
                74.9928363,
                18.5080096
              ],
              [
                74.9930199,
                18.5079878
              ],
              [
                74.99318,
                18.5079688
              ],
              [
                74.9928936,
                18.506663
              ],
              [
                74.9925854,
                18.5053152
              ],
              [
                74.9912049,
                18.5052769
              ],
              [
                74.990498,
                18.5052363
              ],
              [
                74.9903481,
                18.5052343
              ],
              [
                74.9907057,
                18.5067478
              ],
              [
                74.9910523,
                18.5082209
              ],
              [
                74.9922538,
                18.5080786
              ]
            ]
          ]
        }
      },
      "geometry": {
        "type": "Polygon",
        "coordinates": [
          [
            [
              74.9922409,
              18.5080865
            ],
            [
              74.9924868,
              18.5080574
            ],
            [
              74.9928304,
              18.5080167
            ],
            [
              74.9930162,
              18.5079947
            ],
            [
              74.9931782,
              18.5079754
            ],
            [
              74.9928883,
              18.5066541
            ],
            [
              74.9925765,
              18.5052902
            ],
            [
              74.9911795,
              18.5052514
            ],
            [
              74.9904642,
              18.5052103
            ],
            [
              74.9903125,
              18.5052083
            ],
            [
              74.9906743,
              18.5067399
            ],
            [
              74.9910251,
              18.5082305
            ],
            [
              74.9922409,
              18.5080865
            ]
          ]
        ]
      }
    }
  ]
}