{
  "type": "FeatureCollection",
  "name": "Benwadi_Gat_440_Cadastre",
  "crs": {
    "type": "name",
    "properties": {
      "name": "urn:ogc:def:crs:OGC:1.3:CRS84"
    }
  },
  "features": [
    {
      "type": "Feature",
      "properties": {
        "parcel_id": "MH-AHM-KAR-BEN-440",
        "survey_no": "440",
        "gat_no": "440",
        "village": "Benwadi (बेनवडी)",
        "taluka": "Karjat (कर्जत)",
        "district": "Ahmednagar (अहमदनगर)",
        "state": "Maharashtra",
        "gis_code": "RVM2613272600130334420000",
        "owner_name": "वसंत काशिनाथ कोहळे",
        "all_owners": [
          "वसंत काशिनाथ कोहळे"
        ],
        "khata_no": "283",
        "area_sqm": 1141.77,
        "area_acres": 0.28,
        "area_guntha": 11.29,
        "land_type": "जिरायत शेती (Jirayat - Rainfed Agricultural)",
        "source": "MahaBhuNaksha Official Live Cadastre",
        "status": "verified",
        "confidence_score": 98.8,
        "old_survey_area_acres": 0.28,
        "old_survey_area_sqm": 1141.77,
        "new_survey_area_acres": 0.28,
        "new_survey_area_sqm": 1141.77
      },
      "geometry": {
        "type": "Polygon",
        "coordinates": [
          [
            [
              74.9965871,
              18.4941931
            ],
            [
              74.996658,
              18.49434
            ],
            [
              74.9971047,
              18.4942312
            ],
            [
              74.9970576,
              18.4939917
            ],
            [
              74.9965871,
              18.4941931
            ]
          ]
        ]
      }
    }
  ]
}