{
  "type": "FeatureCollection",
  "name": "Benwadi_Gat_239_Drone_Resurvey",
  "crs": {
    "type": "name",
    "properties": {
      "name": "urn:ogc:def:crs:OGC:1.3:CRS84"
    }
  },
  "features": [
    {
      "type": "Feature",
      "properties": {
        "parcel_id": "MH-AHM-KAR-BEN-239",
        "survey_no": "239",
        "gat_no": "239",
        "village": "Benwadi (बेनवडी)",
        "taluka": "Karjat (कर्जत)",
        "district": "Ahmednagar (अहमदनगर)",
        "state": "Maharashtra",
        "gis_code": "RVM2613272600130334420000",
        "owner_name": "नाथा कूंडलिक धूमाळ, महेंद्र जालींदर धुमाळ",
        "all_owners": [
          "नाथा कूंडलिक धूमाळ",
          "महेंद्र जालींदर धुमाळ",
          "सूभाष दादासाहेब धुमाळ",
          "जालिंदर दादासाहेब धूमाळ"
        ],
        "khata_no": "119, 3054, 348, 78",
        "area_sqm": 77456.67,
        "area_acres": 19.14,
        "area_guntha": 765.61,
        "land_type": "जिरायत शेती (Jirayat - Rainfed Agricultural)",
        "source": "MahaBhuNaksha Official Live Cadastre",
        "status": "needs_review",
        "confidence_score": 84.5,
        "old_survey_area_acres": 19.14,
        "old_survey_area_sqm": 77456.67,
        "new_survey_area_acres": 19.7,
        "new_survey_area_sqm": 79702.9,
        "area_diff_pct": 2.9,
        "mean_shift_m": 1.4,
        "iou_overlap_pct": 93.1,
        "review_reason": "Drone RTK photogrammetry detects a 2.9% area discrepancy (2246 m²) with a mean bund shift of 1.4m along the farm boundary. Verification recommended.",
        "bhunaksha_geometry": {
          "type": "Polygon",
          "coordinates": [
            [
              [
                74.9575624,
                18.4892466
              ],
              [
                74.9575006,
                18.4889781
              ],
              [
                74.9572221,
                18.4878192
              ],
              [
                74.9565722,
                18.4880594
              ],
              [
                74.9557852,
                18.4883246
              ],
              [
                74.9554968,
                18.4884347
              ],
              [
                74.955167,
                18.4884998
              ],
              [
                74.9545404,
                18.488556
              ],
              [
                74.9531075,
                18.4886083
              ],
              [
                74.9519539,
                18.488663
              ],
              [
                74.9520052,
                18.4887213
              ],
              [
                74.9522359,
                18.4889832
              ],
              [
                74.9527391,
                18.4895544
              ],
              [
                74.9532757,
                18.4901252
              ],
              [
                74.9547882,
                18.4898153
              ],
              [
                74.9575624,
                18.4892466
              ]
            ]
          ]
        }
      },
      "geometry": {
        "type": "Polygon",
        "coordinates": [
          [
            [
              74.9576163,
              18.4892475
            ],
            [
              74.9575536,
              18.4889752
            ],
            [
              74.9572711,
              18.4877996
            ],
            [
              74.9566118,
              18.4880432
            ],
            [
              74.9558135,
              18.4883123
            ],
            [
              74.9555209,
              18.4884239
            ],
            [
              74.9551864,
              18.48849
            ],
            [
              74.9545508,
              18.488547
            ],
            [
              74.9530972,
              18.4886
            ],
            [
              74.951927,
              18.4886555
            ],
            [
              74.9519791,
              18.4887147
            ],
            [
              74.9522131,
              18.4889803
            ],
            [
              74.9527235,
              18.4895598
            ],
            [
              74.9532679,
              18.4901388
            ],
            [
              74.9548021,
              18.4898244
            ],
            [
              74.9576163,
              18.4892475
            ]
          ]
        ]
      }
    }
  ]
}