{
  "type": "FeatureCollection",
  "name": "Benwadi_Gat_77_Drone_Resurvey",
  "crs": {
    "type": "name",
    "properties": {
      "name": "urn:ogc:def:crs:OGC:1.3:CRS84"
    }
  },
  "features": [
    {
      "type": "Feature",
      "properties": {
        "parcel_id": "MH-AHM-KAR-BEN-77",
        "survey_no": "77",
        "gat_no": "77",
        "village": "Benwadi (बेनवडी)",
        "taluka": "Karjat (कर्जत)",
        "district": "Ahmednagar (अहमदनगर)",
        "state": "Maharashtra",
        "gis_code": "RVM2613272600130334420000",
        "owner_name": "लाला दादा खुडे, मधुकर दादा खुडे, नाना दादा खुडे, मीराबाई दादा खुडे, बबन भगवान खुडे",
        "all_owners": [
          "लाला दादा खुडे, मधुकर दादा खुडे, नाना दादा खुडे, मीराबाई दादा खुडे",
          "बबन भगवान खुडे",
          "सोपान माधव खुडे",
          "कचर गणपत खुडे",
          "छाया \t नामदेव  शिंदे, ओंकार नवनाथ खुडे, मिराबाई  पंडित  वेळेकर, दत्तू  धर्मा  खुडे, अलका  संभाजी  उल्हारे, हिराबाई  दादू  शिंदे, महेश नवनाथ खुडे, संगिता  बाळू  शिंदे, लता नवनाथ खुडे",
          "कलावती बापूराव",
          "देवराव चंदर खुडे",
          "अजिनाथ बापू खुडे",
          "अलका भीमराव चांदणे, शकुंतला सुखदेव खुडे",
          "गयाबाई दत्तू देवकर",
          "निलावती बाबूलाल भिसे",
          "यमुना साहेबराव दिवटे",
          "लाला माधव खूडे",
          "सोजाबाई संतराम भिसे, धोंडीबा विठ्ठल खुडे, वैजाबाई साहेबराव भिसे",
          "रमा दिलीप लांडगे, हरीबाई दादाराम लोंढे, भिमराव कुंडलिक चांदणे, मारुती शंकर पवार, मालन हनुमंत टावरे, बाळासाहेब उद्धव सकट, राजेंद्र कुंडलिक चांदणे, प्रमिला दुर्योधन पवार, पोपट हंबीराव खुडे, शंकर यादव पवार, दादासाहेब उद्धव सकट, शामराव हंबीराव खुडे, शालन जवान भिसे, शालन प्रल्हाद वाघमारे, संजय शंकर पवार, छबुबाई गेना भवाळ, केशरबाई संभाजी वाल्हेकर, कविता नवनाथ पवार, उद्धव यशवंत सकट",
          "बबन विश्वनाथ  खुडे, मनिषा शशिकांत कांबळे, राजेंद्र शिवाजी खुडे, निर्मला शिवाजी खुडे, नर्मदा शिवाजी खुडे, दिव्या विजय खुडे, त्रिंबक विश्वनाथ खुडे, संतोष छगन खुडे, सपना विजय खुडे, सोमनाथ विजय खुडे, कांतीलाल छगन खुडे, इंदू छगन खुडे, अनिल विजय खुडे",
          "हरी भानुदास खुडे, आशा शिवलिंग कांबळे, उषा मोहन भोसले, तुषार निलेश खुडे, शिवाजी भानुदास खुडे, राजुबाई भानुदास खुडे, रोहित निलेश खुडे अ पा क आई मंगल, रामा भानुदास खुडे, मंगल निलेश खुडे",
          "बापू दादाराम खुडे, दत्तू  साहेबराव  खुडे, नंदाबाई दादाराम खुडे, गोरख  साहेबराव  खुडे, मच्छिंद्र साहेबराव खुडे, शशिकला साहेबराव खुडे, रेश्मा विजय पाथरे, साखरबाई बबन खवळे",
          "माणिक जयवंता खुडे",
          "विनायक जयवंता खुडे",
          "भाऊसाहेब जयवंता खुडे",
          "रावसाहेब जयवंता खुडे",
          "अविनाश कल्याण खुडे, कविता संतोष जगताप, रेखा जालिंदर डाडर, सविता संदीपान मोरे, राजूबाई कल्याण खुडे, निता मच्छिंद्र लोखंडे",
          "सिताराम बाबू खुडे",
          "आप्पा बाबू खुडे"
        ],
        "khata_no": "102, 2292, 2349, 25, 2602, 2648, 2649, 2651, 2652, 2655, 2659, 2754, 282, 2896, 2897, 290, 3248, 561, 690, 691, 692, 693, 694, 723, 724",
        "area_sqm": 5400.96,
        "area_acres": 1.33,
        "area_guntha": 53.38,
        "land_type": "जिरायत शेती (Jirayat - Rainfed Agricultural)",
        "source": "MahaBhuNaksha Official Live Cadastre",
        "status": "needs_review",
        "confidence_score": 85.5,
        "old_survey_area_acres": 1.33,
        "old_survey_area_sqm": 5400.96,
        "new_survey_area_acres": 1.36,
        "new_survey_area_sqm": 5514.4,
        "area_diff_pct": 2.1,
        "mean_shift_m": 2.0,
        "iou_overlap_pct": 93.9,
        "review_reason": "Drone RTK photogrammetry detects a 2.1% area discrepancy (113 m²) with a mean bund shift of 2.0m along the farm boundary. Verification recommended.",
        "bhunaksha_geometry": {
          "type": "Polygon",
          "coordinates": [
            [
              [
                74.9781141,
                18.4904034
              ],
              [
                74.9780208,
                18.4901733
              ],
              [
                74.9778979,
                18.4898999
              ],
              [
                74.9778097,
                18.4896992
              ],
              [
                74.9778046,
                18.4897289
              ],
              [
                74.9777929,
                18.4898159
              ],
              [
                74.9776707,
                18.4898999
              ],
              [
                74.9774323,
                18.4900307
              ],
              [
                74.9770818,
                18.490212
              ],
              [
                74.9772881,
                18.4905821
              ],
              [
                74.9781141,
                18.4904034
              ]
            ]
          ]
        }
      },
      "geometry": {
        "type": "Polygon",
        "coordinates": [
          [
            [
              74.978125,
              18.4904241
            ],
            [
              74.9780307,
              18.4901916
            ],
            [
              74.9779065,
              18.4899153
            ],
            [
              74.9778174,
              18.4897125
            ],
            [
              74.9778123,
              18.4897425
            ],
            [
              74.9778005,
              18.4898304
            ],
            [
              74.977677,
              18.4899153
            ],
            [
              74.9774361,
              18.4900475
            ],
            [
              74.9770819,
              18.4902307
            ],
            [
              74.9772904,
              18.4906046
            ],
            [
              74.978125,
              18.4904241
            ]
          ]
        ]
      }
    }
  ]
}