{
  "type": "FeatureCollection",
  "name": "Benwadi_Gat_76_Cadastre",
  "crs": {
    "type": "name",
    "properties": {
      "name": "urn:ogc:def:crs:OGC:1.3:CRS84"
    }
  },
  "features": [
    {
      "type": "Feature",
      "properties": {
        "parcel_id": "MH-AHM-KAR-BEN-76",
        "survey_no": "76",
        "gat_no": "76",
        "village": "Benwadi (बेनवडी)",
        "taluka": "Karjat (कर्जत)",
        "district": "Ahmednagar (अहमदनगर)",
        "state": "Maharashtra",
        "gis_code": "RVM2613272600130334420000",
        "owner_name": "अजय कचरू खुडे",
        "all_owners": [
          "अजय कचरू खुडे"
        ],
        "khata_no": "3257",
        "area_sqm": 2724.85,
        "area_acres": 0.67,
        "area_guntha": 26.93,
        "land_type": "जिरायत शेती (Jirayat - Rainfed Agricultural)",
        "source": "MahaBhuNaksha Official Live Cadastre",
        "status": "verified",
        "confidence_score": 98.8,
        "old_survey_area_acres": 0.67,
        "old_survey_area_sqm": 2724.85,
        "new_survey_area_acres": 0.67,
        "new_survey_area_sqm": 2724.85
      },
      "geometry": {
        "type": "Polygon",
        "coordinates": [
          [
            [
              74.9774323,
              18.4900307
            ],
            [
              74.977212,
              18.48952
            ],
            [
              74.9770475,
              18.4896017
            ],
            [
              74.9768225,
              18.4897169
            ],
            [
              74.9768588,
              18.4898114
            ],
            [
              74.9768786,
              18.489832
            ],
            [
              74.9769883,
              18.4900373
            ],
            [
              74.9770818,
              18.490212
            ],
            [
              74.9774323,
              18.4900307
            ]
          ]
        ]
      }
    }
  ]
}