{
  "type": "FeatureCollection",
  "name": "Benwadi_Gat_174_Cadastre",
  "crs": {
    "type": "name",
    "properties": {
      "name": "urn:ogc:def:crs:OGC:1.3:CRS84"
    }
  },
  "features": [
    {
      "type": "Feature",
      "properties": {
        "parcel_id": "MH-AHM-KAR-BEN-174",
        "survey_no": "174",
        "gat_no": "174",
        "village": "Benwadi (बेनवडी)",
        "taluka": "Karjat (कर्जत)",
        "district": "Ahmednagar (अहमदनगर)",
        "state": "Maharashtra",
        "gis_code": "RVM2613272600130334420000",
        "owner_name": "तात्यासाहेब उर्फ तात्याराम आबा गदादे, सोनाली तात्यासाहेब गदादे",
        "all_owners": [
          "तात्यासाहेब उर्फ तात्याराम आबा गदादे",
          "सोनाली तात्यासाहेब गदादे"
        ],
        "khata_no": "2373, 3272",
        "area_sqm": 33947.4,
        "area_acres": 8.39,
        "area_guntha": 335.55,
        "land_type": "जिरायत शेती (Jirayat - Rainfed Agricultural)",
        "source": "MahaBhuNaksha Official Live Cadastre",
        "status": "verified",
        "confidence_score": 98.8,
        "old_survey_area_acres": 8.39,
        "old_survey_area_sqm": 33947.4,
        "new_survey_area_acres": 8.39,
        "new_survey_area_sqm": 33947.4
      },
      "geometry": {
        "type": "Polygon",
        "coordinates": [
          [
            [
              74.9658311,
              18.4790891
            ],
            [
              74.966077,
              18.479039
            ],
            [
              74.9665998,
              18.4789197
            ],
            [
              74.9664028,
              18.477057
            ],
            [
              74.9653329,
              18.4774374
            ],
            [
              74.9652981,
              18.4774297
            ],
            [
              74.9650586,
              18.477524
            ],
            [
              74.9646303,
              18.4776938
            ],
            [
              74.9648298,
              18.4782539
            ],
            [
              74.9651898,
              18.4792436
            ],
            [
              74.9658311,
              18.4790891
            ]
          ]
        ]
      }
    }
  ]
}