{
  "type": "FeatureCollection",
  "name": "Benwadi_Gat_243_Cadastre",
  "crs": {
    "type": "name",
    "properties": {
      "name": "urn:ogc:def:crs:OGC:1.3:CRS84"
    }
  },
  "features": [
    {
      "type": "Feature",
      "properties": {
        "parcel_id": "MH-AHM-KAR-BEN-243",
        "survey_no": "243",
        "gat_no": "243",
        "village": "Benwadi (बेनवडी)",
        "taluka": "Karjat (कर्जत)",
        "district": "Ahmednagar (अहमदनगर)",
        "state": "Maharashtra",
        "gis_code": "RVM2613272600130334420000",
        "owner_name": "शिवकन्या नाथा धुमाळ, कांचन जालिंदर धुमाळ",
        "all_owners": [
          "शिवकन्या नाथा धुमाळ",
          "कांचन जालिंदर धुमाळ",
          "सूभाष दादासाहेब धुमाळ"
        ],
        "khata_no": "3049, 3050, 348",
        "area_sqm": 23203.03,
        "area_acres": 5.73,
        "area_guntha": 229.35,
        "land_type": "जिरायत शेती (Jirayat - Rainfed Agricultural)",
        "source": "MahaBhuNaksha Official Live Cadastre",
        "status": "verified",
        "confidence_score": 98.8,
        "old_survey_area_acres": 5.73,
        "old_survey_area_sqm": 23203.03,
        "new_survey_area_acres": 5.73,
        "new_survey_area_sqm": 23203.03
      },
      "geometry": {
        "type": "Polygon",
        "coordinates": [
          [
            [
              74.9604619,
              18.4951034
            ],
            [
              74.9603221,
              18.4940024
            ],
            [
              74.9596123,
              18.4940499
            ],
            [
              74.9595067,
              18.4935058
            ],
            [
              74.9582411,
              18.4937791
            ],
            [
              74.9583223,
              18.4938636
            ],
            [
              74.9597058,
              18.4952136
            ],
            [
              74.9604619,
              18.4951034
            ]
          ]
        ]
      }
    }
  ]
}