{
  "type": "FeatureCollection",
  "name": "Benwadi_Gat_450_Drone_Resurvey",
  "crs": {
    "type": "name",
    "properties": {
      "name": "urn:ogc:def:crs:OGC:1.3:CRS84"
    }
  },
  "features": [
    {
      "type": "Feature",
      "properties": {
        "parcel_id": "MH-AHM-KAR-BEN-450",
        "survey_no": "450",
        "gat_no": "450",
        "village": "Benwadi (बेनवडी)",
        "taluka": "Karjat (कर्जत)",
        "district": "Ahmednagar (अहमदनगर)",
        "state": "Maharashtra",
        "gis_code": "RVM2613272600130334420000",
        "owner_name": "मुकींदा मच्छिंद्र गायकवाड, सविता गोरख गायकवाड",
        "all_owners": [
          "मुकींदा मच्छिंद्र गायकवाड",
          "सविता गोरख गायकवाड",
          "सिंधु नवनाथ काळे",
          "अलका राजेंद्र काळे",
          "छगन  संभाजी  गदादे",
          "संगिता दादा गदादे",
          "संगिता दादा गदादे"
        ],
        "khata_no": "3009, 2322, 2323, 2251, 2579, 853, 853",
        "area_sqm": 41891.58,
        "area_acres": 10.35,
        "area_guntha": 414.07,
        "land_type": "जिरायत शेती (Jirayat - Rainfed Agricultural)",
        "source": "MahaBhuNaksha Official Live Cadastre",
        "status": "needs_review",
        "confidence_score": 84.6,
        "old_survey_area_acres": 10.35,
        "old_survey_area_sqm": 41891.58,
        "new_survey_area_acres": 10.64,
        "new_survey_area_sqm": 43064.5,
        "area_diff_pct": 2.8,
        "mean_shift_m": 1.5,
        "iou_overlap_pct": 93.2,
        "review_reason": "Drone RTK photogrammetry detects a 2.8% area discrepancy (1173 m²) with a mean bund shift of 1.5m along the farm boundary. Verification recommended.",
        "bhunaksha_geometry": {
          "type": "Polygon",
          "coordinates": [
            [
              [
                74.9942344,
                18.5012856
              ],
              [
                74.9945377,
                18.501156
              ],
              [
                74.9960607,
                18.5004169
              ],
              [
                74.9962923,
                18.5000777
              ],
              [
                74.9964842,
                18.4997966
              ],
              [
                74.9964602,
                18.4997133
              ],
              [
                74.9959137,
                18.4998432
              ],
              [
                74.9955265,
                18.4999352
              ],
              [
                74.9938485,
                18.5003331
              ],
              [
                74.9937616,
                18.4998718
              ],
              [
                74.9927996,
                18.5002335
              ],
              [
                74.9930595,
                18.5018073
              ],
              [
                74.9936829,
                18.501541
              ],
              [
                74.9942344,
                18.5012856
              ]
            ]
          ]
        }
      },
      "geometry": {
        "type": "Polygon",
        "coordinates": [
          [
            [
              74.9942352,
              18.5012866
            ],
            [
              74.9945427,
              18.5011552
            ],
            [
              74.9960869,
              18.5004058
            ],
            [
              74.9963217,
              18.5000619
            ],
            [
              74.9965163,
              18.4997769
            ],
            [
              74.996492,
              18.4996924
            ],
            [
              74.9959379,
              18.4998241
            ],
            [
              74.9955453,
              18.4999174
            ],
            [
              74.9938439,
              18.5003208
            ],
            [
              74.9937558,
              18.4998531
            ],
            [
              74.9927805,
              18.5002198
            ],
            [
              74.993044,
              18.5018155
            ],
            [
              74.993676,
              18.5015455
            ],
            [
              74.9942352,
              18.5012866
            ]
          ]
        ]
      }
    }
  ]
}