{
  "type": "FeatureCollection",
  "name": "Benwadi_Gat_390_Drone_Resurvey",
  "crs": {
    "type": "name",
    "properties": {
      "name": "urn:ogc:def:crs:OGC:1.3:CRS84"
    }
  },
  "features": [
    {
      "type": "Feature",
      "properties": {
        "parcel_id": "MH-AHM-KAR-BEN-390",
        "survey_no": "390",
        "gat_no": "390",
        "village": "Benwadi (बेनवडी)",
        "taluka": "Karjat (कर्जत)",
        "district": "Ahmednagar (अहमदनगर)",
        "state": "Maharashtra",
        "gis_code": "RVM2613272600130334420000",
        "owner_name": "तुळशिराम पांडुरंग गायकवाड, पार्वती शंकर गायकवाड",
        "all_owners": [
          "तुळशिराम पांडुरंग गायकवाड",
          "पार्वती शंकर गायकवाड",
          "संतोष पोपट घालमे",
          "अशोक गौतम डमरे",
          "प्रकाश आजिनाथ गायकवाड",
          "कौशल्या अशोक गायकवाड",
          "आशोक आजिनाथ गायकवाड",
          "प्रकाश आजिनाथ गायकवाड, जनाबाई आजिनाथ गायकवाड, अशोक आजिनाथ गायकवाड",
          "रोहिणी शंकर गायकवाड, नंदा अशोक दवणे, पार्वती शंकर गायकवाड",
          "मोहन रामा गदादे",
          "अतुल पोपट गदादे",
          "अतूल तूळशीराम गायकवाड"
        ],
        "khata_no": "2411, 776, 94, 3397, 751, 3403, 749, 781, 775, 931, 1117, 939",
        "area_sqm": 138288.83,
        "area_acres": 34.17,
        "area_guntha": 1366.9,
        "land_type": "जिरायत शेती (Jirayat - Rainfed Agricultural)",
        "source": "MahaBhuNaksha Official Live Cadastre",
        "status": "needs_review",
        "confidence_score": 84.6,
        "old_survey_area_acres": 34.17,
        "old_survey_area_sqm": 138288.83,
        "new_survey_area_acres": 35.13,
        "new_survey_area_sqm": 142160.9,
        "area_diff_pct": 2.8,
        "mean_shift_m": 1.5,
        "iou_overlap_pct": 93.2,
        "review_reason": "Drone RTK photogrammetry detects a 2.8% area discrepancy (3872 m²) with a mean bund shift of 1.5m along the farm boundary. Verification recommended.",
        "bhunaksha_geometry": {
          "type": "Polygon",
          "coordinates": [
            [
              [
                74.9892749,
                18.5084425
              ],
              [
                74.990072,
                18.5083464
              ],
              [
                74.9895571,
                18.5069205
              ],
              [
                74.9889679,
                18.5052721
              ],
              [
                74.9889611,
                18.5051755
              ],
              [
                74.9886441,
                18.5051482
              ],
              [
                74.9872113,
                18.5050041
              ],
              [
                74.987236,
                18.5044937
              ],
              [
                74.987291,
                18.5039325
              ],
              [
                74.9868238,
                18.5038364
              ],
              [
                74.9862887,
                18.5037205
              ],
              [
                74.9862879,
                18.5050947
              ],
              [
                74.9862697,
                18.5066593
              ],
              [
                74.9862674,
                18.5080026
              ],
              [
                74.9862672,
                18.5081508
              ],
              [
                74.9865228,
                18.5081985
              ],
              [
                74.9876543,
                18.5084098
              ],
              [
                74.9881993,
                18.5085161
              ],
              [
                74.9885475,
                18.5085128
              ],
              [
                74.9886136,
                18.5085122
              ],
              [
                74.9888447,
                18.5084952
              ],
              [
                74.988906,
                18.5084869
              ],
              [
                74.9892749,
                18.5084425
              ]
            ]
          ]
        }
      },
      "geometry": {
        "type": "Polygon",
        "coordinates": [
          [
            [
              74.9892945,
              18.5084533
            ],
            [
              74.9901026,
              18.5083558
            ],
            [
              74.9895806,
              18.5069101
            ],
            [
              74.9889832,
              18.5052388
            ],
            [
              74.9889763,
              18.5051409
            ],
            [
              74.9886549,
              18.5051132
            ],
            [
              74.9872022,
              18.5049671
            ],
            [
              74.9872272,
              18.5044496
            ],
            [
              74.987283,
              18.5038806
            ],
            [
              74.9868093,
              18.5037831
            ],
            [
              74.9862667,
              18.5036656
            ],
            [
              74.9862659,
              18.5050589
            ],
            [
              74.9862475,
              18.5066453
            ],
            [
              74.9862451,
              18.5080073
            ],
            [
              74.9862449,
              18.5081575
            ],
            [
              74.9865041,
              18.5082059
            ],
            [
              74.9876513,
              18.5084201
            ],
            [
              74.9882039,
              18.5085279
            ],
            [
              74.9885569,
              18.5085246
            ],
            [
              74.988624,
              18.5085239
            ],
            [
              74.9888583,
              18.5085067
            ],
            [
              74.9889204,
              18.5084983
            ],
            [
              74.9892945,
              18.5084533
            ]
          ]
        ]
      }
    }
  ]
}