{
  "type": "FeatureCollection",
  "name": "Benwadi_Gat_209_Drone_Resurvey",
  "crs": {
    "type": "name",
    "properties": {
      "name": "urn:ogc:def:crs:OGC:1.3:CRS84"
    }
  },
  "features": [
    {
      "type": "Feature",
      "properties": {
        "parcel_id": "MH-AHM-KAR-BEN-209",
        "survey_no": "209",
        "gat_no": "209",
        "village": "Benwadi (बेनवडी)",
        "taluka": "Karjat (कर्जत)",
        "district": "Ahmednagar (अहमदनगर)",
        "state": "Maharashtra",
        "gis_code": "RVM2613272600130334420000",
        "owner_name": "सुभद्रा सोपान गदादे, गेनदेव सोपान गदादे, दत्तात्रय  सोपान  गदादे, मधूकर सोपान गदादे, दत्तात्रय सोपान गदादे",
        "all_owners": [
          "सुभद्रा सोपान गदादे, गेनदेव सोपान गदादे, दत्तात्रय  सोपान  गदादे, मधूकर सोपान गदादे",
          "दत्तात्रय सोपान गदादे",
          "गेनदेव सोपान गदादे",
          "मधूकर सोपान गदादे",
          "निर्मला दत्तात्रय गदादे",
          "सुवर्णा देवीदास गदादे",
          "सिंधु रोहिदास गदादे",
          "सुवर्णा देवीदास गदादे",
          "सिंधु रोहिदास गदादे",
          "सुवर्णा देवीदास गदादे",
          "सिंधु रोहिदास गदादे",
          "सुवर्णा देवीदास गदादे",
          "सिंधु रोहिदास गदादे",
          "अलका गेनदेव गदादे",
          "मधूकर सोपान गदादे, सुभद्रा सोपान गदादे, दत्तात्रय  सोपान  गदादे, गेनदेव सोपान गदादे",
          "तूळशीराम पंढरीनाथ गदादे",
          "देविदास तूळशीराम गदादे",
          "रोहीदास तूळशीराम गदादे",
          "गेनदेव सोपान गदादे",
          "मधूकर सोपान गदादे",
          "दत्तात्रय सोपान गदादे",
          "निर्मला दत्तात्रय गदादे",
          "निर्मला दत्तात्रय गदादे"
        ],
        "khata_no": "361, 650, 653, 654, 2589, 2590, 2591, 2590, 2591, 2590, 2591, 2590, 2591, 2592, 361, 82, 651, 652, 653, 654, 650, 2589, 2589",
        "area_sqm": 140976.95,
        "area_acres": 34.84,
        "area_guntha": 1393.47,
        "land_type": "जिरायत शेती (Jirayat - Rainfed Agricultural)",
        "source": "MahaBhuNaksha Official Live Cadastre",
        "status": "needs_review",
        "confidence_score": 84.5,
        "old_survey_area_acres": 34.84,
        "old_survey_area_sqm": 140976.95,
        "new_survey_area_acres": 35.85,
        "new_survey_area_sqm": 145065.3,
        "area_diff_pct": 2.9,
        "mean_shift_m": 2.0,
        "iou_overlap_pct": 93.1,
        "review_reason": "Drone RTK photogrammetry detects a 2.9% area discrepancy (4088 m²) with a mean bund shift of 2.0m along the farm boundary. Verification recommended.",
        "bhunaksha_geometry": {
          "type": "Polygon",
          "coordinates": [
            [
              [
                74.9566315,
                18.4847279
              ],
              [
                74.958347,
                18.4843273
              ],
              [
                74.9578765,
                18.4826967
              ],
              [
                74.9576381,
                18.4818892
              ],
              [
                74.9575001,
                18.481399
              ],
              [
                74.9579016,
                18.4812079
              ],
              [
                74.9575432,
                18.4798665
              ],
              [
                74.9572427,
                18.4799668
              ],
              [
                74.9571748,
                18.480018
              ],
              [
                74.956473,
                18.4805469
              ],
              [
                74.9559312,
                18.4809658
              ],
              [
                74.9558872,
                18.4809928
              ],
              [
                74.955074,
                18.4814911
              ],
              [
                74.9546021,
                18.4817941
              ],
              [
                74.9545731,
                18.4818199
              ],
              [
                74.9549433,
                18.4832674
              ],
              [
                74.9551252,
                18.4839535
              ],
              [
                74.9553489,
                18.4849648
              ],
              [
                74.9554173,
                18.4850283
              ],
              [
                74.9566315,
                18.4847279
              ]
            ]
          ]
        }
      },
      "geometry": {
        "type": "Polygon",
        "coordinates": [
          [
            [
              74.956654,
              18.4847668
            ],
            [
              74.9583942,
              18.4843605
            ],
            [
              74.9579169,
              18.4827064
            ],
            [
              74.9576751,
              18.4818873
            ],
            [
              74.9575351,
              18.48139
            ],
            [
              74.9579424,
              18.4811962
            ],
            [
              74.9575788,
              18.4798355
            ],
            [
              74.957274,
              18.4799372
            ],
            [
              74.9572051,
              18.4799891
            ],
            [
              74.9564932,
              18.4805256
            ],
            [
              74.9559436,
              18.4809506
            ],
            [
              74.955899,
              18.480978
            ],
            [
              74.9550741,
              18.4814834
            ],
            [
              74.9545954,
              18.4817908
            ],
            [
              74.9545659,
              18.481817
            ],
            [
              74.9549415,
              18.4832853
            ],
            [
              74.955126,
              18.4839813
            ],
            [
              74.9553529,
              18.4850071
            ],
            [
              74.9554223,
              18.4850716
            ],
            [
              74.956654,
              18.4847668
            ]
          ]
        ]
      }
    }
  ]
}