{
  "type": "FeatureCollection",
  "name": "Benwadi_Gat_11_Cadastre",
  "crs": {
    "type": "name",
    "properties": {
      "name": "urn:ogc:def:crs:OGC:1.3:CRS84"
    }
  },
  "features": [
    {
      "type": "Feature",
      "properties": {
        "parcel_id": "MH-AHM-KAR-BEN-11",
        "survey_no": "11",
        "gat_no": "11",
        "village": "Benwadi (बेनवडी)",
        "taluka": "Karjat (कर्जत)",
        "district": "Ahmednagar (अहमदनगर)",
        "state": "Maharashtra",
        "gis_code": "RVM2613272600130334420000",
        "owner_name": "समिर पदमाकर चावरे, पांडूरंग गणपती बांगर",
        "all_owners": [
          "समिर पदमाकर चावरे",
          "पांडूरंग गणपती बांगर",
          "रमेश भालचंद्र चावरे",
          "सुलभा सुरेश चावरे, नमीता संजीव अत्रे, प्रसाद सुरेश चावरे",
          "रत्नाकर भालचंद्र चावरे, शरद भालचंद्र चावरे",
          "विजय सिताराम घंटे",
          "हर्षद मधूकर चावरे",
          "सूधाकर गणेश चावरे",
          "राजेंद्र सिताराम घंटे",
          "शांताबाई सिताराम घंटे",
          "चंद्रकांत गणेश चावरे",
          "संदीप पदमाकर चावरे"
        ],
        "khata_no": "136, 143, 206, 2424, 2863, 293, 325, 352, 510, 511, 65, 997",
        "area_sqm": 6604.01,
        "area_acres": 1.63,
        "area_guntha": 65.28,
        "land_type": "जिरायत शेती (Jirayat - Rainfed Agricultural)",
        "source": "MahaBhuNaksha Official Live Cadastre",
        "status": "verified",
        "confidence_score": 98.8,
        "old_survey_area_acres": 1.63,
        "old_survey_area_sqm": 6604.01,
        "new_survey_area_acres": 1.63,
        "new_survey_area_sqm": 6604.01
      },
      "geometry": {
        "type": "Polygon",
        "coordinates": [
          [
            [
              74.9825202,
              18.4902367
            ],
            [
              74.9821869,
              18.4903156
            ],
            [
              74.9809473,
              18.4905786
            ],
            [
              74.9810273,
              18.4906109
            ],
            [
              74.9818084,
              18.491127
            ],
            [
              74.9825202,
              18.4902367
            ]
          ]
        ]
      }
    }
  ]
}