{
  "type": "FeatureCollection",
  "name": "Benwadi_Gat_482_Cadastre",
  "crs": {
    "type": "name",
    "properties": {
      "name": "urn:ogc:def:crs:OGC:1.3:CRS84"
    }
  },
  "features": [
    {
      "type": "Feature",
      "properties": {
        "parcel_id": "MH-AHM-KAR-BEN-482",
        "survey_no": "482",
        "gat_no": "482",
        "village": "Benwadi (बेनवडी)",
        "taluka": "Karjat (कर्जत)",
        "district": "Ahmednagar (अहमदनगर)",
        "state": "Maharashtra",
        "gis_code": "RVM2613272600130334420000",
        "owner_name": "भरत बबन गायकवाड, भरत बबन गायकवाड",
        "all_owners": [
          "भरत बबन गायकवाड",
          "भरत बबन गायकवाड",
          "मंगल  कल्याण  गायकवाड",
          "कांताबाई दादा गायकवाड",
          "संपत बबन गायकवाड",
          "गणेश दादासाहेब गायकवाड",
          "भरत बबन गायकवाड",
          "संपत बबन गायकवाड",
          "कांताबाई दादा गायकवाड"
        ],
        "khata_no": "185, 185, 3062, 3294, 334, 803, 185, 334, 3294",
        "area_sqm": 27039.23,
        "area_acres": 6.68,
        "area_guntha": 267.27,
        "land_type": "जिरायत शेती (Jirayat - Rainfed Agricultural)",
        "source": "MahaBhuNaksha Official Live Cadastre",
        "status": "verified",
        "confidence_score": 98.8,
        "old_survey_area_acres": 6.68,
        "old_survey_area_sqm": 27039.23,
        "new_survey_area_acres": 6.68,
        "new_survey_area_sqm": 27039.23
      },
      "geometry": {
        "type": "Polygon",
        "coordinates": [
          [
            [
              74.9878484,
              18.493645
            ],
            [
              74.9879491,
              18.4932801
            ],
            [
              74.9877809,
              18.4930731
            ],
            [
              74.98753,
              18.4928189
            ],
            [
              74.9873769,
              18.4926609
            ],
            [
              74.9873293,
              18.4923389
            ],
            [
              74.9872629,
              18.4921641
            ],
            [
              74.9867406,
              18.4921366
            ],
            [
              74.9863388,
              18.4923693
            ],
            [
              74.9864041,
              18.4932893
            ],
            [
              74.9864929,
              18.4943689
            ],
            [
              74.9878484,
              18.493645
            ]
          ]
        ]
      }
    }
  ]
}