{
  "type": "FeatureCollection",
  "name": "Benwadi_Gat_508_Cadastre",
  "crs": {
    "type": "name",
    "properties": {
      "name": "urn:ogc:def:crs:OGC:1.3:CRS84"
    }
  },
  "features": [
    {
      "type": "Feature",
      "properties": {
        "parcel_id": "MH-AHM-KAR-BEN-508",
        "survey_no": "508",
        "gat_no": "508",
        "village": "Benwadi (बेनवडी)",
        "taluka": "Karjat (कर्जत)",
        "district": "Ahmednagar (अहमदनगर)",
        "state": "Maharashtra",
        "gis_code": "RVM2613272600130334420000",
        "owner_name": "विष्णु बबन गदादे, शितल बापू गदादे",
        "all_owners": [
          "विष्णु बबन गदादे",
          "शितल बापू गदादे"
        ],
        "khata_no": "3491, 3492",
        "area_sqm": 4168.2,
        "area_acres": 1.03,
        "area_guntha": 41.2,
        "land_type": "जिरायत शेती (Jirayat - Rainfed Agricultural)",
        "source": "MahaBhuNaksha Official Live Cadastre",
        "status": "verified",
        "confidence_score": 98.8,
        "old_survey_area_acres": 1.03,
        "old_survey_area_sqm": 4168.2,
        "new_survey_area_acres": 1.03,
        "new_survey_area_sqm": 4168.2
      },
      "geometry": {
        "type": "Polygon",
        "coordinates": [
          [
            [
              74.9824358,
              18.495152
            ],
            [
              74.9824798,
              18.4954137
            ],
            [
              74.9825036,
              18.495567
            ],
            [
              74.9825235,
              18.4957035
            ],
            [
              74.9825397,
              18.4958289
            ],
            [
              74.9825524,
              18.4959059
            ],
            [
              74.9829916,
              18.4959594
            ],
            [
              74.9829691,
              18.4957943
            ],
            [
              74.9829469,
              18.4956403
            ],
            [
              74.9829002,
              18.495274
            ],
            [
              74.9828916,
              18.4952169
            ],
            [
              74.98287,
              18.4950781
            ],
            [
              74.9828063,
              18.4950921
            ],
            [
              74.9824358,
              18.495152
            ]
          ]
        ]
      }
    }
  ]
}