{
  "type": "FeatureCollection",
  "name": "Benwadi_Gat_348_Cadastre",
  "crs": {
    "type": "name",
    "properties": {
      "name": "urn:ogc:def:crs:OGC:1.3:CRS84"
    }
  },
  "features": [
    {
      "type": "Feature",
      "properties": {
        "parcel_id": "MH-AHM-KAR-BEN-348",
        "survey_no": "348",
        "gat_no": "348",
        "village": "Benwadi (बेनवडी)",
        "taluka": "Karjat (कर्जत)",
        "district": "Ahmednagar (अहमदनगर)",
        "state": "Maharashtra",
        "gis_code": "RVM2613272600130334420000",
        "owner_name": "शिवदास मारूती ढवळे",
        "all_owners": [
          "शिवदास मारूती ढवळे"
        ],
        "khata_no": "312",
        "area_sqm": 14754.76,
        "area_acres": 3.65,
        "area_guntha": 145.84,
        "land_type": "जिरायत शेती (Jirayat - Rainfed Agricultural)",
        "source": "MahaBhuNaksha Official Live Cadastre",
        "status": "verified",
        "confidence_score": 98.8,
        "old_survey_area_acres": 3.65,
        "old_survey_area_sqm": 14754.76,
        "new_survey_area_acres": 3.65,
        "new_survey_area_sqm": 14754.76
      },
      "geometry": {
        "type": "Polygon",
        "coordinates": [
          [
            [
              74.9780549,
              18.5018271
            ],
            [
              74.9776122,
              18.5009589
            ],
            [
              74.9775757,
              18.5008931
            ],
            [
              74.9770163,
              18.5000978
            ],
            [
              74.9764111,
              18.4999214
            ],
            [
              74.9763637,
              18.4999367
            ],
            [
              74.9769366,
              18.5010181
            ],
            [
              74.977441,
              18.5019714
            ],
            [
              74.9780549,
              18.5018271
            ]
          ]
        ]
      }
    }
  ]
}