{
  "type": "FeatureCollection",
  "name": "Benwadi_Gat_351_Cadastre",
  "crs": {
    "type": "name",
    "properties": {
      "name": "urn:ogc:def:crs:OGC:1.3:CRS84"
    }
  },
  "features": [
    {
      "type": "Feature",
      "properties": {
        "parcel_id": "MH-AHM-KAR-BEN-351",
        "survey_no": "351",
        "gat_no": "351",
        "village": "Benwadi (बेनवडी)",
        "taluka": "Karjat (कर्जत)",
        "district": "Ahmednagar (अहमदनगर)",
        "state": "Maharashtra",
        "gis_code": "RVM2613272600130334420000",
        "owner_name": "लक्ष्मण अंकुश भिताडे, लहू रामभाऊ भिताडे",
        "all_owners": [
          "लक्ष्मण अंकुश भिताडे",
          "लहू रामभाऊ भिताडे"
        ],
        "khata_no": "2324, 273",
        "area_sqm": 2335.73,
        "area_acres": 0.58,
        "area_guntha": 23.09,
        "land_type": "जिरायत शेती (Jirayat - Rainfed Agricultural)",
        "source": "MahaBhuNaksha Official Live Cadastre",
        "status": "verified",
        "confidence_score": 98.8,
        "old_survey_area_acres": 0.58,
        "old_survey_area_sqm": 2335.73,
        "new_survey_area_acres": 0.58,
        "new_survey_area_sqm": 2335.73
      },
      "geometry": {
        "type": "Polygon",
        "coordinates": [
          [
            [
              74.9740809,
              18.5003133
            ],
            [
              74.9739895,
              18.499625
            ],
            [
              74.9736901,
              18.4996763
            ],
            [
              74.973802,
              18.5003428
            ],
            [
              74.9740809,
              18.5003133
            ]
          ]
        ]
      }
    }
  ]
}