{
  "type": "FeatureCollection",
  "name": "Benwadi_Gat_293_Cadastre",
  "crs": {
    "type": "name",
    "properties": {
      "name": "urn:ogc:def:crs:OGC:1.3:CRS84"
    }
  },
  "features": [
    {
      "type": "Feature",
      "properties": {
        "parcel_id": "MH-AHM-KAR-BEN-293",
        "survey_no": "293",
        "gat_no": "293",
        "village": "Benwadi (बेनवडी)",
        "taluka": "Karjat (कर्जत)",
        "district": "Ahmednagar (अहमदनगर)",
        "state": "Maharashtra",
        "gis_code": "RVM2613272600130334420000",
        "owner_name": "आत्माराम विश्वनाथ धुमाळ, गुलाब विश्वनाथ धुमाळ, नवनाथ विश्वनाथ धुमाळ, पंखाबाई मोहन घाडगे, मुक्ताबाई मधुकर कवडे, लंकाबाई बाळू ढगे, यशोदाबाई विश्वनाथ  धुमाळ",
        "all_owners": [
          "आत्माराम विश्वनाथ धुमाळ, गुलाब विश्वनाथ धुमाळ, नवनाथ विश्वनाथ धुमाळ, पंखाबाई मोहन घाडगे, मुक्ताबाई मधुकर कवडे, लंकाबाई बाळू ढगे, यशोदाबाई विश्वनाथ  धुमाळ"
        ],
        "khata_no": "289",
        "area_sqm": 2044.5,
        "area_acres": 0.51,
        "area_guntha": 20.21,
        "land_type": "जिरायत शेती (Jirayat - Rainfed Agricultural)",
        "source": "MahaBhuNaksha Official Live Cadastre",
        "status": "verified",
        "confidence_score": 98.8,
        "old_survey_area_acres": 0.51,
        "old_survey_area_sqm": 2044.5,
        "new_survey_area_acres": 0.51,
        "new_survey_area_sqm": 2044.5
      },
      "geometry": {
        "type": "Polygon",
        "coordinates": [
          [
            [
              74.9704235,
              18.5023043
            ],
            [
              74.9704327,
              18.5021911
            ],
            [
              74.9704437,
              18.5020748
            ],
            [
              74.9696704,
              18.5021108
            ],
            [
              74.9696525,
              18.5023366
            ],
            [
              74.9704235,
              18.5023043
            ]
          ]
        ]
      }
    }
  ]
}