{
  "type": "FeatureCollection",
  "name": "Benwadi_Gat_344_Cadastre",
  "crs": {
    "type": "name",
    "properties": {
      "name": "urn:ogc:def:crs:OGC:1.3:CRS84"
    }
  },
  "features": [
    {
      "type": "Feature",
      "properties": {
        "parcel_id": "MH-AHM-KAR-BEN-344",
        "survey_no": "344",
        "gat_no": "344",
        "village": "Benwadi (बेनवडी)",
        "taluka": "Karjat (कर्जत)",
        "district": "Ahmednagar (अहमदनगर)",
        "state": "Maharashtra",
        "gis_code": "RVM2613272600130334420000",
        "owner_name": "अतुल नवनाथ गदादे, आदेश बाळू गदादे",
        "all_owners": [
          "अतुल नवनाथ गदादे",
          "आदेश बाळू गदादे",
          "बाळासाहेब उत्तम गदादे",
          "चेतन डायाभाई बोरा"
        ],
        "khata_no": "2732, 3015, 845, 957",
        "area_sqm": 43087.0,
        "area_acres": 10.65,
        "area_guntha": 425.89,
        "land_type": "जिरायत शेती (Jirayat - Rainfed Agricultural)",
        "source": "MahaBhuNaksha Official Live Cadastre",
        "status": "verified",
        "confidence_score": 98.8,
        "old_survey_area_acres": 10.65,
        "old_survey_area_sqm": 43087.0,
        "new_survey_area_acres": 10.65,
        "new_survey_area_sqm": 43087.0
      },
      "geometry": {
        "type": "Polygon",
        "coordinates": [
          [
            [
              74.9786197,
              18.504263
            ],
            [
              74.978643,
              18.5042493
            ],
            [
              74.9787333,
              18.5028156
            ],
            [
              74.9787614,
              18.5026984
            ],
            [
              74.977977,
              18.5029148
            ],
            [
              74.976033,
              18.5034392
            ],
            [
              74.9759143,
              18.5034916
            ],
            [
              74.976351,
              18.5041759
            ],
            [
              74.9767582,
              18.50484
            ],
            [
              74.9786197,
              18.504263
            ]
          ]
        ]
      }
    }
  ]
}