{
  "type": "FeatureCollection",
  "name": "Benwadi_Gat_27_Drone_Resurvey",
  "crs": {
    "type": "name",
    "properties": {
      "name": "urn:ogc:def:crs:OGC:1.3:CRS84"
    }
  },
  "features": [
    {
      "type": "Feature",
      "properties": {
        "parcel_id": "MH-AHM-KAR-BEN-27",
        "survey_no": "27",
        "gat_no": "27",
        "village": "Benwadi (बेनवडी)",
        "taluka": "Karjat (कर्जत)",
        "district": "Ahmednagar (अहमदनगर)",
        "state": "Maharashtra",
        "gis_code": "RVM2613272600130334420000",
        "owner_name": "रामदास धोंडिबा गदादे, विठठल साहेबराव राऊत",
        "all_owners": [
          "रामदास धोंडिबा गदादे",
          "विठठल साहेबराव राऊत",
          "नारायण साहेबराव राऊत",
          "आजिनाथ साहेबराव राऊत",
          "ज्ञानदेव दत्तू  राऊत, तुकाराम दत्तू राऊत, पांडुरंग प्रकाश राऊत"
        ],
        "khata_no": "821, 386, 750, 829, 3418",
        "area_sqm": 69343.58,
        "area_acres": 17.14,
        "area_guntha": 685.42,
        "land_type": "जिरायत शेती (Jirayat - Rainfed Agricultural)",
        "source": "MahaBhuNaksha Official Live Cadastre",
        "status": "needs_review",
        "confidence_score": 85.5,
        "old_survey_area_acres": 17.14,
        "old_survey_area_sqm": 69343.58,
        "new_survey_area_acres": 17.5,
        "new_survey_area_sqm": 70799.8,
        "area_diff_pct": 2.1,
        "mean_shift_m": 1.8,
        "iou_overlap_pct": 93.9,
        "review_reason": "Drone RTK photogrammetry detects a 2.1% area discrepancy (1456 m²) with a mean bund shift of 1.8m along the farm boundary. Verification recommended.",
        "bhunaksha_geometry": {
          "type": "Polygon",
          "coordinates": [
            [
              [
                74.9954891,
                18.4856425
              ],
              [
                74.9952714,
                18.4849557
              ],
              [
                74.9949047,
                18.4851221
              ],
              [
                74.9935179,
                18.4857706
              ],
              [
                74.9926591,
                18.4861609
              ],
              [
                74.9924901,
                18.4855717
              ],
              [
                74.991352,
                18.4862635
              ],
              [
                74.991767,
                18.4879804
              ],
              [
                74.9923186,
                18.4877589
              ],
              [
                74.9928931,
                18.4880426
              ],
              [
                74.9936666,
                18.4872649
              ],
              [
                74.9940239,
                18.4869091
              ],
              [
                74.9942546,
                18.4865085
              ],
              [
                74.9947343,
                18.4861801
              ],
              [
                74.9954891,
                18.4856425
              ]
            ]
          ]
        }
      },
      "geometry": {
        "type": "Polygon",
        "coordinates": [
          [
            [
              74.9955257,
              18.4856397
            ],
            [
              74.9953057,
              18.4849458
            ],
            [
              74.9949352,
              18.4851139
            ],
            [
              74.9935339,
              18.4857692
            ],
            [
              74.9926661,
              18.4861635
            ],
            [
              74.9924953,
              18.4855682
            ],
            [
              74.9913454,
              18.4862672
            ],
            [
              74.9917647,
              18.4880021
            ],
            [
              74.9923221,
              18.4877782
            ],
            [
              74.9929026,
              18.4880649
            ],
            [
              74.9936841,
              18.4872791
            ],
            [
              74.9940452,
              18.4869196
            ],
            [
              74.9942783,
              18.4865148
            ],
            [
              74.994763,
              18.4861829
            ],
            [
              74.9955257,
              18.4856397
            ]
          ]
        ]
      }
    }
  ]
}