{
  "type": "FeatureCollection",
  "name": "Benwadi_Gat_21_Drone_Resurvey",
  "crs": {
    "type": "name",
    "properties": {
      "name": "urn:ogc:def:crs:OGC:1.3:CRS84"
    }
  },
  "features": [
    {
      "type": "Feature",
      "properties": {
        "parcel_id": "MH-AHM-KAR-BEN-21",
        "survey_no": "21",
        "gat_no": "21",
        "village": "Benwadi (बेनवडी)",
        "taluka": "Karjat (कर्जत)",
        "district": "Ahmednagar (अहमदनगर)",
        "state": "Maharashtra",
        "gis_code": "RVM2613272600130334420000",
        "owner_name": "दत्तू भिमराव दवणे, मच्छिंद्र भिमराव दवणे, मालन अंकुश सातव, लताबाई सोपान सातव, लहू भिमराव दवणे, शालन शहाजी भोसले, अरुण रामभाऊ दवणे, अंकुश रामभाऊ दवणे, अंजना दिलीप बोरगे, गोरख रामभाऊ दवणे, चांगुणा चंदर होलम",
        "all_owners": [
          "दत्तू भिमराव दवणे, मच्छिंद्र भिमराव दवणे, मालन अंकुश सातव, लताबाई सोपान सातव, लहू भिमराव दवणे, शालन शहाजी भोसले",
          "अरुण रामभाऊ दवणे, अंकुश रामभाऊ दवणे, अंजना दिलीप बोरगे, गोरख रामभाऊ दवणे, चांगुणा चंदर होलम",
          "हनूमंत माणिक गायकवाड",
          "लहु भिमराव दवणे",
          "गोरख रामभाऊ दवणे"
        ],
        "khata_no": "210, 272, 365, 923, 970",
        "area_sqm": 9714.66,
        "area_acres": 2.4,
        "area_guntha": 96.02,
        "land_type": "जिरायत शेती (Jirayat - Rainfed Agricultural)",
        "source": "MahaBhuNaksha Official Live Cadastre",
        "status": "needs_review",
        "confidence_score": 84.8,
        "old_survey_area_acres": 2.4,
        "old_survey_area_sqm": 9714.66,
        "new_survey_area_acres": 2.46,
        "new_survey_area_sqm": 9977.0,
        "area_diff_pct": 2.7,
        "mean_shift_m": 2.0,
        "iou_overlap_pct": 93.3,
        "review_reason": "Drone RTK photogrammetry detects a 2.7% area discrepancy (262 m²) with a mean bund shift of 2.0m along the farm boundary. Verification recommended.",
        "bhunaksha_geometry": {
          "type": "Polygon",
          "coordinates": [
            [
              [
                74.9878608,
                18.4893172
              ],
              [
                74.9878084,
                18.4891734
              ],
              [
                74.9876145,
                18.488629
              ],
              [
                74.9868331,
                18.4891873
              ],
              [
                74.9868809,
                18.4892743
              ],
              [
                74.9871632,
                18.4900046
              ],
              [
                74.9875816,
                18.4898821
              ],
              [
                74.9878608,
                18.4893172
              ]
            ]
          ]
        }
      },
      "geometry": {
        "type": "Polygon",
        "coordinates": [
          [
            [
              74.987853,
              18.4893047
            ],
            [
              74.9877999,
              18.489159
            ],
            [
              74.9876034,
              18.4886073
            ],
            [
              74.9868115,
              18.489173
            ],
            [
              74.9868599,
              18.4892612
            ],
            [
              74.987146,
              18.4900013
            ],
            [
              74.98757,
              18.4898772
            ],
            [
              74.987853,
              18.4893047
            ]
          ]
        ]
      }
    }
  ]
}