{
  "type": "FeatureCollection",
  "name": "Benwadi_Gat_188_Drone_Resurvey",
  "crs": {
    "type": "name",
    "properties": {
      "name": "urn:ogc:def:crs:OGC:1.3:CRS84"
    }
  },
  "features": [
    {
      "type": "Feature",
      "properties": {
        "parcel_id": "MH-AHM-KAR-BEN-188",
        "survey_no": "188",
        "gat_no": "188",
        "village": "Benwadi (बेनवडी)",
        "taluka": "Karjat (कर्जत)",
        "district": "Ahmednagar (अहमदनगर)",
        "state": "Maharashtra",
        "gis_code": "RVM2613272600130334420000",
        "owner_name": "अर्जुन रामभाऊ गदादे, अशोक महादेव गदादे, नर्मदा देविदास गदादे, पंढरीनाथ राणू, बाबासों कुंडलिक, भिमराव रामभाऊ गदादे, मनिषा रमेश राऊत, महादेव गोरख गदादे, मारुती रामभाऊ गदादे, रामदास गुलाब गदादे, शोभा पोपट जगताप, श्रीराम आप्पा, संतोष गोरख गदादे, संतोष देविदास गदादे, सरूबाई महादेव गदादे, सविता मच्छिंद्र शिंदे, सुरेखा विकास रासकर, सोनाली दत्तात्रय अनारसे, सोमनाथ रामभाऊ गदादे, विठोबा बाबाजी",
        "all_owners": [
          "अर्जुन रामभाऊ गदादे, अशोक महादेव गदादे, नर्मदा देविदास गदादे, पंढरीनाथ राणू, बाबासों कुंडलिक, भिमराव रामभाऊ गदादे, मनिषा रमेश राऊत, महादेव गोरख गदादे, मारुती रामभाऊ गदादे, रामदास गुलाब गदादे, शोभा पोपट जगताप, श्रीराम आप्पा, संतोष गोरख गदादे, संतोष देविदास गदादे, सरूबाई महादेव गदादे, सविता मच्छिंद्र शिंदे, सुरेखा विकास रासकर, सोनाली दत्तात्रय अनारसे, सोमनाथ रामभाऊ गदादे, विठोबा बाबाजी"
        ],
        "khata_no": "2753",
        "area_sqm": 2517.67,
        "area_acres": 0.62,
        "area_guntha": 24.89,
        "land_type": "जिरायत शेती (Jirayat - Rainfed Agricultural)",
        "source": "MahaBhuNaksha Official Live Cadastre",
        "status": "needs_review",
        "confidence_score": 84.4,
        "old_survey_area_acres": 0.62,
        "old_survey_area_sqm": 2517.67,
        "new_survey_area_acres": 0.64,
        "new_survey_area_sqm": 2593.2,
        "area_diff_pct": 3.0,
        "mean_shift_m": 2.1,
        "iou_overlap_pct": 93.0,
        "review_reason": "Drone RTK photogrammetry detects a 3.0% area discrepancy (76 m²) with a mean bund shift of 2.1m along the farm boundary. Verification recommended.",
        "bhunaksha_geometry": {
          "type": "Polygon",
          "coordinates": [
            [
              [
                74.9614631,
                18.4834828
              ],
              [
                74.9616457,
                18.4833593
              ],
              [
                74.9610678,
                18.4826001
              ],
              [
                74.9609143,
                18.4826701
              ],
              [
                74.9613949,
                18.4834874
              ],
              [
                74.9614631,
                18.4834828
              ]
            ]
          ]
        }
      },
      "geometry": {
        "type": "Polygon",
        "coordinates": [
          [
            [
              74.9614801,
              18.4835011
            ],
            [
              74.9616655,
              18.4833758
            ],
            [
              74.961079,
              18.4826052
            ],
            [
              74.9609232,
              18.4826763
            ],
            [
              74.9614109,
              18.4835058
            ],
            [
              74.9614801,
              18.4835011
            ]
          ]
        ]
      }
    }
  ]
}