{
  "type": "FeatureCollection",
  "name": "Benwadi_Gat_255_Cadastre",
  "crs": {
    "type": "name",
    "properties": {
      "name": "urn:ogc:def:crs:OGC:1.3:CRS84"
    }
  },
  "features": [
    {
      "type": "Feature",
      "properties": {
        "parcel_id": "MH-AHM-KAR-BEN-255",
        "survey_no": "255",
        "gat_no": "255",
        "village": "Benwadi (बेनवडी)",
        "taluka": "Karjat (कर्जत)",
        "district": "Ahmednagar (अहमदनगर)",
        "state": "Maharashtra",
        "gis_code": "RVM2613272600130334420000",
        "owner_name": "दत्तू रामदास गायकवाड, प्रफुल्ल दत्तात्रय गायकवाड",
        "all_owners": [
          "दत्तू रामदास गायकवाड",
          "प्रफुल्ल दत्तात्रय गायकवाड"
        ],
        "khata_no": "578, 3090",
        "area_sqm": 19511.86,
        "area_acres": 4.82,
        "area_guntha": 192.86,
        "land_type": "जिरायत शेती (Jirayat - Rainfed Agricultural)",
        "source": "MahaBhuNaksha Official Live Cadastre",
        "status": "verified",
        "confidence_score": 98.8,
        "old_survey_area_acres": 4.82,
        "old_survey_area_sqm": 19511.86,
        "new_survey_area_acres": 4.82,
        "new_survey_area_sqm": 19511.86
      },
      "geometry": {
        "type": "Polygon",
        "coordinates": [
          [
            [
              74.9701761,
              18.4989858
            ],
            [
              74.9696778,
              18.4980117
            ],
            [
              74.9688409,
              18.4984073
            ],
            [
              74.9688841,
              18.498699
            ],
            [
              74.9685985,
              18.4987727
            ],
            [
              74.9685604,
              18.4985534
            ],
            [
              74.9680563,
              18.4987934
            ],
            [
              74.9682642,
              18.4995289
            ],
            [
              74.9701761,
              18.4989858
            ]
          ]
        ]
      }
    }
  ]
}