{
  "type": "FeatureCollection",
  "name": "Benwadi_Gat_340_Cadastre",
  "crs": {
    "type": "name",
    "properties": {
      "name": "urn:ogc:def:crs:OGC:1.3:CRS84"
    }
  },
  "features": [
    {
      "type": "Feature",
      "properties": {
        "parcel_id": "MH-AHM-KAR-BEN-340",
        "survey_no": "340",
        "gat_no": "340",
        "village": "Benwadi (बेनवडी)",
        "taluka": "Karjat (कर्जत)",
        "district": "Ahmednagar (अहमदनगर)",
        "state": "Maharashtra",
        "gis_code": "RVM2613272600130334420000",
        "owner_name": "अनिल नवनाथ गदादे, शशिकला हरिश्चंद्र धुमाळ",
        "all_owners": [
          "अनिल नवनाथ गदादे",
          "शशिकला हरिश्चंद्र धुमाळ",
          "शरद संपत धुमाळ, शाम भाऊसाहेब धुमाळ",
          "बाळासाहेब उत्तम गदादे",
          "सुनिल ऊत्तम गदादे",
          "संजय माणिक जाधव",
          "योगेश आबासाहेब शिंदे, उमेश आबासाहेब शिंदे",
          "सायली अर्जुन  धुमाळ"
        ],
        "khata_no": "2932, 3329, 3353, 845, 2434, 2965, 3315, 3434",
        "area_sqm": 24712.34,
        "area_acres": 6.11,
        "area_guntha": 244.27,
        "land_type": "जिरायत शेती (Jirayat - Rainfed Agricultural)",
        "source": "MahaBhuNaksha Official Live Cadastre",
        "status": "verified",
        "confidence_score": 98.8,
        "old_survey_area_acres": 6.11,
        "old_survey_area_sqm": 24712.34,
        "new_survey_area_acres": 6.11,
        "new_survey_area_sqm": 24712.34
      },
      "geometry": {
        "type": "Polygon",
        "coordinates": [
          [
            [
              74.9756783,
              18.5035179
            ],
            [
              74.9754643,
              18.5031829
            ],
            [
              74.9752985,
              18.5028999
            ],
            [
              74.9750446,
              18.5025437
            ],
            [
              74.9748273,
              18.5022389
            ],
            [
              74.9744009,
              18.5016381
            ],
            [
              74.973915,
              18.501742
            ],
            [
              74.9742564,
              18.5022271
            ],
            [
              74.9748054,
              18.5030308
            ],
            [
              74.9757084,
              18.5043345
            ],
            [
              74.976325,
              18.5052302
            ],
            [
              74.9771943,
              18.5064938
            ],
            [
              74.9770525,
              18.5060608
            ],
            [
              74.9767017,
              18.5051137
            ],
            [
              74.9766193,
              18.5050345
            ],
            [
              74.9761497,
              18.5042674
            ],
            [
              74.9760831,
              18.5041949
            ],
            [
              74.9756783,
              18.5035179
            ]
          ]
        ]
      }
    }
  ]
}