{
  "type": "FeatureCollection",
  "name": "Benwadi_Gat_424_Cadastre",
  "crs": {
    "type": "name",
    "properties": {
      "name": "urn:ogc:def:crs:OGC:1.3:CRS84"
    }
  },
  "features": [
    {
      "type": "Feature",
      "properties": {
        "parcel_id": "MH-AHM-KAR-BEN-424",
        "survey_no": "424",
        "gat_no": "424",
        "village": "Benwadi (बेनवडी)",
        "taluka": "Karjat (कर्जत)",
        "district": "Ahmednagar (अहमदनगर)",
        "state": "Maharashtra",
        "gis_code": "RVM2613272600130334420000",
        "owner_name": "महाराष्ट्र राज्याचे मा.राज्यपाल यांचे वतीने जलसंपदा विभाग महाराष्ट्र शासनाचे प्राधिकृत प्रतिनिधी – कार्यकारी अभियंता, कुकडी वितरण विभाग कोळवडी, ता.कर्जत यांचे कबुलीजबाबासाठी कुलमखत्यार म्हणून- कनिष्ठ लिपिक कुकडी वितरण बांधकाम विभाग कोळवडी ता कर्जत – काेळवडी ता. कर्जत यांचे कबुलीजबाबासाठी कुलमुखत्यार म्हणून - कनिष्ठ लिपिक कुकडी वितरण बांधकाम विभाग काेळवडी ता. कर्जत - - -, प्रसाद कांतीलाल शहा",
        "all_owners": [
          "महाराष्ट्र राज्याचे मा.राज्यपाल यांचे वतीने जलसंपदा विभाग महाराष्ट्र शासनाचे प्राधिकृत प्रतिनिधी – कार्यकारी अभियंता, कुकडी वितरण विभाग कोळवडी, ता.कर्जत यांचे कबुलीजबाबासाठी कुलमखत्यार म्हणून- कनिष्ठ लिपिक कुकडी वितरण बांधकाम विभाग कोळवडी ता कर्जत – काेळवडी ता. कर्जत यांचे कबुलीजबाबासाठी कुलमुखत्यार म्हणून - कनिष्ठ लिपिक कुकडी वितरण बांधकाम विभाग काेळवडी ता. कर्जत - - -",
          "प्रसाद कांतीलाल शहा",
          "सिंधुबाई सुरेश बिबे",
          "शिवाजी गोरख धुमाळ, मच्छिंद्र भिमराव दवणे"
        ],
        "khata_no": "3127, 3189, 3217, 3259",
        "area_sqm": 32519.12,
        "area_acres": 8.04,
        "area_guntha": 321.43,
        "land_type": "जिरायत शेती (Jirayat - Rainfed Agricultural)",
        "source": "MahaBhuNaksha Official Live Cadastre",
        "status": "verified",
        "confidence_score": 98.8,
        "old_survey_area_acres": 8.04,
        "old_survey_area_sqm": 32519.12,
        "new_survey_area_acres": 8.04,
        "new_survey_area_sqm": 32519.12
      },
      "geometry": {
        "type": "Polygon",
        "coordinates": [
          [
            [
              74.9970254,
              18.4870464
            ],
            [
              74.9962936,
              18.4855746
            ],
            [
              74.9959319,
              18.4856359
            ],
            [
              74.9953972,
              18.4860236
            ],
            [
              74.9949891,
              18.4863097
            ],
            [
              74.9953918,
              18.4877867
            ],
            [
              74.9954245,
              18.4879058
            ],
            [
              74.9970254,
              18.4870464
            ]
          ]
        ]
      }
    }
  ]
}