{
  "type": "FeatureCollection",
  "name": "Benwadi_Gat_432_Cadastre",
  "crs": {
    "type": "name",
    "properties": {
      "name": "urn:ogc:def:crs:OGC:1.3:CRS84"
    }
  },
  "features": [
    {
      "type": "Feature",
      "properties": {
        "parcel_id": "MH-AHM-KAR-BEN-432",
        "survey_no": "432",
        "gat_no": "432",
        "village": "Benwadi (बेनवडी)",
        "taluka": "Karjat (कर्जत)",
        "district": "Ahmednagar (अहमदनगर)",
        "state": "Maharashtra",
        "gis_code": "RVM2613272600130334420000",
        "owner_name": "उध्दव पांडूरंग दवणे, कैलास पांडूरंग दवणे",
        "all_owners": [
          "उध्दव पांडूरंग दवणे",
          "कैलास पांडूरंग दवणे"
        ],
        "khata_no": "712, 713",
        "area_sqm": 25240.57,
        "area_acres": 6.24,
        "area_guntha": 249.49,
        "land_type": "जिरायत शेती (Jirayat - Rainfed Agricultural)",
        "source": "MahaBhuNaksha Official Live Cadastre",
        "status": "verified",
        "confidence_score": 98.8,
        "old_survey_area_acres": 6.24,
        "old_survey_area_sqm": 25240.57,
        "new_survey_area_acres": 6.24,
        "new_survey_area_sqm": 25240.57
      },
      "geometry": {
        "type": "Polygon",
        "coordinates": [
          [
            [
              74.9922358,
              18.4922231
            ],
            [
              74.9920656,
              18.4910203
            ],
            [
              74.990539,
              18.4911779
            ],
            [
              74.9905616,
              18.4913281
            ],
            [
              74.9907461,
              18.4924867
            ],
            [
              74.9908091,
              18.4927797
            ],
            [
              74.9922358,
              18.4922231
            ]
          ]
        ]
      }
    }
  ]
}