{
  "type": "FeatureCollection",
  "name": "Benwadi_Gat_195_Cadastre",
  "crs": {
    "type": "name",
    "properties": {
      "name": "urn:ogc:def:crs:OGC:1.3:CRS84"
    }
  },
  "features": [
    {
      "type": "Feature",
      "properties": {
        "parcel_id": "MH-AHM-KAR-BEN-195",
        "survey_no": "195",
        "gat_no": "195",
        "village": "Benwadi (बेनवडी)",
        "taluka": "Karjat (कर्जत)",
        "district": "Ahmednagar (अहमदनगर)",
        "state": "Maharashtra",
        "gis_code": "RVM2613272600130334420000",
        "owner_name": "माणिक विठोबा गदादे",
        "all_owners": [
          "माणिक विठोबा गदादे"
        ],
        "khata_no": "237",
        "area_sqm": 786.87,
        "area_acres": 0.19,
        "area_guntha": 7.78,
        "land_type": "जिरायत शेती (Jirayat - Rainfed Agricultural)",
        "source": "MahaBhuNaksha Official Live Cadastre",
        "status": "verified",
        "confidence_score": 98.8,
        "old_survey_area_acres": 0.19,
        "old_survey_area_sqm": 786.87,
        "new_survey_area_acres": 0.19,
        "new_survey_area_sqm": 786.87
      },
      "geometry": {
        "type": "Polygon",
        "coordinates": [
          [
            [
              74.9607686,
              18.4829525
            ],
            [
              74.9606677,
              18.4827955
            ],
            [
              74.9603401,
              18.4829688
            ],
            [
              74.9604154,
              18.4831194
            ],
            [
              74.9607686,
              18.4829525
            ]
          ]
        ]
      }
    }
  ]
}