{
  "type": "FeatureCollection",
  "name": "Benwadi_Gat_84_Drone_Resurvey",
  "crs": {
    "type": "name",
    "properties": {
      "name": "urn:ogc:def:crs:OGC:1.3:CRS84"
    }
  },
  "features": [
    {
      "type": "Feature",
      "properties": {
        "parcel_id": "MH-AHM-KAR-BEN-84",
        "survey_no": "84",
        "gat_no": "84",
        "village": "Benwadi (बेनवडी)",
        "taluka": "Karjat (कर्जत)",
        "district": "Ahmednagar (अहमदनगर)",
        "state": "Maharashtra",
        "gis_code": "RVM2613272600130334420000",
        "owner_name": "मच्छिंद्र साहेबराव खुडे",
        "all_owners": [
          "मच्छिंद्र साहेबराव खुडे"
        ],
        "khata_no": "747",
        "area_sqm": 3873.99,
        "area_acres": 0.96,
        "area_guntha": 38.29,
        "land_type": "जिरायत शेती (Jirayat - Rainfed Agricultural)",
        "source": "MahaBhuNaksha Official Live Cadastre",
        "status": "needs_review",
        "confidence_score": 85.1,
        "old_survey_area_acres": 0.96,
        "old_survey_area_sqm": 3873.99,
        "new_survey_area_acres": 0.98,
        "new_survey_area_sqm": 3967.0,
        "area_diff_pct": 2.4,
        "mean_shift_m": 1.7,
        "iou_overlap_pct": 93.6,
        "review_reason": "Drone RTK photogrammetry detects a 2.4% area discrepancy (93 m²) with a mean bund shift of 1.7m along the farm boundary. Verification recommended.",
        "bhunaksha_geometry": {
          "type": "Polygon",
          "coordinates": [
            [
              [
                74.9786296,
                18.4898347
              ],
              [
                74.9785677,
                18.4896607
              ],
              [
                74.9785162,
                18.4895105
              ],
              [
                74.9784618,
                18.4893458
              ],
              [
                74.9783628,
                18.4893769
              ],
              [
                74.9779519,
                18.4895074
              ],
              [
                74.9776966,
                18.4895845
              ],
              [
                74.9777799,
                18.4897928
              ],
              [
                74.9777929,
                18.4898159
              ],
              [
                74.9778046,
                18.4897289
              ],
              [
                74.9778097,
                18.4896992
              ],
              [
                74.9778979,
                18.4898999
              ],
              [
                74.9782315,
                18.4898739
              ],
              [
                74.9786071,
                18.4898431
              ],
              [
                74.9786296,
                18.4898347
              ]
            ]
          ]
        }
      },
      "geometry": {
        "type": "Polygon",
        "coordinates": [
          [
            [
              74.9786295,
              18.4898509
            ],
            [
              74.9785669,
              18.4896748
            ],
            [
              74.9785148,
              18.4895228
            ],
            [
              74.9784597,
              18.4893561
            ],
            [
              74.9783595,
              18.4893876
            ],
            [
              74.9779437,
              18.4895197
            ],
            [
              74.9776854,
              18.4895977
            ],
            [
              74.9777697,
              18.4898085
            ],
            [
              74.9777829,
              18.4898318
            ],
            [
              74.9777947,
              18.4897438
            ],
            [
              74.9777999,
              18.4897137
            ],
            [
              74.9778891,
              18.4899168
            ],
            [
              74.9782267,
              18.4898905
            ],
            [
              74.9786068,
              18.4898594
            ],
            [
              74.9786295,
              18.4898509
            ]
          ]
        ]
      }
    }
  ]
}