{
  "type": "FeatureCollection",
  "name": "Benwadi_Gat_406_Cadastre",
  "crs": {
    "type": "name",
    "properties": {
      "name": "urn:ogc:def:crs:OGC:1.3:CRS84"
    }
  },
  "features": [
    {
      "type": "Feature",
      "properties": {
        "parcel_id": "MH-AHM-KAR-BEN-406",
        "survey_no": "406",
        "gat_no": "406",
        "village": "Benwadi (बेनवडी)",
        "taluka": "Karjat (कर्जत)",
        "district": "Ahmednagar (अहमदनगर)",
        "state": "Maharashtra",
        "gis_code": "RVM2613272600130334420000",
        "owner_name": "अतिश नजीर सय्यद, हबीब बाबुभाई सय्यद",
        "all_owners": [
          "अतिश नजीर सय्यद",
          "हबीब बाबुभाई सय्यद"
        ],
        "khata_no": "2944, 456",
        "area_sqm": 7591.51,
        "area_acres": 1.88,
        "area_guntha": 75.04,
        "land_type": "जिरायत शेती (Jirayat - Rainfed Agricultural)",
        "source": "MahaBhuNaksha Official Live Cadastre",
        "status": "verified",
        "confidence_score": 98.8,
        "old_survey_area_acres": 1.88,
        "old_survey_area_sqm": 7591.51,
        "new_survey_area_acres": 1.88,
        "new_survey_area_sqm": 7591.51
      },
      "geometry": {
        "type": "Polygon",
        "coordinates": [
          [
            [
              74.9633161,
              18.4822498
            ],
            [
              74.9625851,
              18.4824466
            ],
            [
              74.9621502,
              18.4825654
            ],
            [
              74.9621675,
              18.4828311
            ],
            [
              74.9622309,
              18.48283
            ],
            [
              74.9627048,
              18.4828497
            ],
            [
              74.9634023,
              18.4828756
            ],
            [
              74.9637499,
              18.4828804
            ],
            [
              74.9633161,
              18.4822498
            ]
          ]
        ]
      }
    }
  ]
}