{
  "type": "FeatureCollection",
  "name": "Benwadi_Gat_207_Cadastre",
  "crs": {
    "type": "name",
    "properties": {
      "name": "urn:ogc:def:crs:OGC:1.3:CRS84"
    }
  },
  "features": [
    {
      "type": "Feature",
      "properties": {
        "parcel_id": "MH-AHM-KAR-BEN-207",
        "survey_no": "207",
        "gat_no": "207",
        "village": "Benwadi (बेनवडी)",
        "taluka": "Karjat (कर्जत)",
        "district": "Ahmednagar (अहमदनगर)",
        "state": "Maharashtra",
        "gis_code": "RVM2613272600130334420000",
        "owner_name": "शिवाजी विठोबा गदादे",
        "all_owners": [
          "शिवाजी विठोबा गदादे"
        ],
        "khata_no": "319",
        "area_sqm": 6692.68,
        "area_acres": 1.65,
        "area_guntha": 66.15,
        "land_type": "जिरायत शेती (Jirayat - Rainfed Agricultural)",
        "source": "MahaBhuNaksha Official Live Cadastre",
        "status": "verified",
        "confidence_score": 98.8,
        "old_survey_area_acres": 1.65,
        "old_survey_area_sqm": 6692.68,
        "new_survey_area_acres": 1.65,
        "new_survey_area_sqm": 6692.68
      },
      "geometry": {
        "type": "Polygon",
        "coordinates": [
          [
            [
              74.9586526,
              18.4842441
            ],
            [
              74.9582192,
              18.4825959
            ],
            [
              74.9578765,
              18.4826967
            ],
            [
              74.958347,
              18.4843273
            ],
            [
              74.9586526,
              18.4842441
            ]
          ]
        ]
      }
    }
  ]
}