{
  "type": "FeatureCollection",
  "name": "Benwadi_Gat_78_Cadastre",
  "crs": {
    "type": "name",
    "properties": {
      "name": "urn:ogc:def:crs:OGC:1.3:CRS84"
    }
  },
  "features": [
    {
      "type": "Feature",
      "properties": {
        "parcel_id": "MH-AHM-KAR-BEN-78",
        "survey_no": "78",
        "gat_no": "78",
        "village": "Benwadi (बेनवडी)",
        "taluka": "Karjat (कर्जत)",
        "district": "Ahmednagar (अहमदनगर)",
        "state": "Maharashtra",
        "gis_code": "RVM2613272600130334420000",
        "owner_name": "धोंडिबा विठठल खूडे",
        "all_owners": [
          "धोंडिबा विठठल खूडे"
        ],
        "khata_no": "854",
        "area_sqm": 1678.52,
        "area_acres": 0.41,
        "area_guntha": 16.59,
        "land_type": "जिरायत शेती (Jirayat - Rainfed Agricultural)",
        "source": "MahaBhuNaksha Official Live Cadastre",
        "status": "verified",
        "confidence_score": 98.8,
        "old_survey_area_acres": 0.41,
        "old_survey_area_sqm": 1678.52,
        "new_survey_area_acres": 0.41,
        "new_survey_area_sqm": 1678.52
      },
      "geometry": {
        "type": "Polygon",
        "coordinates": [
          [
            [
              74.9776707,
              18.4898999
            ],
            [
              74.9775671,
              18.4896831
            ],
            [
              74.9774391,
              18.4894083
            ],
            [
              74.977212,
              18.48952
            ],
            [
              74.9774323,
              18.4900307
            ],
            [
              74.9776707,
              18.4898999
            ]
          ]
        ]
      }
    }
  ]
}