{
  "type": "FeatureCollection",
  "name": "Benwadi_Gat_202_Cadastre",
  "crs": {
    "type": "name",
    "properties": {
      "name": "urn:ogc:def:crs:OGC:1.3:CRS84"
    }
  },
  "features": [
    {
      "type": "Feature",
      "properties": {
        "parcel_id": "MH-AHM-KAR-BEN-202",
        "survey_no": "202",
        "gat_no": "202",
        "village": "Benwadi (बेनवडी)",
        "taluka": "Karjat (कर्जत)",
        "district": "Ahmednagar (अहमदनगर)",
        "state": "Maharashtra",
        "gis_code": "RVM2613272600130334420000",
        "owner_name": "मारूती रंगनाथ गदादे, कलावती सुदाम वाळुंजकर, चंदा चंदु देशमूख, छाया भिमराव पवार, ताई चंदु देशमूख, पद्मिनी बाजीराव देशमूख, मंदा धनु देशमूख, राजु चंदु देशमूख, लता चंदु देशमूख, सुनिल बाजीराव देशमूख, दादा बाजीराव देशमूख",
        "all_owners": [
          "मारूती रंगनाथ गदादे",
          "कलावती सुदाम वाळुंजकर, चंदा चंदु देशमूख, छाया भिमराव पवार, ताई चंदु देशमूख, पद्मिनी बाजीराव देशमूख, मंदा धनु देशमूख, राजु चंदु देशमूख, लता चंदु देशमूख, सुनिल बाजीराव देशमूख, दादा बाजीराव देशमूख"
        ],
        "khata_no": "2482, 2398",
        "area_sqm": 3966.17,
        "area_acres": 0.98,
        "area_guntha": 39.2,
        "land_type": "जिरायत शेती (Jirayat - Rainfed Agricultural)",
        "source": "MahaBhuNaksha Official Live Cadastre",
        "status": "verified",
        "confidence_score": 98.8,
        "old_survey_area_acres": 0.98,
        "old_survey_area_sqm": 3966.17,
        "new_survey_area_acres": 0.98,
        "new_survey_area_sqm": 3966.17
      },
      "geometry": {
        "type": "Polygon",
        "coordinates": [
          [
            [
              74.9598439,
              18.4840509
            ],
            [
              74.9595391,
              18.4825726
            ],
            [
              74.9593346,
              18.4826122
            ],
            [
              74.9596044,
              18.4840903
            ],
            [
              74.9598439,
              18.4840509
            ]
          ]
        ]
      }
    }
  ]
}