{
  "type": "FeatureCollection",
  "name": "Benwadi_Gat_407_Drone_Resurvey",
  "crs": {
    "type": "name",
    "properties": {
      "name": "urn:ogc:def:crs:OGC:1.3:CRS84"
    }
  },
  "features": [
    {
      "type": "Feature",
      "properties": {
        "parcel_id": "MH-AHM-KAR-BEN-407",
        "survey_no": "407",
        "gat_no": "407",
        "village": "Benwadi (बेनवडी)",
        "taluka": "Karjat (कर्जत)",
        "district": "Ahmednagar (अहमदनगर)",
        "state": "Maharashtra",
        "gis_code": "RVM2613272600130334420000",
        "owner_name": "विष्णू बाळासाहेब जमदाडे, छगन  संभाजी  गदादे",
        "all_owners": [
          "विष्णू बाळासाहेब जमदाडे",
          "छगन  संभाजी  गदादे",
          "विश्वजित सिध्येश्वर गदादे, सत्यजित सिध्येश्वर गदादे, रंजना गोरख गदादे, गीता सिध्येश्वर गदादे",
          "शारदा दत्तू दवणे",
          "रंजना गोरख गदादे",
          "साहेबराव शिवराम खराडे",
          "धनाबाई बाळू जमदाडे",
          "आशाबाई भाऊसाहेब डमरे",
          "संतोष श्रीरंग गदादे, कावेरी श्रीरंग गदादे, रुक्मिणी श्रीरंग गदादे, युवराज श्रीरंग गदादे"
        ],
        "khata_no": "2279, 2579, 2643, 3215, 3323, 643, 746, 862, 904",
        "area_sqm": 99739.73,
        "area_acres": 24.65,
        "area_guntha": 985.86,
        "land_type": "जिरायत शेती (Jirayat - Rainfed Agricultural)",
        "source": "MahaBhuNaksha Official Live Cadastre",
        "status": "needs_review",
        "confidence_score": 85.5,
        "old_survey_area_acres": 24.65,
        "old_survey_area_sqm": 99739.73,
        "new_survey_area_acres": 25.17,
        "new_survey_area_sqm": 101834.3,
        "area_diff_pct": 2.1,
        "mean_shift_m": 1.4,
        "iou_overlap_pct": 93.9,
        "review_reason": "Drone RTK photogrammetry detects a 2.1% area discrepancy (2095 m²) with a mean bund shift of 1.4m along the farm boundary. Verification recommended.",
        "bhunaksha_geometry": {
          "type": "Polygon",
          "coordinates": [
            [
              [
                75.0021951,
                18.5015036
              ],
              [
                75.0021706,
                18.5014143
              ],
              [
                75.0018444,
                18.4998799
              ],
              [
                75.001579,
                18.4986054
              ],
              [
                74.9996413,
                18.4989598
              ],
              [
                74.9995265,
                18.4989918
              ],
              [
                74.9988211,
                18.4991501
              ],
              [
                74.9991495,
                18.4999974
              ],
              [
                74.9998223,
                18.5018107
              ],
              [
                75.0000593,
                18.5024464
              ],
              [
                75.000136,
                18.5026521
              ],
              [
                75.0002602,
                18.5025826
              ],
              [
                75.0007887,
                18.5022867
              ],
              [
                75.0021201,
                18.5015572
              ],
              [
                75.0021951,
                18.5015036
              ]
            ]
          ]
        }
      },
      "geometry": {
        "type": "Polygon",
        "coordinates": [
          [
            [
              75.0022222,
              18.5015186
            ],
            [
              75.0021974,
              18.5014283
            ],
            [
              75.0018678,
              18.4998779
            ],
            [
              75.0015996,
              18.4985901
            ],
            [
              74.9996417,
              18.4989482
            ],
            [
              74.9995257,
              18.4989805
            ],
            [
              74.9988129,
              18.4991405
            ],
            [
              74.9991447,
              18.4999966
            ],
            [
              74.9998246,
              18.5018289
            ],
            [
              75.000064,
              18.5024712
            ],
            [
              75.0001415,
              18.5026791
            ],
            [
              75.000267,
              18.5026088
            ],
            [
              75.0008011,
              18.5023099
            ],
            [
              75.0021464,
              18.5015727
            ],
            [
              75.0022222,
              18.5015186
            ]
          ]
        ]
      }
    }
  ]
}