{
  "type": "FeatureCollection",
  "name": "Benwadi_Gat_217_Drone_Resurvey",
  "crs": {
    "type": "name",
    "properties": {
      "name": "urn:ogc:def:crs:OGC:1.3:CRS84"
    }
  },
  "features": [
    {
      "type": "Feature",
      "properties": {
        "parcel_id": "MH-AHM-KAR-BEN-217",
        "survey_no": "217",
        "gat_no": "217",
        "village": "Benwadi (बेनवडी)",
        "taluka": "Karjat (कर्जत)",
        "district": "Ahmednagar (अहमदनगर)",
        "state": "Maharashtra",
        "gis_code": "RVM2613272600130334420000",
        "owner_name": "शिवाजी नारायण देशमूख",
        "all_owners": [
          "शिवाजी नारायण देशमूख"
        ],
        "khata_no": "657",
        "area_sqm": 3588.19,
        "area_acres": 0.89,
        "area_guntha": 35.47,
        "land_type": "जिरायत शेती (Jirayat - Rainfed Agricultural)",
        "source": "MahaBhuNaksha Official Live Cadastre",
        "status": "needs_review",
        "confidence_score": 85.5,
        "old_survey_area_acres": 0.89,
        "old_survey_area_sqm": 3588.19,
        "new_survey_area_acres": 0.91,
        "new_survey_area_sqm": 3663.5,
        "area_diff_pct": 2.1,
        "mean_shift_m": 2.0,
        "iou_overlap_pct": 93.9,
        "review_reason": "Drone RTK photogrammetry detects a 2.1% area discrepancy (75 m²) with a mean bund shift of 2.0m along the farm boundary. Verification recommended.",
        "bhunaksha_geometry": {
          "type": "Polygon",
          "coordinates": [
            [
              [
                74.9557852,
                18.4883246
              ],
              [
                74.9556441,
                18.4872047
              ],
              [
                74.9554076,
                18.4873066
              ],
              [
                74.9554968,
                18.4884347
              ],
              [
                74.9557852,
                18.4883246
              ]
            ]
          ]
        }
      },
      "geometry": {
        "type": "Polygon",
        "coordinates": [
          [
            [
              74.9558037,
              18.4883389
            ],
            [
              74.9556612,
              18.4872073
            ],
            [
              74.9554222,
              18.4873103
            ],
            [
              74.9555123,
              18.4884501
            ],
            [
              74.9558037,
              18.4883389
            ]
          ]
        ]
      }
    }
  ]
}