{
  "type": "FeatureCollection",
  "name": "Benwadi_Gat_298_Cadastre",
  "crs": {
    "type": "name",
    "properties": {
      "name": "urn:ogc:def:crs:OGC:1.3:CRS84"
    }
  },
  "features": [
    {
      "type": "Feature",
      "properties": {
        "parcel_id": "MH-AHM-KAR-BEN-298",
        "survey_no": "298",
        "gat_no": "298",
        "village": "Benwadi (बेनवडी)",
        "taluka": "Karjat (कर्जत)",
        "district": "Ahmednagar (अहमदनगर)",
        "state": "Maharashtra",
        "gis_code": "RVM2613272600130334420000",
        "owner_name": "आशाबाई श्रीचंद धुमाळ, भाऊसाहेब हरीचंद्र धूमाळ",
        "all_owners": [
          "आशाबाई श्रीचंद धुमाळ",
          "भाऊसाहेब हरीचंद्र धूमाळ"
        ],
        "khata_no": "2270, 959",
        "area_sqm": 6957.24,
        "area_acres": 1.72,
        "area_guntha": 68.77,
        "land_type": "जिरायत शेती (Jirayat - Rainfed Agricultural)",
        "source": "MahaBhuNaksha Official Live Cadastre",
        "status": "verified",
        "confidence_score": 98.8,
        "old_survey_area_acres": 1.72,
        "old_survey_area_sqm": 6957.24,
        "new_survey_area_acres": 1.72,
        "new_survey_area_sqm": 6957.24
      },
      "geometry": {
        "type": "Polygon",
        "coordinates": [
          [
            [
              74.9673996,
              18.5032862
            ],
            [
              74.9673244,
              18.5027175
            ],
            [
              74.9667422,
              18.5028411
            ],
            [
              74.9662563,
              18.5029434
            ],
            [
              74.9662914,
              18.5030666
            ],
            [
              74.9663631,
              18.5033458
            ],
            [
              74.966405,
              18.5034975
            ],
            [
              74.9673268,
              18.5032868
            ],
            [
              74.9673996,
              18.5032862
            ]
          ]
        ]
      }
    }
  ]
}