{
  "type": "FeatureCollection",
  "name": "Benwadi_Gat_493_Cadastre",
  "crs": {
    "type": "name",
    "properties": {
      "name": "urn:ogc:def:crs:OGC:1.3:CRS84"
    }
  },
  "features": [
    {
      "type": "Feature",
      "properties": {
        "parcel_id": "MH-AHM-KAR-BEN-493",
        "survey_no": "493",
        "gat_no": "493",
        "village": "Benwadi (बेनवडी)",
        "taluka": "Karjat (कर्जत)",
        "district": "Ahmednagar (अहमदनगर)",
        "state": "Maharashtra",
        "gis_code": "RVM2613272600130334420000",
        "owner_name": "गयाबाई रामा गदादे, लिलावती बाळासाहेब गदादे, विश्वनाथ रामा गदादे, सतीश बाळासाहेब गदादे, अजिनाथ बाळासाहेब गदादे",
        "all_owners": [
          "गयाबाई रामा गदादे, लिलावती बाळासाहेब गदादे, विश्वनाथ रामा गदादे, सतीश बाळासाहेब गदादे, अजिनाथ बाळासाहेब गदादे"
        ],
        "khata_no": "265",
        "area_sqm": 12039.77,
        "area_acres": 2.98,
        "area_guntha": 119.01,
        "land_type": "जिरायत शेती (Jirayat - Rainfed Agricultural)",
        "source": "MahaBhuNaksha Official Live Cadastre",
        "status": "verified",
        "confidence_score": 98.8,
        "old_survey_area_acres": 2.98,
        "old_survey_area_sqm": 12039.77,
        "new_survey_area_acres": 2.98,
        "new_survey_area_sqm": 12039.77
      },
      "geometry": {
        "type": "Polygon",
        "coordinates": [
          [
            [
              74.9892538,
              18.4985073
            ],
            [
              74.9880981,
              18.4984818
            ],
            [
              74.9867978,
              18.498453
            ],
            [
              74.9865765,
              18.4987004
            ],
            [
              74.9879577,
              18.4991354
            ],
            [
              74.9886492,
              18.4988086
            ],
            [
              74.9892538,
              18.4985073
            ]
          ]
        ]
      }
    }
  ]
}