{
  "type": "FeatureCollection",
  "name": "Benwadi_Gat_308_Cadastre",
  "crs": {
    "type": "name",
    "properties": {
      "name": "urn:ogc:def:crs:OGC:1.3:CRS84"
    }
  },
  "features": [
    {
      "type": "Feature",
      "properties": {
        "parcel_id": "MH-AHM-KAR-BEN-308",
        "survey_no": "308",
        "gat_no": "308",
        "village": "Benwadi (बेनवडी)",
        "taluka": "Karjat (कर्जत)",
        "district": "Ahmednagar (अहमदनगर)",
        "state": "Maharashtra",
        "gis_code": "RVM2613272600130334420000",
        "owner_name": "बबन रघुनाथ धुमाळ, भाऊसाहेब रघुनाथ धुमाळ, बाळासाहेब रघुनाथ धुमाळ",
        "all_owners": [
          "बबन रघुनाथ धुमाळ, भाऊसाहेब रघुनाथ धुमाळ, बाळासाहेब रघुनाथ धुमाळ"
        ],
        "khata_no": "3033",
        "area_sqm": 5481.92,
        "area_acres": 1.35,
        "area_guntha": 54.19,
        "land_type": "जिरायत शेती (Jirayat - Rainfed Agricultural)",
        "source": "MahaBhuNaksha Official Live Cadastre",
        "status": "verified",
        "confidence_score": 98.8,
        "old_survey_area_acres": 1.35,
        "old_survey_area_sqm": 5481.92,
        "new_survey_area_acres": 1.35,
        "new_survey_area_sqm": 5481.92
      },
      "geometry": {
        "type": "Polygon",
        "coordinates": [
          [
            [
              74.9678985,
              18.5037189
            ],
            [
              74.9678907,
              18.5035283
            ],
            [
              74.9678905,
              18.5034392
            ],
            [
              74.9664374,
              18.5035882
            ],
            [
              74.9664998,
              18.503826
            ],
            [
              74.9672537,
              18.5037931
            ],
            [
              74.9672922,
              18.5038394
            ],
            [
              74.9678975,
              18.5039254
            ],
            [
              74.9678985,
              18.5037189
            ]
          ]
        ]
      }
    }
  ]
}