{
  "type": "FeatureCollection",
  "name": "Benwadi_Gat_89_Cadastre",
  "crs": {
    "type": "name",
    "properties": {
      "name": "urn:ogc:def:crs:OGC:1.3:CRS84"
    }
  },
  "features": [
    {
      "type": "Feature",
      "properties": {
        "parcel_id": "MH-AHM-KAR-BEN-89",
        "survey_no": "89",
        "gat_no": "89",
        "village": "Benwadi (बेनवडी)",
        "taluka": "Karjat (कर्जत)",
        "district": "Ahmednagar (अहमदनगर)",
        "state": "Maharashtra",
        "gis_code": "RVM2613272600130334420000",
        "owner_name": "कलावती बापूराव, देवराव चंदर खुडे",
        "all_owners": [
          "कलावती बापूराव",
          "देवराव चंदर खुडे",
          "निलावती बापूराव भिसे",
          "यमुना साहेबराव दिवटे"
        ],
        "khata_no": "2648, 2649, 2650, 2754",
        "area_sqm": 1369.88,
        "area_acres": 0.34,
        "area_guntha": 13.54,
        "land_type": "जिरायत शेती (Jirayat - Rainfed Agricultural)",
        "source": "MahaBhuNaksha Official Live Cadastre",
        "status": "verified",
        "confidence_score": 98.8,
        "old_survey_area_acres": 0.34,
        "old_survey_area_sqm": 1369.88,
        "new_survey_area_acres": 0.34,
        "new_survey_area_sqm": 1369.88
      },
      "geometry": {
        "type": "Polygon",
        "coordinates": [
          [
            [
              74.9801933,
              18.490199
            ],
            [
              74.9800364,
              18.4897135
            ],
            [
              74.9798025,
              18.4897899
            ],
            [
              74.9799384,
              18.4902112
            ],
            [
              74.9801933,
              18.490199
            ]
          ]
        ]
      }
    }
  ]
}