{
  "type": "FeatureCollection",
  "name": "Benwadi_Gat_357_Cadastre",
  "crs": {
    "type": "name",
    "properties": {
      "name": "urn:ogc:def:crs:OGC:1.3:CRS84"
    }
  },
  "features": [
    {
      "type": "Feature",
      "properties": {
        "parcel_id": "MH-AHM-KAR-BEN-357",
        "survey_no": "357",
        "gat_no": "357",
        "village": "Benwadi (बेनवडी)",
        "taluka": "Karjat (कर्जत)",
        "district": "Ahmednagar (अहमदनगर)",
        "state": "Maharashtra",
        "gis_code": "RVM2613272600130334420000",
        "owner_name": "ज्ञानदेव  बबन  भिताडे, नवनाथ  कोंडिबा  भिताड़े",
        "all_owners": [
          "ज्ञानदेव  बबन  भिताडे, नवनाथ  कोंडिबा  भिताड़े"
        ],
        "khata_no": "2540",
        "area_sqm": 4573.53,
        "area_acres": 1.13,
        "area_guntha": 45.21,
        "land_type": "जिरायत शेती (Jirayat - Rainfed Agricultural)",
        "source": "MahaBhuNaksha Official Live Cadastre",
        "status": "verified",
        "confidence_score": 98.8,
        "old_survey_area_acres": 1.13,
        "old_survey_area_sqm": 4573.53,
        "new_survey_area_acres": 1.13,
        "new_survey_area_sqm": 4573.53
      },
      "geometry": {
        "type": "Polygon",
        "coordinates": [
          [
            [
              74.9752013,
              18.499602
            ],
            [
              74.9750332,
              18.4987206
            ],
            [
              74.9746339,
              18.4987781
            ],
            [
              74.9747379,
              18.499672
            ],
            [
              74.9752013,
              18.499602
            ]
          ]
        ]
      }
    }
  ]
}