{
  "type": "FeatureCollection",
  "name": "Benwadi_Gat_38_Cadastre",
  "crs": {
    "type": "name",
    "properties": {
      "name": "urn:ogc:def:crs:OGC:1.3:CRS84"
    }
  },
  "features": [
    {
      "type": "Feature",
      "properties": {
        "parcel_id": "MH-AHM-KAR-BEN-38",
        "survey_no": "38",
        "gat_no": "38",
        "village": "Benwadi (बेनवडी)",
        "taluka": "Karjat (कर्जत)",
        "district": "Ahmednagar (अहमदनगर)",
        "state": "Maharashtra",
        "gis_code": "RVM2613272600130334420000",
        "owner_name": "महाराष्ट्र राज्याचे मा.राज्यपाल यांचे वतीने जलसंपदा विभाग महाराष्ट्र शासनाचे प्राधिकृत प्रतिनिधी – कार्यकारी अभियंता, कुकडी वितरण विभाग कोळवडी, ता.कर्जत यांचे कबुलीजबाबासाठी कुलमखत्यार म्हणून- कनिष्ठ लिपिक कुकडी वितरण बांधकाम विभाग कोळवडी ता कर्जत –, कलावती दशरथ धुमाळ, गोविंद दशरथ धुमाळ, विष्णू दशरथ धुमाळ, हरीश्चंद्र दशरथ  धुमाळ, देऊबाई महादेव नेटके",
        "all_owners": [
          "महाराष्ट्र राज्याचे मा.राज्यपाल यांचे वतीने जलसंपदा विभाग महाराष्ट्र शासनाचे प्राधिकृत प्रतिनिधी – कार्यकारी अभियंता, कुकडी वितरण विभाग कोळवडी, ता.कर्जत यांचे कबुलीजबाबासाठी कुलमखत्यार म्हणून- कनिष्ठ लिपिक कुकडी वितरण बांधकाम विभाग कोळवडी ता कर्जत –",
          "कलावती दशरथ धुमाळ, गोविंद दशरथ धुमाळ, विष्णू दशरथ धुमाळ, हरीश्चंद्र दशरथ  धुमाळ, देऊबाई महादेव नेटके"
        ],
        "khata_no": "3158, 97",
        "area_sqm": 4857.94,
        "area_acres": 1.2,
        "area_guntha": 48.02,
        "land_type": "जिरायत शेती (Jirayat - Rainfed Agricultural)",
        "source": "MahaBhuNaksha Official Live Cadastre",
        "status": "verified",
        "confidence_score": 98.8,
        "old_survey_area_acres": 1.2,
        "old_survey_area_sqm": 4857.94,
        "new_survey_area_acres": 1.2,
        "new_survey_area_sqm": 4857.94
      },
      "geometry": {
        "type": "Polygon",
        "coordinates": [
          [
            [
              74.9871295,
              18.4849383
            ],
            [
              74.9863671,
              18.4851516
            ],
            [
              74.986458,
              18.4852384
            ],
            [
              74.9874408,
              18.4859104
            ],
            [
              74.9871295,
              18.4849383
            ]
          ]
        ]
      }
    }
  ]
}