{
  "type": "FeatureCollection",
  "name": "Benwadi_Gat_283_Cadastre",
  "crs": {
    "type": "name",
    "properties": {
      "name": "urn:ogc:def:crs:OGC:1.3:CRS84"
    }
  },
  "features": [
    {
      "type": "Feature",
      "properties": {
        "parcel_id": "MH-AHM-KAR-BEN-283",
        "survey_no": "283",
        "gat_no": "283",
        "village": "Benwadi (बेनवडी)",
        "taluka": "Karjat (कर्जत)",
        "district": "Ahmednagar (अहमदनगर)",
        "state": "Maharashtra",
        "gis_code": "RVM2613272600130334420000",
        "owner_name": "शिवाजी सूखदेव शिंदे, लिलावती सोपान डमरे",
        "all_owners": [
          "शिवाजी सूखदेव शिंदे",
          "लिलावती सोपान डमरे",
          "ऋषिकेश भाऊसाहेब धुमाळ",
          "आर्यन अनिल  गदादे अ पा क चुलते अतुल नवनाथ गदादे",
          "आर्नव अतुल गदादे अपाक वडील अतुल नवनाथ गदादे"
        ],
        "khata_no": "909, 2284, 2640, 2641, 2721",
        "area_sqm": 35637.92,
        "area_acres": 8.81,
        "area_guntha": 352.26,
        "land_type": "जिरायत शेती (Jirayat - Rainfed Agricultural)",
        "source": "MahaBhuNaksha Official Live Cadastre",
        "status": "verified",
        "confidence_score": 98.8,
        "old_survey_area_acres": 8.81,
        "old_survey_area_sqm": 35637.92,
        "new_survey_area_acres": 8.81,
        "new_survey_area_sqm": 35637.92
      },
      "geometry": {
        "type": "Polygon",
        "coordinates": [
          [
            [
              74.9663706,
              18.5001124
            ],
            [
              74.9663578,
              18.5000878
            ],
            [
              74.9661088,
              18.4993885
            ],
            [
              74.9660869,
              18.4993354
            ],
            [
              74.9648736,
              18.4998594
            ],
            [
              74.9642458,
              18.5001501
            ],
            [
              74.9642881,
              18.5004081
            ],
            [
              74.9632904,
              18.5007196
            ],
            [
              74.9626515,
              18.5009382
            ],
            [
              74.9623879,
              18.5010149
            ],
            [
              74.962645,
              18.5016589
            ],
            [
              74.9644288,
              18.5010583
            ],
            [
              74.9644116,
              18.5009866
            ],
            [
              74.9650962,
              18.5006829
            ],
            [
              74.9660591,
              18.5002485
            ],
            [
              74.9663706,
              18.5001124
            ]
          ]
        ]
      }
    }
  ]
}