{
  "type": "FeatureCollection",
  "name": "Benwadi_Gat_13_Drone_Resurvey",
  "crs": {
    "type": "name",
    "properties": {
      "name": "urn:ogc:def:crs:OGC:1.3:CRS84"
    }
  },
  "features": [
    {
      "type": "Feature",
      "properties": {
        "parcel_id": "MH-AHM-KAR-BEN-13",
        "survey_no": "13",
        "gat_no": "13",
        "village": "Benwadi (बेनवडी)",
        "taluka": "Karjat (कर्जत)",
        "district": "Ahmednagar (अहमदनगर)",
        "state": "Maharashtra",
        "gis_code": "RVM2613272600130334420000",
        "owner_name": "सुनिता दिलीप काळे, अनिता बबन कचरे",
        "all_owners": [
          "सुनिता दिलीप काळे",
          "अनिता बबन कचरे"
        ],
        "khata_no": "3476, 3477",
        "area_sqm": 3669.82,
        "area_acres": 0.91,
        "area_guntha": 36.27,
        "land_type": "जिरायत शेती (Jirayat - Rainfed Agricultural)",
        "source": "MahaBhuNaksha Official Live Cadastre",
        "status": "needs_review",
        "confidence_score": 85.0,
        "old_survey_area_acres": 0.91,
        "old_survey_area_sqm": 3669.82,
        "new_survey_area_acres": 0.93,
        "new_survey_area_sqm": 3761.6,
        "area_diff_pct": 2.5,
        "mean_shift_m": 2.0,
        "iou_overlap_pct": 93.5,
        "review_reason": "Drone RTK photogrammetry detects a 2.5% area discrepancy (92 m²) with a mean bund shift of 2.0m along the farm boundary. Verification recommended.",
        "bhunaksha_geometry": {
          "type": "Polygon",
          "coordinates": [
            [
              [
                74.9832033,
                18.4908765
              ],
              [
                74.9828195,
                18.4901766
              ],
              [
                74.9825202,
                18.4902367
              ],
              [
                74.9825799,
                18.490872
              ],
              [
                74.9832033,
                18.4908765
              ]
            ]
          ]
        }
      },
      "geometry": {
        "type": "Polygon",
        "coordinates": [
          [
            [
              74.9831905,
              18.4908751
            ],
            [
              74.9828019,
              18.4901665
            ],
            [
              74.9824989,
              18.4902274
            ],
            [
              74.9825594,
              18.4908706
            ],
            [
              74.9831905,
              18.4908751
            ]
          ]
        ]
      }
    }
  ]
}