{
  "type": "FeatureCollection",
  "name": "Benwadi_Gat_487_Cadastre",
  "crs": {
    "type": "name",
    "properties": {
      "name": "urn:ogc:def:crs:OGC:1.3:CRS84"
    }
  },
  "features": [
    {
      "type": "Feature",
      "properties": {
        "parcel_id": "MH-AHM-KAR-BEN-487",
        "survey_no": "487",
        "gat_no": "487",
        "village": "Benwadi (बेनवडी)",
        "taluka": "Karjat (कर्जत)",
        "district": "Ahmednagar (अहमदनगर)",
        "state": "Maharashtra",
        "gis_code": "RVM2613272600130334420000",
        "owner_name": "छगन नामदेव गदादे, ज्ञानदेव नामदेव गदादे, लक्ष्मीबाई नामदेव गदादे, संपत नामदेव गदादे, जनाबाई बळिराम रसाळ, उत्तम साहेबराव गदादे",
        "all_owners": [
          "छगन नामदेव गदादे, ज्ञानदेव नामदेव गदादे, लक्ष्मीबाई नामदेव गदादे, संपत नामदेव गदादे, जनाबाई बळिराम रसाळ",
          "उत्तम साहेबराव गदादे",
          "नवनाथ साहेबराव गदादे",
          "लहू जगन्नाथ गदादे, बबन जगन्नाथ गदादे"
        ],
        "khata_no": "129, 442, 470, 72",
        "area_sqm": 4882.33,
        "area_acres": 1.21,
        "area_guntha": 48.26,
        "land_type": "जिरायत शेती (Jirayat - Rainfed Agricultural)",
        "source": "MahaBhuNaksha Official Live Cadastre",
        "status": "verified",
        "confidence_score": 98.8,
        "old_survey_area_acres": 1.21,
        "old_survey_area_sqm": 4882.33,
        "new_survey_area_acres": 1.21,
        "new_survey_area_sqm": 4882.33
      },
      "geometry": {
        "type": "Polygon",
        "coordinates": [
          [
            [
              74.98547,
              18.4962447
            ],
            [
              74.9854572,
              18.4961551
            ],
            [
              74.9854295,
              18.495786
            ],
            [
              74.9853952,
              18.4956656
            ],
            [
              74.9847467,
              18.495709
            ],
            [
              74.9848268,
              18.4963885
            ],
            [
              74.98547,
              18.4962447
            ]
          ]
        ]
      }
    }
  ]
}