{
  "type": "FeatureCollection",
  "name": "Benwadi_Gat_245_Drone_Resurvey",
  "crs": {
    "type": "name",
    "properties": {
      "name": "urn:ogc:def:crs:OGC:1.3:CRS84"
    }
  },
  "features": [
    {
      "type": "Feature",
      "properties": {
        "parcel_id": "MH-AHM-KAR-BEN-245",
        "survey_no": "245",
        "gat_no": "245",
        "village": "Benwadi (बेनवडी)",
        "taluka": "Karjat (कर्जत)",
        "district": "Ahmednagar (अहमदनगर)",
        "state": "Maharashtra",
        "gis_code": "RVM2613272600130334420000",
        "owner_name": "पोपटलाल गोकुळदास बोरा, राजेंद्रकुमार  पोपटलाल  बोरा",
        "all_owners": [
          "पोपटलाल गोकुळदास बोरा",
          "राजेंद्रकुमार  पोपटलाल  बोरा",
          "अंजनाबाई खंडू भिताडे"
        ],
        "khata_no": "2484, 2610, 648",
        "area_sqm": 106262.24,
        "area_acres": 26.26,
        "area_guntha": 1050.33,
        "land_type": "जिरायत शेती (Jirayat - Rainfed Agricultural)",
        "source": "MahaBhuNaksha Official Live Cadastre",
        "status": "needs_review",
        "confidence_score": 85.2,
        "old_survey_area_acres": 26.26,
        "old_survey_area_sqm": 106262.24,
        "new_survey_area_acres": 26.86,
        "new_survey_area_sqm": 108706.3,
        "area_diff_pct": 2.3,
        "mean_shift_m": 2.0,
        "iou_overlap_pct": 93.7,
        "review_reason": "Drone RTK photogrammetry detects a 2.3% area discrepancy (2444 m²) with a mean bund shift of 2.0m along the farm boundary. Verification recommended.",
        "bhunaksha_geometry": {
          "type": "Polygon",
          "coordinates": [
            [
              [
                74.9619642,
                18.4949074
              ],
              [
                74.9620596,
                18.4948274
              ],
              [
                74.9631394,
                18.494131
              ],
              [
                74.9640231,
                18.4935572
              ],
              [
                74.9639268,
                18.4931354
              ],
              [
                74.9638954,
                18.4930081
              ],
              [
                74.9638434,
                18.492826
              ],
              [
                74.9637591,
                18.4925055
              ],
              [
                74.9635278,
                18.4915505
              ],
              [
                74.9634004,
                18.4915759
              ],
              [
                74.962108,
                18.4920018
              ],
              [
                74.9613014,
                18.4922694
              ],
              [
                74.9601381,
                18.4926565
              ],
              [
                74.9602241,
                18.4932413
              ],
              [
                74.9602422,
                18.4933441
              ],
              [
                74.9603221,
                18.4940024
              ],
              [
                74.9604619,
                18.4951034
              ],
              [
                74.9619642,
                18.4949074
              ]
            ]
          ]
        }
      },
      "geometry": {
        "type": "Polygon",
        "coordinates": [
          [
            [
              74.9619477,
              18.4949397
            ],
            [
              74.9620442,
              18.4948588
            ],
            [
              74.9631363,
              18.4941544
            ],
            [
              74.9640301,
              18.4935741
            ],
            [
              74.9639327,
              18.4931474
            ],
            [
              74.963901,
              18.4930187
            ],
            [
              74.9638484,
              18.4928345
            ],
            [
              74.9637631,
              18.4925103
            ],
            [
              74.9635292,
              18.4915444
            ],
            [
              74.9634003,
              18.4915701
            ],
            [
              74.9620931,
              18.4920009
            ],
            [
              74.9612773,
              18.4922715
            ],
            [
              74.9601007,
              18.4926631
            ],
            [
              74.9601877,
              18.4932546
            ],
            [
              74.960206,
              18.4933585
            ],
            [
              74.9602868,
              18.4940244
            ],
            [
              74.9604282,
              18.4951379
            ],
            [
              74.9619477,
              18.4949397
            ]
          ]
        ]
      }
    }
  ]
}