{
  "type": "FeatureCollection",
  "name": "Benwadi_Gat_309_Cadastre",
  "crs": {
    "type": "name",
    "properties": {
      "name": "urn:ogc:def:crs:OGC:1.3:CRS84"
    }
  },
  "features": [
    {
      "type": "Feature",
      "properties": {
        "parcel_id": "MH-AHM-KAR-BEN-309",
        "survey_no": "309",
        "gat_no": "309",
        "village": "Benwadi (बेनवडी)",
        "taluka": "Karjat (कर्जत)",
        "district": "Ahmednagar (अहमदनगर)",
        "state": "Maharashtra",
        "gis_code": "RVM2613272600130334420000",
        "owner_name": "जनाबाई नामदेव धुमाळ, संतोष नामदेव धुमाळ, संपत नामदेव धुमाळ",
        "all_owners": [
          "जनाबाई नामदेव धुमाळ, संतोष नामदेव धुमाळ, संपत नामदेव धुमाळ"
        ],
        "khata_no": "130",
        "area_sqm": 1995.5,
        "area_acres": 0.49,
        "area_guntha": 19.72,
        "land_type": "जिरायत शेती (Jirayat - Rainfed Agricultural)",
        "source": "MahaBhuNaksha Official Live Cadastre",
        "status": "verified",
        "confidence_score": 98.8,
        "old_survey_area_acres": 0.49,
        "old_survey_area_sqm": 1995.5,
        "new_survey_area_acres": 0.49,
        "new_survey_area_sqm": 1995.5
      },
      "geometry": {
        "type": "Polygon",
        "coordinates": [
          [
            [
              74.9685005,
              18.5034755
            ],
            [
              74.9678907,
              18.5035283
            ],
            [
              74.9678985,
              18.5037189
            ],
            [
              74.9685662,
              18.5038228
            ],
            [
              74.9685005,
              18.5034755
            ]
          ]
        ]
      }
    }
  ]
}