{
  "type": "FeatureCollection",
  "name": "Benwadi_Gat_364_Cadastre",
  "crs": {
    "type": "name",
    "properties": {
      "name": "urn:ogc:def:crs:OGC:1.3:CRS84"
    }
  },
  "features": [
    {
      "type": "Feature",
      "properties": {
        "parcel_id": "MH-AHM-KAR-BEN-364",
        "survey_no": "364",
        "gat_no": "364",
        "village": "Benwadi (बेनवडी)",
        "taluka": "Karjat (कर्जत)",
        "district": "Ahmednagar (अहमदनगर)",
        "state": "Maharashtra",
        "gis_code": "RVM2613272600130334420000",
        "owner_name": "आजिनाथ दिगांबर गदादे",
        "all_owners": [
          "आजिनाथ दिगांबर गदादे"
        ],
        "khata_no": "689",
        "area_sqm": 4819.9,
        "area_acres": 1.19,
        "area_guntha": 47.64,
        "land_type": "जिरायत शेती (Jirayat - Rainfed Agricultural)",
        "source": "MahaBhuNaksha Official Live Cadastre",
        "status": "verified",
        "confidence_score": 98.8,
        "old_survey_area_acres": 1.19,
        "old_survey_area_sqm": 4819.9,
        "new_survey_area_acres": 1.19,
        "new_survey_area_sqm": 4819.9
      },
      "geometry": {
        "type": "Polygon",
        "coordinates": [
          [
            [
              74.9775564,
              18.499997
            ],
            [
              74.9770163,
              18.5000978
            ],
            [
              74.9775757,
              18.5008931
            ],
            [
              74.9776122,
              18.5009589
            ],
            [
              74.9779461,
              18.5011933
            ],
            [
              74.9775564,
              18.499997
            ]
          ]
        ]
      }
    }
  ]
}