{
  "type": "FeatureCollection",
  "name": "Benwadi_Gat_242_Cadastre",
  "crs": {
    "type": "name",
    "properties": {
      "name": "urn:ogc:def:crs:OGC:1.3:CRS84"
    }
  },
  "features": [
    {
      "type": "Feature",
      "properties": {
        "parcel_id": "MH-AHM-KAR-BEN-242",
        "survey_no": "242",
        "gat_no": "242",
        "village": "Benwadi (बेनवडी)",
        "taluka": "Karjat (कर्जत)",
        "district": "Ahmednagar (अहमदनगर)",
        "state": "Maharashtra",
        "gis_code": "RVM2613272600130334420000",
        "owner_name": "संदिप लालासाहेब धुमाळ, शिवकन्या नाथा धुमाळ, सायली विशाल कानगुडे, नाथा कुंडलिक धुमाळ, गोकुळ नाथा धुमाळ अ.पा.क.वडील नाथा",
        "all_owners": [
          "संदिप लालासाहेब धुमाळ",
          "शिवकन्या नाथा धुमाळ, सायली विशाल कानगुडे, नाथा कुंडलिक धुमाळ, गोकुळ नाथा धुमाळ अ.पा.क.वडील नाथा",
          "गोकुळ नाथा धुमाळ",
          "ओंकार सुभाष धुमाळ",
          "सतीश बलभिम धुमाळ",
          "अश्विनी संदीप धुमाळ",
          "आप्पासाहेब बलभिम धुमाळ",
          "जालिंदर दादासाहेब धूमाळ"
        ],
        "khata_no": "2496, 3043, 3044, 3045, 3047, 3048, 3401, 78",
        "area_sqm": 82997.22,
        "area_acres": 20.51,
        "area_guntha": 820.37,
        "land_type": "जिरायत शेती (Jirayat - Rainfed Agricultural)",
        "source": "MahaBhuNaksha Official Live Cadastre",
        "status": "verified",
        "confidence_score": 98.8,
        "old_survey_area_acres": 20.51,
        "old_survey_area_sqm": 82997.22,
        "new_survey_area_acres": 20.51,
        "new_survey_area_sqm": 82997.22
      },
      "geometry": {
        "type": "Polygon",
        "coordinates": [
          [
            [
              74.9595067,
              18.4935058
            ],
            [
              74.9602422,
              18.4933441
            ],
            [
              74.9602241,
              18.4932413
            ],
            [
              74.9601381,
              18.4926565
            ],
            [
              74.960042,
              18.4925026
            ],
            [
              74.9595101,
              18.4915403
            ],
            [
              74.9581801,
              18.4916324
            ],
            [
              74.9570375,
              18.4917088
            ],
            [
              74.955174,
              18.4918484
            ],
            [
              74.9550509,
              18.4918577
            ],
            [
              74.9552569,
              18.4920159
            ],
            [
              74.9563022,
              18.4927318
            ],
            [
              74.9564237,
              18.492798
            ],
            [
              74.9568785,
              18.4930461
            ],
            [
              74.956976,
              18.4930993
            ],
            [
              74.9570254,
              18.4931227
            ],
            [
              74.9572893,
              18.4932482
            ],
            [
              74.958057,
              18.4936579
            ],
            [
              74.9582411,
              18.4937791
            ],
            [
              74.9595067,
              18.4935058
            ]
          ]
        ]
      }
    }
  ]
}