{
  "type": "FeatureCollection",
  "name": "Benwadi_Gat_346_Cadastre",
  "crs": {
    "type": "name",
    "properties": {
      "name": "urn:ogc:def:crs:OGC:1.3:CRS84"
    }
  },
  "features": [
    {
      "type": "Feature",
      "properties": {
        "parcel_id": "MH-AHM-KAR-BEN-346",
        "survey_no": "346",
        "gat_no": "346",
        "village": "Benwadi (बेनवडी)",
        "taluka": "Karjat (कर्जत)",
        "district": "Ahmednagar (अहमदनगर)",
        "state": "Maharashtra",
        "gis_code": "RVM2613272600130334420000",
        "owner_name": "अफ्रोज अकबर सय्यद, अश्माबी राजू शेख, असिफ रसुल सय्यद, मिनाबी रसुल सय्यद, नबिलाल रहिमान सय्यद",
        "all_owners": [
          "अफ्रोज अकबर सय्यद, अश्माबी राजू शेख, असिफ रसुल सय्यद, मिनाबी रसुल सय्यद",
          "नबिलाल रहिमान सय्यद"
        ],
        "khata_no": "2420, 96",
        "area_sqm": 1691.42,
        "area_acres": 0.42,
        "area_guntha": 16.72,
        "land_type": "जिरायत शेती (Jirayat - Rainfed Agricultural)",
        "source": "MahaBhuNaksha Official Live Cadastre",
        "status": "verified",
        "confidence_score": 98.8,
        "old_survey_area_acres": 0.42,
        "old_survey_area_sqm": 1691.42,
        "new_survey_area_acres": 0.42,
        "new_survey_area_sqm": 1691.42
      },
      "geometry": {
        "type": "Polygon",
        "coordinates": [
          [
            [
              74.9621675,
              18.4828311
            ],
            [
              74.9621502,
              18.4825654
            ],
            [
              74.9621326,
              18.4821593
            ],
            [
              74.9621302,
              18.4820961
            ],
            [
              74.9619395,
              18.4821935
            ],
            [
              74.9619504,
              18.4825689
            ],
            [
              74.9619818,
              18.4829299
            ],
            [
              74.9621675,
              18.4828311
            ]
          ]
        ]
      }
    }
  ]
}