{
  "type": "FeatureCollection",
  "name": "Benwadi_Gat_497_Drone_Resurvey",
  "crs": {
    "type": "name",
    "properties": {
      "name": "urn:ogc:def:crs:OGC:1.3:CRS84"
    }
  },
  "features": [
    {
      "type": "Feature",
      "properties": {
        "parcel_id": "MH-AHM-KAR-BEN-497",
        "survey_no": "497",
        "gat_no": "497",
        "village": "Benwadi (बेनवडी)",
        "taluka": "Karjat (कर्जत)",
        "district": "Ahmednagar (अहमदनगर)",
        "state": "Maharashtra",
        "gis_code": "RVM2613272600130334420000",
        "owner_name": "देवई दादा गदादे, संतोष दादासाहेब गदादे",
        "all_owners": [
          "देवई दादा गदादे",
          "संतोष दादासाहेब गदादे",
          "बापु लहु गदांदे",
          "संतोष लहु गदांदे",
          "दत्तात्रय बबन गदांदे",
          "दादासाहेब पंढरीनाथ गदादे",
          "विष्णु बबन गदादे"
        ],
        "khata_no": "135, 2307, 2341, 2342, 2344, 3386, 3491",
        "area_sqm": 21495.24,
        "area_acres": 5.31,
        "area_guntha": 212.47,
        "land_type": "जिरायत शेती (Jirayat - Rainfed Agricultural)",
        "source": "MahaBhuNaksha Official Live Cadastre",
        "status": "needs_review",
        "confidence_score": 85.5,
        "old_survey_area_acres": 5.31,
        "old_survey_area_sqm": 21495.24,
        "new_survey_area_acres": 5.42,
        "new_survey_area_sqm": 21946.6,
        "area_diff_pct": 2.1,
        "mean_shift_m": 1.6,
        "iou_overlap_pct": 93.9,
        "review_reason": "Drone RTK photogrammetry detects a 2.1% area discrepancy (451 m²) with a mean bund shift of 1.6m along the farm boundary. Verification recommended.",
        "bhunaksha_geometry": {
          "type": "Polygon",
          "coordinates": [
            [
              [
                74.9853809,
                18.4983024
              ],
              [
                74.9854135,
                18.4986749
              ],
              [
                74.9844721,
                18.4985894
              ],
              [
                74.9844018,
                18.4996085
              ],
              [
                74.9850414,
                18.4997143
              ],
              [
                74.9861327,
                18.4999125
              ],
              [
                74.9857656,
                18.4983606
              ],
              [
                74.9853809,
                18.4983024
              ]
            ]
          ]
        }
      },
      "geometry": {
        "type": "Polygon",
        "coordinates": [
          [
            [
              74.9853922,
              18.4983059
            ],
            [
              74.9854252,
              18.4986823
            ],
            [
              74.9844739,
              18.4985959
            ],
            [
              74.9844029,
              18.4996256
            ],
            [
              74.9850492,
              18.4997325
            ],
            [
              74.9861519,
              18.4999328
            ],
            [
              74.985781,
              18.4983647
            ],
            [
              74.9853922,
              18.4983059
            ]
          ]
        ]
      }
    }
  ]
}