{
  "type": "FeatureCollection",
  "name": "Benwadi_Gat_469_Drone_Resurvey",
  "crs": {
    "type": "name",
    "properties": {
      "name": "urn:ogc:def:crs:OGC:1.3:CRS84"
    }
  },
  "features": [
    {
      "type": "Feature",
      "properties": {
        "parcel_id": "MH-AHM-KAR-BEN-469",
        "survey_no": "469",
        "gat_no": "469",
        "village": "Benwadi (बेनवडी)",
        "taluka": "Karjat (कर्जत)",
        "district": "Ahmednagar (अहमदनगर)",
        "state": "Maharashtra",
        "gis_code": "RVM2613272600130334420000",
        "owner_name": "मच्छिंद्र भिमराव दवणे, मालन अंकुश सातव, लताबाई सोपान सातव, लहू भिमराव दवणे, शालन शहाजी भोसले, दत्तू भिमराव दवणे",
        "all_owners": [
          "मच्छिंद्र भिमराव दवणे, मालन अंकुश सातव, लताबाई सोपान सातव, लहू भिमराव दवणे, शालन शहाजी भोसले, दत्तू भिमराव दवणे"
        ],
        "khata_no": "210",
        "area_sqm": 5758.18,
        "area_acres": 1.42,
        "area_guntha": 56.92,
        "land_type": "जिरायत शेती (Jirayat - Rainfed Agricultural)",
        "source": "MahaBhuNaksha Official Live Cadastre",
        "status": "needs_review",
        "confidence_score": 84.5,
        "old_survey_area_acres": 1.42,
        "old_survey_area_sqm": 5758.18,
        "new_survey_area_acres": 1.46,
        "new_survey_area_sqm": 5925.2,
        "area_diff_pct": 2.9,
        "mean_shift_m": 1.6,
        "iou_overlap_pct": 93.1,
        "review_reason": "Drone RTK photogrammetry detects a 2.9% area discrepancy (167 m²) with a mean bund shift of 1.6m along the farm boundary. Verification recommended.",
        "bhunaksha_geometry": {
          "type": "Polygon",
          "coordinates": [
            [
              [
                74.9885774,
                18.4916042
              ],
              [
                74.9880191,
                18.4897167
              ],
              [
                74.9878398,
                18.4900825
              ],
              [
                74.988301,
                18.4916349
              ],
              [
                74.9885774,
                18.4916042
              ]
            ]
          ]
        }
      },
      "geometry": {
        "type": "Polygon",
        "coordinates": [
          [
            [
              74.988592,
              18.4916047
            ],
            [
              74.9880256,
              18.48969
            ],
            [
              74.9878438,
              18.4900611
            ],
            [
              74.9883116,
              18.4916359
            ],
            [
              74.988592,
              18.4916047
            ]
          ]
        ]
      }
    }
  ]
}