{
  "type": "FeatureCollection",
  "name": "Benwadi_Gat_540_Drone_Resurvey",
  "crs": {
    "type": "name",
    "properties": {
      "name": "urn:ogc:def:crs:OGC:1.3:CRS84"
    }
  },
  "features": [
    {
      "type": "Feature",
      "properties": {
        "parcel_id": "MH-AHM-KAR-BEN-540",
        "survey_no": "540",
        "gat_no": "540",
        "village": "Benwadi (बेनवडी)",
        "taluka": "Karjat (कर्जत)",
        "district": "Ahmednagar (अहमदनगर)",
        "state": "Maharashtra",
        "gis_code": "RVM2613272600130334420000",
        "owner_name": "चांगदेव बाळासाहेब दवणे, प्रियांका आजिनाथ दवणे अपाक अनिता आजिनाथ दवणे, अनिता आजिनाथ दवणे, संग्राम आजिनाथ दवणे अपाक अनिता आजिनाथ दवणे",
        "all_owners": [
          "चांगदेव बाळासाहेब दवणे",
          "प्रियांका आजिनाथ दवणे अपाक अनिता आजिनाथ दवणे, अनिता आजिनाथ दवणे, संग्राम आजिनाथ दवणे अपाक अनिता आजिनाथ दवणे",
          "चांगदेव बाळासाहेब दवणे",
          "प्रियांका आजिनाथ दवणे अपाक अनिता आजिनाथ दवणे, अनिता आजिनाथ दवणे, संग्राम आजिनाथ दवणे अपाक अनिता आजिनाथ दवणे",
          "आप्पासाहंेब बापूराव दवणे",
          "बाळासाहेब बापूराव दवणे",
          "आप्पासाहंेब बापूराव दवणे"
        ],
        "khata_no": "2457, 2486, 2457, 2486, 483, 484, 483",
        "area_sqm": 27592.92,
        "area_acres": 6.82,
        "area_guntha": 272.74,
        "land_type": "जिरायत शेती (Jirayat - Rainfed Agricultural)",
        "source": "MahaBhuNaksha Official Live Cadastre",
        "status": "needs_review",
        "confidence_score": 84.6,
        "old_survey_area_acres": 6.82,
        "old_survey_area_sqm": 27592.92,
        "new_survey_area_acres": 7.01,
        "new_survey_area_sqm": 28365.5,
        "area_diff_pct": 2.8,
        "mean_shift_m": 1.7,
        "iou_overlap_pct": 93.2,
        "review_reason": "Drone RTK photogrammetry detects a 2.8% area discrepancy (773 m²) with a mean bund shift of 1.7m along the farm boundary. Verification recommended.",
        "bhunaksha_geometry": {
          "type": "Polygon",
          "coordinates": [
            [
              [
                74.9780177,
                18.4955188
              ],
              [
                74.9779044,
                18.4951868
              ],
              [
                74.9775427,
                18.4942612
              ],
              [
                74.9775616,
                18.494163
              ],
              [
                74.9771469,
                18.4931389
              ],
              [
                74.9763444,
                18.4932334
              ],
              [
                74.9762991,
                18.4932416
              ],
              [
                74.9764311,
                18.4937332
              ],
              [
                74.9764817,
                18.4939361
              ],
              [
                74.97661,
                18.4943825
              ],
              [
                74.9770913,
                18.4957066
              ],
              [
                74.9780177,
                18.4955188
              ]
            ]
          ]
        }
      },
      "geometry": {
        "type": "Polygon",
        "coordinates": [
          [
            [
              74.9780435,
              18.4955267
            ],
            [
              74.9779286,
              18.4951901
            ],
            [
              74.9775619,
              18.4942516
            ],
            [
              74.977581,
              18.4941521
            ],
            [
              74.9771606,
              18.4931137
            ],
            [
              74.9763469,
              18.4932095
            ],
            [
              74.976301,
              18.4932179
            ],
            [
              74.9764348,
              18.4937163
            ],
            [
              74.9764861,
              18.493922
            ],
            [
              74.9766162,
              18.4943746
            ],
            [
              74.9771042,
              18.4957171
            ],
            [
              74.9780435,
              18.4955267
            ]
          ]
        ]
      }
    }
  ]
}