{
  "type": "FeatureCollection",
  "name": "Benwadi_Gat_453_Cadastre",
  "crs": {
    "type": "name",
    "properties": {
      "name": "urn:ogc:def:crs:OGC:1.3:CRS84"
    }
  },
  "features": [
    {
      "type": "Feature",
      "properties": {
        "parcel_id": "MH-AHM-KAR-BEN-453",
        "survey_no": "453",
        "gat_no": "453",
        "village": "Benwadi (बेनवडी)",
        "taluka": "Karjat (कर्जत)",
        "district": "Ahmednagar (अहमदनगर)",
        "state": "Maharashtra",
        "gis_code": "RVM2613272600130334420000",
        "owner_name": "मच्छिंद्र ज्ञानदेव गायकवाड, गुलाब ज्ञानदेव गायकवाड",
        "all_owners": [
          "मच्छिंद्र ज्ञानदेव गायकवाड",
          "गुलाब ज्ञानदेव गायकवाड",
          "गोरख ज्ञानदेव गायकवाड"
        ],
        "khata_no": "221, 57, 63",
        "area_sqm": 42165.76,
        "area_acres": 10.42,
        "area_guntha": 416.78,
        "land_type": "जिरायत शेती (Jirayat - Rainfed Agricultural)",
        "source": "MahaBhuNaksha Official Live Cadastre",
        "status": "verified",
        "confidence_score": 98.8,
        "old_survey_area_acres": 10.42,
        "old_survey_area_sqm": 42165.76,
        "new_survey_area_acres": 10.42,
        "new_survey_area_sqm": 42165.76
      },
      "geometry": {
        "type": "Polygon",
        "coordinates": [
          [
            [
              74.9910877,
              18.4978625
            ],
            [
              74.9908549,
              18.4979571
            ],
            [
              74.9901064,
              18.4981932
            ],
            [
              74.9904096,
              18.500014
            ],
            [
              74.9907064,
              18.501799
            ],
            [
              74.9916184,
              18.5019888
            ],
            [
              74.9915727,
              18.5018482
            ],
            [
              74.9915075,
              18.5014369
            ],
            [
              74.9913363,
              18.4999499
            ],
            [
              74.9910877,
              18.4978625
            ]
          ]
        ]
      }
    }
  ]
}