{
  "type": "FeatureCollection",
  "name": "Benwadi_Gat_52_Cadastre",
  "crs": {
    "type": "name",
    "properties": {
      "name": "urn:ogc:def:crs:OGC:1.3:CRS84"
    }
  },
  "features": [
    {
      "type": "Feature",
      "properties": {
        "parcel_id": "MH-AHM-KAR-BEN-52",
        "survey_no": "52",
        "gat_no": "52",
        "village": "Benwadi (बेनवडी)",
        "taluka": "Karjat (कर्जत)",
        "district": "Ahmednagar (अहमदनगर)",
        "state": "Maharashtra",
        "gis_code": "RVM2613272600130334420000",
        "owner_name": "सूनंदा महादेव गायकवाड",
        "all_owners": [
          "सूनंदा महादेव गायकवाड"
        ],
        "khata_no": "837",
        "area_sqm": 415.7,
        "area_acres": 0.1,
        "area_guntha": 4.11,
        "land_type": "जिरायत शेती (Jirayat - Rainfed Agricultural)",
        "source": "MahaBhuNaksha Official Live Cadastre",
        "status": "verified",
        "confidence_score": 98.8,
        "old_survey_area_acres": 0.1,
        "old_survey_area_sqm": 415.7,
        "new_survey_area_acres": 0.1,
        "new_survey_area_sqm": 415.7
      },
      "geometry": {
        "type": "Polygon",
        "coordinates": [
          [
            [
              74.9755151,
              18.4914284
            ],
            [
              74.9751881,
              18.4915343
            ],
            [
              74.975258,
              18.4916232
            ],
            [
              74.9755419,
              18.4915431
            ],
            [
              74.9755151,
              18.4914284
            ]
          ]
        ]
      }
    }
  ]
}