{
  "type": "FeatureCollection",
  "name": "Benwadi_Gat_417_Cadastre",
  "crs": {
    "type": "name",
    "properties": {
      "name": "urn:ogc:def:crs:OGC:1.3:CRS84"
    }
  },
  "features": [
    {
      "type": "Feature",
      "properties": {
        "parcel_id": "MH-AHM-KAR-BEN-417",
        "survey_no": "417",
        "gat_no": "417",
        "village": "Benwadi (बेनवडी)",
        "taluka": "Karjat (कर्जत)",
        "district": "Ahmednagar (अहमदनगर)",
        "state": "Maharashtra",
        "gis_code": "RVM2613272600130334420000",
        "owner_name": "नवनाथ ज्ञानदेव काळे, चांगदेव दादा काळे, बायडाबाई दादा काळे, अजिनाथ दादा काळे",
        "all_owners": [
          "नवनाथ ज्ञानदेव काळे",
          "चांगदेव दादा काळे, बायडाबाई दादा काळे, अजिनाथ दादा काळे",
          "राजेंद्र ज्ञानदेव काळे"
        ],
        "khata_no": "649, 659, 660",
        "area_sqm": 92482.2,
        "area_acres": 22.85,
        "area_guntha": 914.13,
        "land_type": "जिरायत शेती (Jirayat - Rainfed Agricultural)",
        "source": "MahaBhuNaksha Official Live Cadastre",
        "status": "verified",
        "confidence_score": 98.8,
        "old_survey_area_acres": 22.85,
        "old_survey_area_sqm": 92482.2,
        "new_survey_area_acres": 22.85,
        "new_survey_area_sqm": 92482.2
      },
      "geometry": {
        "type": "Polygon",
        "coordinates": [
          [
            [
              75.0006425,
              18.4930275
            ],
            [
              75.0014321,
              18.4947015
            ],
            [
              75.0024145,
              18.4968777
            ],
            [
              75.0044219,
              18.4965671
            ],
            [
              75.0041085,
              18.4959875
            ],
            [
              75.0031122,
              18.494188
            ],
            [
              75.0021188,
              18.4924006
            ],
            [
              75.0006425,
              18.4930275
            ]
          ]
        ]
      }
    }
  ]
}