{
  "type": "FeatureCollection",
  "name": "Benwadi_Gat_326_Drone_Resurvey",
  "crs": {
    "type": "name",
    "properties": {
      "name": "urn:ogc:def:crs:OGC:1.3:CRS84"
    }
  },
  "features": [
    {
      "type": "Feature",
      "properties": {
        "parcel_id": "MH-AHM-KAR-BEN-326",
        "survey_no": "326",
        "gat_no": "326",
        "village": "Benwadi (बेनवडी)",
        "taluka": "Karjat (कर्जत)",
        "district": "Ahmednagar (अहमदनगर)",
        "state": "Maharashtra",
        "gis_code": "RVM2613272600130334420000",
        "owner_name": "नवनाथ गोविंद गायकवाड, संजय गोविंद गायकवाड",
        "all_owners": [
          "नवनाथ गोविंद गायकवाड",
          "संजय गोविंद गायकवाड"
        ],
        "khata_no": "118, 804",
        "area_sqm": 11680.29,
        "area_acres": 2.89,
        "area_guntha": 115.45,
        "land_type": "जिरायत शेती (Jirayat - Rainfed Agricultural)",
        "source": "MahaBhuNaksha Official Live Cadastre",
        "status": "needs_review",
        "confidence_score": 85.4,
        "old_survey_area_acres": 2.89,
        "old_survey_area_sqm": 11680.29,
        "new_survey_area_acres": 2.95,
        "new_survey_area_sqm": 11937.3,
        "area_diff_pct": 2.2,
        "mean_shift_m": 1.5,
        "iou_overlap_pct": 93.8,
        "review_reason": "Drone RTK photogrammetry detects a 2.2% area discrepancy (257 m²) with a mean bund shift of 1.5m along the farm boundary. Verification recommended.",
        "bhunaksha_geometry": {
          "type": "Polygon",
          "coordinates": [
            [
              [
                74.9661514,
                18.5072196
              ],
              [
                74.9661426,
                18.5070649
              ],
              [
                74.9658829,
                18.5069886
              ],
              [
                74.965481,
                18.5069395
              ],
              [
                74.9651062,
                18.5068949
              ],
              [
                74.9647462,
                18.5068489
              ],
              [
                74.9647731,
                18.5062082
              ],
              [
                74.9647268,
                18.5061792
              ],
              [
                74.9640663,
                18.5057814
              ],
              [
                74.9641071,
                18.5060041
              ],
              [
                74.9642034,
                18.5064746
              ],
              [
                74.9642351,
                18.506638
              ],
              [
                74.9641401,
                18.5066581
              ],
              [
                74.9642177,
                18.5071988
              ],
              [
                74.9647345,
                18.5072522
              ],
              [
                74.9647443,
                18.5070712
              ],
              [
                74.9650537,
                18.507105
              ],
              [
                74.9653314,
                18.5071333
              ],
              [
                74.9661514,
                18.5072196
              ]
            ]
          ]
        }
      },
      "geometry": {
        "type": "Polygon",
        "coordinates": [
          [
            [
              74.9661767,
              18.5072328
            ],
            [
              74.9661678,
              18.5070764
            ],
            [
              74.9659052,
              18.5069992
            ],
            [
              74.9654989,
              18.5069496
            ],
            [
              74.96512,
              18.5069045
            ],
            [
              74.9647561,
              18.506858
            ],
            [
              74.9647833,
              18.5062103
            ],
            [
              74.9647365,
              18.506181
            ],
            [
              74.9640688,
              18.5057788
            ],
            [
              74.96411,
              18.506004
            ],
            [
              74.9642074,
              18.5064796
            ],
            [
              74.9642394,
              18.5066448
            ],
            [
              74.9641434,
              18.5066651
            ],
            [
              74.9642218,
              18.5072117
            ],
            [
              74.9647443,
              18.5072657
            ],
            [
              74.9647542,
              18.5070827
            ],
            [
              74.965067,
              18.5071169
            ],
            [
              74.9653477,
              18.5071455
            ],
            [
              74.9661767,
              18.5072328
            ]
          ]
        ]
      }
    }
  ]
}