{
  "type": "FeatureCollection",
  "name": "Benwadi_Gat_250_Cadastre",
  "crs": {
    "type": "name",
    "properties": {
      "name": "urn:ogc:def:crs:OGC:1.3:CRS84"
    }
  },
  "features": [
    {
      "type": "Feature",
      "properties": {
        "parcel_id": "MH-AHM-KAR-BEN-250",
        "survey_no": "250",
        "gat_no": "250",
        "village": "Benwadi (बेनवडी)",
        "taluka": "Karjat (कर्जत)",
        "district": "Ahmednagar (अहमदनगर)",
        "state": "Maharashtra",
        "gis_code": "RVM2613272600130334420000",
        "owner_name": "बाळू गणपत फरांडे, दत्तात्रय गणपत फरांडे, किरण विठ्ठल फरांडे, रुक्मिणी विठ्ठल फरांडे, गंगुबाई गणपत फरांडे, रविंद्र विठ्ठल फरांडे, छबाबाई आनंदा रासकर, संतोष राजाराम फरांडे, हिराबाई राजाराम फरांडे, सिताबाई शंकर फरांडे, संगीता रमेश जाधव, मंगल सुखदेव सायकर, तुकाराम शंकर फरांडे",
        "all_owners": [
          "बाळू गणपत फरांडे, दत्तात्रय गणपत फरांडे, किरण विठ्ठल फरांडे, रुक्मिणी विठ्ठल फरांडे, गंगुबाई गणपत फरांडे, रविंद्र विठ्ठल फरांडे",
          "छबाबाई आनंदा रासकर, संतोष राजाराम फरांडे, हिराबाई राजाराम फरांडे, सिताबाई शंकर फरांडे, संगीता रमेश जाधव, मंगल सुखदेव सायकर, तुकाराम शंकर फरांडे",
          "पांडूरंग तात्याबा फरांडे",
          "किरण विठ्ठल फरांडे",
          "रूक्मिणी विठठल फरांडे",
          "शहादेव बयाजी फरांडे, हरी बयाजी फरांडे, बाळू बयाजी फरांडे",
          "विनायक भगवान फरांडे, माणिक भगवान फरांडे, सखुबाई बाळू गदादे, नवनाथ भगवान फरांडे",
          "महादेव श्रीरंग नाळे",
          "गणेश खंडू भिताडे",
          "हरी बयाजी फरांडे, बाळू बयाजी फरांडे, शहादेव बयाजी फरांडे"
        ],
        "khata_no": "48, 311, 144, 3034, 962, 2858, 191, 2947, 49, 2858",
        "area_sqm": 83090.54,
        "area_acres": 20.53,
        "area_guntha": 821.3,
        "land_type": "जिरायत शेती (Jirayat - Rainfed Agricultural)",
        "source": "MahaBhuNaksha Official Live Cadastre",
        "status": "verified",
        "confidence_score": 98.8,
        "old_survey_area_acres": 20.53,
        "old_survey_area_sqm": 83090.54,
        "new_survey_area_acres": 20.53,
        "new_survey_area_sqm": 83090.54
      },
      "geometry": {
        "type": "Polygon",
        "coordinates": [
          [
            [
              74.9710823,
              18.4918003
            ],
            [
              74.9706006,
              18.4913268
            ],
            [
              74.9703659,
              18.4910782
            ],
            [
              74.9698466,
              18.4905327
            ],
            [
              74.969235,
              18.4898761
            ],
            [
              74.9690668,
              18.4899244
            ],
            [
              74.9672065,
              18.490506
            ],
            [
              74.9665768,
              18.4907029
            ],
            [
              74.9671693,
              18.491489
            ],
            [
              74.9674949,
              18.4919283
            ],
            [
              74.9677887,
              18.492797
            ],
            [
              74.9692457,
              18.4923477
            ],
            [
              74.9710823,
              18.4918003
            ]
          ]
        ]
      }
    }
  ]
}