{
  "type": "FeatureCollection",
  "name": "Benwadi_Gat_467_Cadastre",
  "crs": {
    "type": "name",
    "properties": {
      "name": "urn:ogc:def:crs:OGC:1.3:CRS84"
    }
  },
  "features": [
    {
      "type": "Feature",
      "properties": {
        "parcel_id": "MH-AHM-KAR-BEN-467",
        "survey_no": "467",
        "gat_no": "467",
        "village": "Benwadi (बेनवडी)",
        "taluka": "Karjat (कर्जत)",
        "district": "Ahmednagar (अहमदनगर)",
        "state": "Maharashtra",
        "gis_code": "RVM2613272600130334420000",
        "owner_name": "गोरख भानूदास फरांडे",
        "all_owners": [
          "गोरख भानूदास फरांडे"
        ],
        "khata_no": "575",
        "area_sqm": 14630.86,
        "area_acres": 3.62,
        "area_guntha": 144.62,
        "land_type": "जिरायत शेती (Jirayat - Rainfed Agricultural)",
        "source": "MahaBhuNaksha Official Live Cadastre",
        "status": "verified",
        "confidence_score": 98.8,
        "old_survey_area_acres": 3.62,
        "old_survey_area_sqm": 14630.86,
        "new_survey_area_acres": 3.62,
        "new_survey_area_sqm": 14630.86
      },
      "geometry": {
        "type": "Polygon",
        "coordinates": [
          [
            [
              74.9901697,
              18.4893291
            ],
            [
              74.9899112,
              18.489439
            ],
            [
              74.9894979,
              18.4895037
            ],
            [
              74.9892511,
              18.4897794
            ],
            [
              74.989282,
              18.4901602
            ],
            [
              74.9894409,
              18.4914796
            ],
            [
              74.9895495,
              18.4914724
            ],
            [
              74.9900382,
              18.4905842
            ],
            [
              74.9901697,
              18.4893291
            ]
          ]
        ]
      }
    }
  ]
}