{
  "type": "FeatureCollection",
  "name": "Benwadi_Gat_316_Drone_Resurvey",
  "crs": {
    "type": "name",
    "properties": {
      "name": "urn:ogc:def:crs:OGC:1.3:CRS84"
    }
  },
  "features": [
    {
      "type": "Feature",
      "properties": {
        "parcel_id": "MH-AHM-KAR-BEN-316",
        "survey_no": "316",
        "gat_no": "316",
        "village": "Benwadi (बेनवडी)",
        "taluka": "Karjat (कर्जत)",
        "district": "Ahmednagar (अहमदनगर)",
        "state": "Maharashtra",
        "gis_code": "RVM2613272600130334420000",
        "owner_name": "बबन रंगनाथ कवडे",
        "all_owners": [
          "बबन रंगनाथ कवडे"
        ],
        "khata_no": "408",
        "area_sqm": 12216.6,
        "area_acres": 3.02,
        "area_guntha": 120.75,
        "land_type": "जिरायत शेती (Jirayat - Rainfed Agricultural)",
        "source": "MahaBhuNaksha Official Live Cadastre",
        "status": "needs_review",
        "confidence_score": 85.4,
        "old_survey_area_acres": 3.02,
        "old_survey_area_sqm": 12216.6,
        "new_survey_area_acres": 3.09,
        "new_survey_area_sqm": 12485.4,
        "area_diff_pct": 2.2,
        "mean_shift_m": 1.7,
        "iou_overlap_pct": 93.8,
        "review_reason": "Drone RTK photogrammetry detects a 2.2% area discrepancy (269 m²) with a mean bund shift of 1.7m along the farm boundary. Verification recommended.",
        "bhunaksha_geometry": {
          "type": "Polygon",
          "coordinates": [
            [
              [
                74.9701876,
                18.5042785
              ],
              [
                74.9695685,
                18.5044997
              ],
              [
                74.9695924,
                18.5046679
              ],
              [
                74.9692624,
                18.5047992
              ],
              [
                74.9692131,
                18.5046144
              ],
              [
                74.9689589,
                18.5047042
              ],
              [
                74.9678746,
                18.50508
              ],
              [
                74.9682429,
                18.5058676
              ],
              [
                74.9684268,
                18.5057115
              ],
              [
                74.9687042,
                18.5054485
              ],
              [
                74.9693361,
                18.5050211
              ],
              [
                74.9697929,
                18.504719
              ],
              [
                74.9701876,
                18.5042785
              ]
            ]
          ]
        }
      },
      "geometry": {
        "type": "Polygon",
        "coordinates": [
          [
            [
              74.9702105,
              18.5042823
            ],
            [
              74.9695847,
              18.5045059
            ],
            [
              74.9696088,
              18.504676
            ],
            [
              74.9692752,
              18.5048087
            ],
            [
              74.9692254,
              18.5046219
            ],
            [
              74.9689684,
              18.5047127
            ],
            [
              74.9678722,
              18.5050926
            ],
            [
              74.9682446,
              18.5058888
            ],
            [
              74.9684305,
              18.505731
            ],
            [
              74.9687109,
              18.5054651
            ],
            [
              74.9693497,
              18.5050331
            ],
            [
              74.9698115,
              18.5047276
            ],
            [
              74.9702105,
              18.5042823
            ]
          ]
        ]
      }
    }
  ]
}