{
  "type": "FeatureCollection",
  "name": "Benwadi_Gat_90_Drone_Resurvey",
  "crs": {
    "type": "name",
    "properties": {
      "name": "urn:ogc:def:crs:OGC:1.3:CRS84"
    }
  },
  "features": [
    {
      "type": "Feature",
      "properties": {
        "parcel_id": "MH-AHM-KAR-BEN-90",
        "survey_no": "90",
        "gat_no": "90",
        "village": "Benwadi (बेनवडी)",
        "taluka": "Karjat (कर्जत)",
        "district": "Ahmednagar (अहमदनगर)",
        "state": "Maharashtra",
        "gis_code": "RVM2613272600130334420000",
        "owner_name": "अजय कचरू खुडे, पवन गोरख खुडे",
        "all_owners": [
          "अजय कचरू खुडे",
          "पवन गोरख खुडे",
          "मच्छिंद्र साहेबराव खुडे"
        ],
        "khata_no": "3257, 3475, 747",
        "area_sqm": 9682.67,
        "area_acres": 2.39,
        "area_guntha": 95.71,
        "land_type": "जिरायत शेती (Jirayat - Rainfed Agricultural)",
        "source": "MahaBhuNaksha Official Live Cadastre",
        "status": "needs_review",
        "confidence_score": 84.6,
        "old_survey_area_acres": 2.39,
        "old_survey_area_sqm": 9682.67,
        "new_survey_area_acres": 2.46,
        "new_survey_area_sqm": 9953.8,
        "area_diff_pct": 2.8,
        "mean_shift_m": 1.5,
        "iou_overlap_pct": 93.2,
        "review_reason": "Drone RTK photogrammetry detects a 2.8% area discrepancy (271 m²) with a mean bund shift of 1.5m along the farm boundary. Verification recommended.",
        "bhunaksha_geometry": {
          "type": "Polygon",
          "coordinates": [
            [
              [
                74.9809918,
                18.4901607
              ],
              [
                74.9810786,
                18.4892752
              ],
              [
                74.9810915,
                18.4891539
              ],
              [
                74.9799643,
                18.4895064
              ],
              [
                74.9800364,
                18.4897135
              ],
              [
                74.9801933,
                18.490199
              ],
              [
                74.9809918,
                18.4901607
              ]
            ]
          ]
        }
      },
      "geometry": {
        "type": "Polygon",
        "coordinates": [
          [
            [
              74.9809976,
              18.4901541
            ],
            [
              74.9810856,
              18.4892562
            ],
            [
              74.9810987,
              18.4891333
            ],
            [
              74.9799558,
              18.4894907
            ],
            [
              74.9800289,
              18.4897006
            ],
            [
              74.980188,
              18.4901929
            ],
            [
              74.9809976,
              18.4901541
            ]
          ]
        ]
      }
    }
  ]
}