{
  "type": "FeatureCollection",
  "name": "Benwadi_Gat_504_Drone_Resurvey",
  "crs": {
    "type": "name",
    "properties": {
      "name": "urn:ogc:def:crs:OGC:1.3:CRS84"
    }
  },
  "features": [
    {
      "type": "Feature",
      "properties": {
        "parcel_id": "MH-AHM-KAR-BEN-504",
        "survey_no": "504",
        "gat_no": "504",
        "village": "Benwadi (बेनवडी)",
        "taluka": "Karjat (कर्जत)",
        "district": "Ahmednagar (अहमदनगर)",
        "state": "Maharashtra",
        "gis_code": "RVM2613272600130334420000",
        "owner_name": "अंकुश भगवान गदादे, आबई भगवान गदादे, आबा तुकाराम गदादे, काका भगवान गदादे, कोंडाबाई लहू नाळे, गेना गणपती गदादे, जगन्नाथ तात्याबा गदादे, दत्तात्रय तुकाराम गदादे, दशरथ नारायण गदादे, पंढरीनाथ दगडू गदादे, प्रमिला कानिफनाथ अभंग, बबन तुकाराम गदादे, बबन नारायण गदादे, बापू कानिफनाथ अभंग, बाबा रामा गदादे, बाळू विठ्ठल गदादे, भामाबाई बाबा सायकर, मारुती नारायण गदादे, विजया सुरेश सायकर, सतीष कानिफनाथ अभंग, सामाबाई बाबू जाधव, सुरेखा कानिफनाथ अभंग, कोंडीबा नारायण गदादे",
        "all_owners": [
          "अंकुश भगवान गदादे, आबई भगवान गदादे, आबा तुकाराम गदादे, काका भगवान गदादे, कोंडाबाई लहू नाळे, गेना गणपती गदादे, जगन्नाथ तात्याबा गदादे, दत्तात्रय तुकाराम गदादे, दशरथ नारायण गदादे, पंढरीनाथ दगडू गदादे, प्रमिला कानिफनाथ अभंग, बबन तुकाराम गदादे, बबन नारायण गदादे, बापू कानिफनाथ अभंग, बाबा रामा गदादे, बाळू विठ्ठल गदादे, भामाबाई बाबा सायकर, मारुती नारायण गदादे, विजया सुरेश सायकर, सतीष कानिफनाथ अभंग, सामाबाई बाबू जाधव, सुरेखा कानिफनाथ अभंग, कोंडीबा नारायण गदादे"
        ],
        "khata_no": "3077",
        "area_sqm": 285.61,
        "area_acres": 0.07,
        "area_guntha": 2.82,
        "land_type": "जिरायत शेती (Jirayat - Rainfed Agricultural)",
        "source": "MahaBhuNaksha Official Live Cadastre",
        "status": "needs_review",
        "confidence_score": 85.1,
        "old_survey_area_acres": 0.07,
        "old_survey_area_sqm": 285.61,
        "new_survey_area_acres": 0.07,
        "new_survey_area_sqm": 292.5,
        "area_diff_pct": 2.4,
        "mean_shift_m": 1.7,
        "iou_overlap_pct": 93.6,
        "review_reason": "Drone RTK photogrammetry detects a 2.4% area discrepancy (7 m²) with a mean bund shift of 1.7m along the farm boundary. Verification recommended.",
        "bhunaksha_geometry": {
          "type": "Polygon",
          "coordinates": [
            [
              [
                74.9818073,
                18.4953922
              ],
              [
                74.9817953,
                18.4953304
              ],
              [
                74.981588,
                18.4953422
              ],
              [
                74.9816302,
                18.4955157
              ],
              [
                74.9818073,
                18.4953922
              ]
            ]
          ]
        }
      },
      "geometry": {
        "type": "Polygon",
        "coordinates": [
          [
            [
              74.9817927,
              18.4953892
            ],
            [
              74.9817805,
              18.4953267
            ],
            [
              74.9815708,
              18.4953387
            ],
            [
              74.9816135,
              18.4955142
            ],
            [
              74.9817927,
              18.4953892
            ]
          ]
        ]
      }
    }
  ]
}